name,type,eircode,address,lat,lng,email,phone,contact1,contact2,contact3,link,sourceId
Cork Sdeaf Assoc,CHIME,,"Deaf Centre, 5 McCurtain Street, Cork",51.90138721,-8.466617503,,(021) 450 5944,,,CDA,https://www.corkdeaf.ie/about-us/,
Chime - Carlow,CHIME,,Cathedral Parish Centre College Street Carlow,52.83767021,-6.928924691,,,,,"10am - 1pm,  on  First Tuesday of every month",https://www.ennisparish.com/contacts/,https://www.chime.ie/services/outreach-clinics-nationwide
Chime - Ennis,CHIME,,Ennis Parish Centre Station Road Ennis County Clare,52.84188457,-8.98317339,,065 682 4043,,,10am - 1pm and 2pm - 4pm on the 4th Wednesday of the Month,https://www.chime.ie/services/outreach-clinics-nationwide,
Chime - Buncrana,CHIME,,Maginn Ave Ardaravan Buncrana Co. Donegal,55.13486691,-7.452258457,,0749363611,,,9.30am - 4pm on the first and third Tuesday of the Month,http://buncranamedicalcentre.ie/,
Chime - Drumlonagher,CHIME,,"Donegal Town Primary Centre, Drumlongher  F94 PD8W",54.68025696,-8.089995669,,0749898001,,,"9.30am - 4pm, 2nd and 4th Monday of every month.",https://www.chime.ie/services/outreach-clinics-nationwide,
Chime - Clifden,CHIME,,Galway Rd Clifden Co. Galway,53.48958071,-10.01650907,,09521102,,,3rd Tuesday of the month - 10:300-13:00,https://www.chime.ie/services/outreach-clinics-nationwide,
Chime - Tuam,CHIME,,Townparks (2nd Division) Tuam Co. Galway H54 DT61,53.51160195,-8.851689774,,09337800,,,"10.30am - 1pm, on the 1st Friday of the month",https://www.tuamfamilypractice.ie/contact,
Chime - Cahersiveen,CHIME,,The Marina Caherciveen County Kerry,51.94777675,-10.23190087,,,,,2nd Tuesday of the month. 11am to 2pm,https://www.chime.ie/services/outreach-clinics-nationwide,
Chime - Achill,CHIME,,Achill Sound Health Centre. 1st Floor Room 14,53.93019891,-9.928882504,,,,,First Monday of each month. If it falls on a Bank holiday the second Monday of the month 10:30-13:00,https://www.chime.ie/services/outreach-clinics-nationwide,
Chime - Ballina,CHIME,,Ballina Primary Care Centre Kevin Barry St Ballina Co. Mayo,54.11202804,-9.159915145,,09622868,,,,https://www.chime.ie/services/outreach-clinics-nationwide,
Chime - Kenmare,CHIME,,Kenmare Family Resource Centre  Railway Road Kenmare Co.Kerry,51.8830806,-9.582134703,,0646642790,,,10am - 1pm on the Last Friday of the Month,https://www.chime.ie/services/outreach-clinics-nationwide,
Chime - Killorglin,CHIME,,"Day Care Centre, Market Street, Killorglin Co. Kerry",52.10754781,-9.785748394,,066 979 0907,,,2nd Thursday of the Month - 2pm - 4pm,https://www.chime.ie/services/outreach-clinics-nationwide,
Chime - Athy,CHIME,,Athy Family Resource Centre Woodstock Street Townparks Athy,52.99578118,-6.992196088,,086 065 3042,,,11am - 1pm Last Wednesday of the Month,https://www.chime.ie/services/outreach-clinics-nationwide,
Chime - Newbridge,CHIME,,Newbridge Family Resource Centre Dara Park Newbridge,53.18032784,-6.810324757,,086 065 3042,,,11am - 1pm Last Tuesday of the Month,https://www.chime.ie/services/outreach-clinics-nationwide,
Chime - Kilkenny,CHIME,,St Patricks Parish Centre Loughboy Gallowshill Kilkenny,52.64080871,-7.24142429,,,,,"10am - 1pm,  on the third Wednesday of every month",https://www.chime.ie/services/outreach-clinics-nationwide,
Chime - Newcastle west Limerick,CHIME,,Desmond Complex Newcastle West Limerick,52.45515744,-9.057492388,,06962757,,,"10am - 1pm, 3rd Thursday of the month",http://www.desmondcomplex.pro.ie/,
Chime - Longford,CHIME,,Longford Centre 9A Great Water St Townparks Longford N39 R7R6,53.72904776,-7.798428141,,,,,"10am - 1pm, on the 1st Tuesday of the month",https://www.chime.ie/services/outreach-clinics-nationwide,
Chime - Birr,CHIME,,"Birr Technology Centre St Brendan Street Birr, Offaly",53.09311027,-7.911260361,,,,,"2pm - 4.30pm, First Wednesday of every month",https://www.chime.ie/services/outreach-clinics-nationwide,
Chime - Portlaois,CHIME,,Citizens Information Centre Kellyville Centre Kellyville Park Kylekiproe Portlaoise,53.03346296,-7.299748503,,,,,"10am - 12.30pm, Last Tuesday of every month",https://www.chime.ie/services/outreach-clinics-nationwide,
Chime - Abbeyville,CHIME,,Chime Office Abbeyville Centre Abbeyville F91 KH5X,54.26975864,-8.467719387,,,,,9am - 3pm on the 2nd and 4th Tuesday of every month,https://www.chime.ie/services/outreach-clinics-nationwide,
Chime - Clonmell,CHIME,,Community Resource Centre Kickham Street Clonmel Tipperary,52.35714086,-7.699544774,,,,,"10am - 1pm,  on the first Thursday of every month",https://www.chime.ie/services/outreach-clinics-nationwide,
Chime - Nenagh,CHIME,,"Tyone Health Centre, Nenagh Co. Tipperary",52.85767322,-8.191533203,,,,,"10am - 1pm and 2pm - 4pm, on the 1st Wednesday of the month",https://www.chime.ie/services/outreach-clinics-nationwide,
Chime - Thurles,CHIME,,Primary Health Care Centre Thurles,52.68159991,-7.804210035,,,,,"10am - 1pm and 2pm - 4pm, on the 2nd Wednesday of the month",https://www.chime.ie/services/outreach-clinics-nationwide,
Chime - Mullingar,CHIME,,1428 Active Retirement club 2 Harbour Street Mullingar Co. Westmeath N91 FY96,53.52774482,-7.341389303,,044 9384290,,,"10am - 1pm, Last Friday of the month",https://www.chime.ie/services/outreach-clinics-nationwide,
Chime - Wexford,CHIME,,Lochrann House Cinema Lane Wexford,52.33795241,-6.459653503,,,,,"10am - 1pm,  on the first Wednesday of every month",https://www.chime.ie/services/outreach-clinics-nationwide,
Chime - Greystones,CHIME,,Greystones Family Resource Centre Unit 10 2nd Floor Charlesland Centre Greystones,53.12698884,-6.063993003,,,,,"1pm - 3pm, 2nd last Tuesday of the month",https://www.chime.ie/services/outreach-clinics-nationwide,
Chime - Dublin North,CHIME,,"Deaf Village Ireland Ratoath Road Cabra, Dublin 7 D07 W94H",53.36426624,-6.299373,,01 8175700,,,Mon - Fri 9am - 5pm,https://www.chime.ie/services/outreach-clinics-nationwide,
Chime - Dublin South,CHIME,,Unit G-H Exchange Hall Belgard Square North Tallaght Dublin 24 D24 YW89,53.29069903,-6.37421914,,01 462 0377,,,Mon - Fri 9am - 5pm,https://www.chime.ie/services/outreach-clinics-nationwide,
Chime - Dundalk,CHIME,,14 Jocelyn Street Dundalk Co. Louth A91 XNY2,54.00508667,-6.396669915,,042 933 2010,,,Mon - Fri 9am - 5pm Closed for lunch 1pm - 2pm,https://www.chime.ie/services/outreach-clinics-nationwide,
Chime - Tullamore,CHIME,,14 Church Street Tullamore Co Offaly R35 T0C9,53.27521699,-7.491255985,,057 935 1606,,,Mon - Fri 9am - 5pm Closed for lunch 1pm - 2pm,https://www.chime.ie/services/outreach-clinics-nationwide,
Chime - Castlebar,CHIME,,Castlebar. St Mary's - SLT Room (Ground Floor Opposite Audiology),53.84989733,-9.305609436,,,,,Every Wednesday. 10am - 1pm,https://www.chime.ie/services/outreach-clinics-nationwide,
Chime - Loughrea,CHIME,,Loughrea Primary Care Centre St. Brendan’s Campus Lake Road Loughrea.,53.19017044,-8.564565629,,,,,Last Thursday of each month - 10 to 13:00,https://www.chime.ie/services/outreach-clinics-nationwide,
Chime - Ballinasloe,CHIME,,Brackernagh Health Centre Brackernagh Ballinasloe,53.32959126,-8.230920728,,,,,First Wednesday of the month - 10-13:00,https://www.chime.ie/services/outreach-clinics-nationwide,
Chime - Roscommon,CHIME,,Primary Care clinic Golf Links Road Roscommon,53.62811902,-8.18775049,,,,,First Thursday of the month - 10-13:00,https://www.chime.ie/services/outreach-clinics-nationwide,
Chime - Castlerea,CHIME,,Primary Care Clinic Ballinlough Road Castlerea Co Roscommon,53.77014919,-8.505237803,,,,,First Friday of the month - 10:30-13:00,https://www.chime.ie/services/outreach-clinics-nationwide,
Southern Centre of Operations,ALZ,,Bessboro Day Care Centre Blackrock Cork Co. Cork. R93 F8K3,52.83489385,-6.925693148,breda.twohig@alzheimer.ie,087 9330737,Breda Twohig,,,https://alzheimer.ie/location/southern-centre-of-operations/,
Mitchelstown Day Care,ALZ,,Mitchelstown Day Care James Street Mitchelstown Co. Cork P67 WP49,52.2653144,-8.272594679,rebecca.cullen@alzheimer.ie,087 2073719,Rebecca Cullen,,,https://alzheimer.ie/location/mitchelstown-day-care/,
Newmarket Alzheimer Café,ALZ,,The Culturlann Newmarket Co Cork P51 D854,52.21457212,-8.995715887,newmarket.alzcafe@alzheimer.ie,,Linda Grogan / Rhona Gerrard,,,https://alzheimer.ie/location/newmarket-alzheimer-cafe/,
North Cork Day Care at Home,ALZ,,,52.15361082,-8.53127015,mgallagher@alzheimer.ie,022 43322 / 086 239 6057,Marie Gallagher,,,https://alzheimer.ie/location/mallow-cork-day-care-at-home/,
Mallow Day Care,ALZ,,Mallow Daycare Nano Nagle Centre Nano Nagle Birthplace Ballygriffin Mallow County Cork P51 CV91,52.1516042,-8.523455048,lena.osullivan@alzheimer.ie,022 433 22,Lena O'Sullivan,,,https://alzheimer.ie/location/mallow-day-care/,
Fermoy Dementia Café,ALZ,,Adare Hall Fermoy,52.14247261,-8.276480345,amurphy@alzheimer.ie,086 781 2217,Amy Murphy,,,https://alzheimer.ie/location/fermoy-dementia-cafe/,
North Cork Home Care,ALZ,,St Mary's Day Care Lower Bearforest Mallow Co Cork. P51 WKE3,52.13013604,-8.64060381,,022 509 45 / 086 239 6057,Marie Gallagher,,,https://alzheimer.ie/location/north-cork-home-care/,
North Cork Support Group – Café de Mentia,ALZ,,St Mary's Day Care Centre Lenihans Lane Lower Bearforest Mallow Cork. P51 WKE3,52.13000432,-8.640517979,,086 781 2217,"Amy Murphy, Dementia Adviser",,,https://alzheimer.ie/location/north-cork-support-group-cafe-de-mentia/,
Mallow Memory Technology Resource Room,ALZ,,Mallow Primary Healthcare building Mallow Co. Cork,52.12047829,-8.656796059,sheena.cadoo@hse.ie,022 58700 / 086 7871818,Sheena Cadoo,,,https://alzheimer.ie/location/mallow-memory-technology-resource-room/,
The Crystal Project,ALZ,,Mallow Primary Healthcare Centre,52.12015241,-8.656869944,info@crystalproject.ie,022 58700,,,,https://alzheimer.ie/location/the-crystal-project/,
Conna Day Care,ALZ,,Conna Social Day Care Centre Conna North Cork Co. Cork. P51 PP30,52.09226061,-8.110398133,rebecca.cullen@alzheimer.ie,872073719,Rebecca Cullen,,,https://alzheimer.ie/location/conna-day-care/,
North Cork Dementia Adviser,ALZ,,St Stephens Psychiatric Hospital Sarsfield Court County Cork,51.95577093,-8.401716026,amurphy@alzheimer.ie,086 781 2217,Amy Murphy,,,https://alzheimer.ie/location/north-cork-dementia-adviser/,
South Cork Dementia Adviser,ALZ,,St Stephens Psychiatric Hospital Sarsfield Court County Cork,51.95577093,-8.401716026,amurphy@alzheimer.ie,086 781 2217,Amy Murphy,,,https://alzheimer.ie/location/south-cork-dementia-adviser/,
Youghal Social Cafe,ALZ,,Holy Family Church Hall Youghal Cork,51.95187597,-7.856709588,,087 641 3468,Niamh Herbert,,,https://alzheimer.ie/location/youghal-social-cafe/,
Macroom Day Care (Formerly Bandon),ALZ,,Comhlacht Tithe Sóisialta agus Forbairt an tSuláin Teoranta Ionad Lae Macroom Co Cork P12 WK02,51.94246078,-9.160080525,clare.odriscoll@alzheimer.ie,087 611 4282,Clare O'Driscoll,,,https://alzheimer.ie/location/bandon-day-care/,
Midleton Day Care,ALZ,,McCauley Day Care Centre Midleton Hospital Midleton Co. Cork P25 XD82,51.91884782,-8.170759825,barbara.janiec@alzheimer.ie,087 383 5208,Barbara Janiec,,,https://alzheimer.ie/location/midleton-day-care/,
Ballincollig Alzheimer Café,ALZ,,Chapel Gate Cafe Ballincollig Cork P31 XP38,51.88751699,-8.590004664,karen.fitzpatrick@alzheimer.ie,873487511,Karen Fitzpatrick,,,https://alzheimer.ie/location/ballincollig-alzheimer-cafe/,
Cork Memory Technology Resource Room,ALZ,,"MTRR, Grounds of St. Finbarr's Hospital Douglas Road Co. Cork",51.88731577,-8.460037088,Martina.Agar@hse.ie,0867871748 / 021 4923194,Martina Agar,,,https://alzheimer.ie/location/cork-memory-technology-resource-room/,
"Assessment & Treatment Clinic, Cork",ALZ,,Assessment & Treatment Centre St. Finbarrs Hospital Douglas Road Cork City Co. Cork,51.88731577,-8.46005,,021 4923298,,,,https://alzheimer.ie/location/assessment-treatment-clinic-cork/,
Bessboro Saturday Club,ALZ,,Bessboro Day Care Centre Bessboro Blackrock Co. Cork. T12 HF70,51.88674309,-8.408758133,jeremiah.foley@alzheimer.ie,085 856 5795,Jerry Foley,,,https://alzheimer.ie/location/bessboro-saturday-club/,
Cork Day Care Centre,ALZ,,Bessboro Day Care Centre Bessboro Blackrock Co. Cork. T12 HF70,51.88669012,-8.409144371,Jeremiah.Foley@alzheimer.ie,021 497 2504 / 021 497 2505 / 021 497 2506,Jerry Foley,,,https://alzheimer.ie/location/cork-day-care-centre/,
"Cork City, North & South Lee Home Care",ALZ,,Bessboro Day Care Centre Bessboro Blackrock Co. Cork. T12 HF70,51.88655768,-8.408801049,,021 497 2504,Cathy Hadden,,,https://alzheimer.ie/location/cork-city-north-south-lee-home-care/,
Cork City Support Group,ALZ,,Bessboro Day Care Centre Bessboro Blackrock Co. Cork. T12 HF70,51.88623982,-8.408801049,vbradbury@alzheimer.ie / amurphy@alzheimer.ie,021 497 2504,Vanessa Bradbury,,,https://alzheimer.ie/location/cork-city-support-group/,
Cork Carer Online Support Group,ALZ,,Bessboro Day Care Centre Bessboro Blackrock Co. Cork. T12 HF70,51.88623982,-8.408801049,amurphy@alzheimer.ie / vbradbury@alzheimer.ie,,Vanessa Bradbury,,,https://alzheimer.ie/location/cork-carer-online-support-group/,
Carrigaline Alzheimer Café,ALZ,,Family Support Centre Church Road Carrigaline County Cork P43 FR80,51.81661925,-8.38740071,karen.fitzpatrick@alzheimer.ie,873487511,Karen Fitzpatrick,,,https://alzheimer.ie/location/cork-alzheimer-cafe/,
West Cork Home Care,ALZ,,33 North Street Skibbereen County Cork P81NW63,51.55006738,-9.265983249,,086 883 0577,Michelle O'Shea,,,https://alzheimer.ie/location/west-cork-home-care/,
Skibbereen Day Care,ALZ,,Skibbereen Day Care Cara house Market Street Skibbereen Co. Cork. P81 Y046,51.54876985,-9.264207388,,086 883 0577,Michelle O'Shea,,,https://alzheimer.ie/location/skibbereen-day-care/,
West Cork Dementia Adviser,ALZ,,,,,vbradbury@alzheimer.ie,086 0218463,Vanessa Bradbury,,,https://alzheimer.ie/location/west-cork-dementia-adviser/,
Bessboro/Midleton/Bandon Day Care at Home,ALZ,,,,,Jeremiah.Foley@alzheimer.ie / Karen.fitzpatrick@alzheimer.ie,021 4972504 / 085 8565795 (Jerry) / 087 3487511 (Karen,Jerry Foley/ Karen Fitzpatrick,,,https://alzheimer.ie/location/bessboro-midleton-bandon-day-care-at-home/,
Age Action Care and Repair,ALZ,,,,,info@ageaction.ie,,,,,https://alzheimer.ie/location/age-action-care-and-repair-dublin/,
Engaging Dementia Virtual Rainbow Cafe,ALZ,,,,,virtualcafe@engagingdementia.ie,,,,,https://alzheimer.ie/location/engaging-dementia-virtual-rainbow-cafe/,"The Rainbow Café is specifically for older LGBT+ persons, proactive allies, and healthcare professionals supporting older persons. "
Singing for the Brain,ALZ,,,,,singing4thebrain@gmail.com,087 462 2216 (mornings),Mary,,,https://alzheimer.ie/location/singing-for-the-brain-youghal/,
National Online Family Carer Support Groups,ALZ,,,ON-Line,,onlinesupportgroup@alzheimer.ie,1800 341 341,,,,https://alzheimer.ie/about-dementia/family-carer-training/,
Barrow Swifts Multi-Sports Junior Club,WA,,Barrow Centre IT Carlow Co. Carlow,52.82647966,-6.936462561,secretary.barrowswifts@iwasport.com,,,,,https://www.iwa.ie/,
IWA Carlow,WA,,Teach Fáilte Kilkenny Road Carlow R93 K3H4,52.82215576,-6.941246888,carlow@iwa.ie,059 914 0983 ,,,,https://www.iwa.ie/,
IWA Cavan,WA,,"Unit 1 Block D, Corlurgan Business Park Ballinagh Road Cavan H12W667",53.96244936,-7.35798803,cavan@iwa.ie,049 437 1212 ,,,,https://www.iwa.ie/,
IWA Clare,WA,,IWA Abbeyfield Centre Francis St. Ennis Co. Clare V95A6RN,52.84575093,-8.978473245,ennis@iwa.ie,065 6844150 ,,,,https://www.iwa.ie/,
IWA Ennis Charity Shop,WA,,Unit 14 Elevation Business Park Ennis Co. Clare,52.84651519,-8.970974748,ennisshop@iwa.ie,085 804 8301 ,,,,https://www.iwa.ie/,
Rebel Wheelers Basketball Club,WA,,Cope Foundation Bonnington Montenotte Cork,51.90679413,-8.438883088,Secretary.RebelWheelers@iwasport.com,,,,,https://www.iwa.ie/,
IWA Clonakility,WA,,Unit 6 Clogheen Industrial Estate Clonakilty Co. Cork P85 W021,51.6169201,-8.902764626,clonakilty@iwa.ie,023 882 1600,,,,https://www.iwa.ie/,
IWA Clonakility Charity Shop,WA,,10 Pearse Street Clonakilty Co. Cork,51.62325945,-8.88934549,clonakiltyshop@iwa.ie,085 870 5209  ,,,,https://www.iwa.ie/,
IWA Cork,WA,,Unit 2 Oak House Bessboro Road Blackrock Co Cork X91 W2WH,52.25203032,-7.153742448,cork@iwa.ie,021 435 0282 ,,,,https://www.iwa.ie/,
IWA Mallow,WA,,"Gilbert Centre Mallow Community Campus Fair Street, Mallow Co Cork P51 AT86",52.14111262,-8.641610702,mallow@iwa.ie,022 70700 ,,,,https://www.iwa.ie/,
IWA Skibbereen Charity Shop,WA,,19 North Street Skibbereen Co. Cork,51.5505222,-9.26569699,skibbereenshop@iwa.ie,085 870 5205 ,,,,https://www.iwa.ie/,
IWA Carrigart,WA,,Contact : Carnamogagh Upper Letterkenny Co Donegal,55.2980247,-7.263551512,drcmanor@iwa.ie,074 9177448  ,COMMUNITY CENTRE OUTREACH SERVICE,,,https://www.iwa.ie/,
IWA Donegal Town,WA,,Contact : Carnamogagh Upper Letterkenny Co Donegal,54.64918361,-8.114528077,drcmanor@iwa.ie,074 9177448  ,,,,https://www.iwa.ie/,
IWA Malin,WA,,Contact : Carnamogagh Upper Letterkenny Co Donegal,54.66829182,-8.454008746,drcmanor@iwa.ie,074 9177448  ,,,,https://www.iwa.ie/,
IWA Letterkenny,WA,,Glenview Carnamogagh Upper Letterkenny Co Donegal F92EW99,54.97334876,-7.726840507,drcmanor@iwa.ie,074 9177448  ,,,,https://www.iwa.ie/,
IWA Letterkenny Shop,WA,,Unit 3 Larkins Retail Park Pearse Road Letterkenny Co. Donegal,54.94667108,-7.737678188,letterkennyshop@iwa.ie,085 870 5129 ,,,,https://www.iwa.ie/,
IWA Dobhar-Ionaid Padraic,WA,,Contact : Carnamogagh Upper Letterkenny Co Donegal,55.28287407,-7.822459473,drcmanor@iwa.ie,074 9177448  ,,,,https://www.iwa.ie/,
IWA Clontarf Charity Shop,WA,,Áras Chúchulainn Blackheath Drive Clontarf Dublin 3,53.368213,-6.200225145,info@iwa.ie,085 227 8537 ,,,,https://www.iwa.ie/,
IWA Balbriggan,WA,,Contact : Clontarf Blackheath Drive Clontarf Dublin 3,53.49138762,-6.211284,info@iwa.ie,01 8186400  ,,,,https://www.iwa.ie/,
Carmel Fallon Holiday Centre,WA,,Blackheath Drive Clontarf Dublin 3,53.368213,-6.200225146,carmelfallonrespite@iwa.ie,01 818 6458 ,,,,https://www.iwa.ie/,
IWA National Headquarters,WA,,Áras Chúchulainn Blackheath Drive Clontarf Dublin 3,53.47177435,-6.211283031,info@iwa.ie,01 818 6400,,,,https://www.iwa.ie/,
Holiday Service Ballinasloe,WA,,The Shearwater Hotel Marina Point Ballinasloe Co Galway H53 F5P9,53.32679656,-8.21954619,sinead.harte@iwa.ie,087 137 5562 ,,,,https://www.iwa.ie/,
IWA Renmore,WA,,Renmore Community Centre Renmore Avenue Galway,53.27596359,-9.016265745,Secretary.GalwaySpeeders@iwasport.com,091753022,,,,https://www.iwa.ie/,
IWA Tuam,WA,,The Glebe Dublin Road Tuam Co Galway H54 TR77,53.51178842,-8.849540647,tuam@iwa.ie,093 266 59  ,,,,https://www.iwa.ie/,
IWA Tralee,WA,,Lime Tree House Kileen Oakpark Tralee Co Kerry V92 VHY2,52.2858861,-9.68959891,tralee@iwa.ie,066 718 0154 ,,,,https://www.iwa.ie/,
IWA Tralee Charity Shop,WA,,4-5 Maine Street Tralee Co. Kerry,52.27132914,-9.707100574,Traleeshop@iwa.ie,085 870 5154  ,,,,https://www.iwa.ie/,
IWA Killarney,WA,,Killarney Reeks Gateway Unit 8 Ardnamweely Killarney Co Kerry V93 YP6P,52.06857039,-9.51749861,killarney@iwa.ie,064 6639395  ,,,,https://www.iwa.ie/,
IWA Listowel,WA,,3 Ballygalogue Road Listowel Co Kerry V31 CF43,52.44957122,-9.477068263,listowel@iwa.ie,068 24939,,,,https://www.iwa.ie/,
IWA Listowel Charity Shop,WA,,William Street Listowel Co. Kerry,52.44881423,-9.486057274,listowelshop@iwa.ie,085 870 5130  ,,,,https://www.iwa.ie/,
IWA Athy,WA,,Teach Emmanuel Woodstock North Athy Co Kildare R14 P038,52.99912559,-6.997043909,athy@iwa.ie,059 863 8529,,,,https://www.iwa.ie/,
IWA Clane,WA,,Ballinagappa Road Clane Co Kildare W91 YT99,53.29553036,-6.694434593,maats@iwa.ie,045893094,,,,https://www.iwa.ie/,
IWA Purcellinch,WA,,Unit 4 IDA Buisness Park Purcellsinch Kilkenny R95 PX5X,52.64588118,-7.211516009,,,,,,https://www.iwa.ie/,
IWA Kilkenny,WA,,Claddagh Court College Road Kilkenny R95 Y4DF,52.64651603,-7.253270078,,056 776 2775  ,,,,https://www.iwa.ie/,
IWA Portlaoise,WA,,Alvernia House St Fintans Hospital Dublin Rd Portlaoise Co. Laois R32YSW6,53.0359573,-7.28486123,laois@iwa.ie,057 869 4030 ,,,,https://www.iwa.ie/,
IWA Carrick on Shannon,WA,,Castlecarragh Road Attyfinlay Carrick on Shannon Co Leitrim N41 KF88,53.94707692,-8.074231216,drcckshannon@iwa.ie,071 962 0569  ,,,,https://www.iwa.ie/,
IWA Kinlough,WA,,Part time Location Please: Abbeyville Centre St Anne’s Sligo,54.39509221,-8.452490042,drcckshannon@iwa.ie,071 915 5522,,,,https://www.iwa.ie/,
IWA Limerick Regional Centre,WA,,Unit F1 LEDP Business Park Roxboro Limerick V94YH58,52.6481554,-8.615901917,limerick@iwa.ie,061 317234 ,,,,https://www.iwa.ie/,
IWA Longford,WA,,Kenagh Enterprise Centre Kenagh Co Longford W39W732,53.6263527,-7.818406588,kenagh@iwa.ie,043 332 2992 ,,,,https://www.iwa.ie/,
IWA Ardee Charity Shop,WA,,John Street Ardee Co. Louth,53.85252217,-6.545260205,ardeeshop@iwa.ie,085 870 5201 ,,,,https://www.iwa.ie/,
IWA Ardee / Louth,WA,,John Street Business Park Ardee Co Louth,53.85252217,-6.54527,ardee@iwa.ie,041 685 3046  ,,,,https://www.iwa.ie/,
IWA Drogheda,WA,,Unit 7 Mayoralty Street Drogheda Co Louth A92 YN76,53.71543884,-6.348282747,drogheda@iwa.ie,041 984 6614 ,,,,https://www.iwa.ie/,
IWA Castlebar,WA,,St. Anne’s Newport Road Castlebar Co. Mayo. F23 K683,53.85842587,-9.304950793,castlebar@iwa.ie,094 906 0937 ,,,,https://www.iwa.ie/,
IWA Belmullet,WA,,Logmore Belmullet Co Mayo F26VY42,54.21623763,-9.980025808,erris@iwa.ie,097 817 28 ,,,,https://www.iwa.ie/,
IWA Kells,WA,,Enterprise and Technology Centre Kells Business Park Kells Co. Meath A82E1C6,53.73977861,-6.908255847,,046-9072539  ,,,,https://www.iwa.ie/,
IWA Navan,WA,,3-4 Liscarton Villas Kells Road Navan Co Meath C15HP99,53.66095791,-6.724535062,navan@iwa.ie,046 907 2539,,,,https://www.iwa.ie/,
IWA Tullamore,WA,,Toberleheen / Ballinagar / Tullamore Co. Offaly R35NX09,53.2696696,-7.366176847,tullamore@iwa.ie,057 935 0065 ,,,,https://www.iwa.ie/,
IWA Roscommon,WA,,Unit 1 Corraun Park Racecourse Road Roscommon F42 KF98,53.64232091,-8.210239301,,087 662 2366 ,,,,https://www.iwa.ie/,
IWA Roscommon Charity Shop,WA,,Augustine House Circular Road Co. Roscommon,53.62849162,-8.188111461,roscommonshop@iwa.ie,085 804 7700 ,,,,https://www.iwa.ie/,
IWA Sligo,WA,,IWA Sligo Abbeyville Centre St Anne’s Sligo F91 KH5X,54.26996537,-8.464837462,sligo@iwa.ie,071 915 5522 ,,,,https://www.iwa.ie/,
IWA Tipperary Town,WA,,Brodeen Cashel Road Tipperary Town Co Tipperary E34VY09,52.47670876,-8.146635241,tiptown@iwa.ie,062 527 44 ,,,,https://www.iwa.ie/,
IWA Tipperary Charity Shop,WA,,47 Main Street Tipperary Town Co. Tipperary,52.47359994,-8.163248961,tipptownshop@iwa.ie,085 870 5185 ,,,,https://www.iwa.ie/,
IWA Carrick On Suir,WA,,Part time: IWA Nano Nagle Centre Carrick On Suir Co Tipperary,52.48459713,-7.401427865,tiptown@iwa.ie,062 52744 ,,,,https://www.iwa.ie/,
IWA Cashel,WA,,Part Time: Our Ladys Hospital Cashel Co Tipperary,52.51427074,-7.888141703,tiptown@iwa.ie,062 52744 ,,,,https://www.iwa.ie/,
IWA Nenagh,WA,,Part Time Location please contact IWA Tipperary Town E34VY09,52.47655193,-8.146806902,tiptown@iwa.ie,062 52744 ,,,,https://www.iwa.ie/,
IWA Roscrea,WA,,IWA Roscrea Hannon House Abbey Street Roscrea Co Tipperary E53VX86,52.95287194,-7.800575148,tipperary@iwa.ie,050 523 229,,,,https://www.iwa.ie/,
IWA Waterford,WA,,Unit 1A Cleaboy Business Park Old Kilmeaden Road Waterford X91DEC4,52.25210802,-7.153167448,waterford@iwa.ie,058 246 45  ,,,,https://www.iwa.ie/,
IWA Dungarvan Shop,WA,,21 Mitchell Street Dungarvan Co Waterford,52.08841455,-7.623500876,dungarvanshop@iwa.ie,085 870 5175 ,,,,https://www.iwa.ie/,
IWA Athlone,WA,,Clonbrusk Resource Centre Coosan Road Athlone Co Westmeath N37 C1K2,53.43382398,-7.945339032,athlone@iwa.ie,090 647 1118 ,,,,https://www.iwa.ie/,
IWA Mullingar,WA,,Springfield Centre Devlin Road Mullingar Co Westmeath N91NP30,53.53394994,-7.324602247,mullingar@iwa.ie,044 934 7511 ,,,,https://www.iwa.ie/,
IWA Ballycanew,WA,,Ballycanew Gorey Co. Wexford,52.6113808,-6.305138909,wexford@iwa.ie,053 948 2522 ,,,,https://www.iwa.ie/,
IWA Enniscorthy Charity Shop,WA,,Mill Park Enniscorthy Co. Wexford Y21 E8W9,52.501064,-6.566432425,enniscorthyshop@iwa.ie,085 870 5128 ,,,,https://www.iwa.ie/,
IWA Gorey Charity Shop,WA,,Unit 1 & 2 Willow house Pearse Street Gorey Co. Wexford,52.67654368,-6.295325818,goreyshop@iwa.ie,085 808 4172  ,,,,https://www.iwa.ie/,
IWA Wexford Charity Shop,WA,,Unit 3 Donovan’s Wharf Crescent Quay Co. Wexford,52.33801042,-6.459952803,wexfordtownshop@iwa.ie,085 803 5404 ,,,,https://www.iwa.ie/,
IWA Wexford,WA,,Lochrann House Cinema Lane Wexford Co Wexford Y35VW13,"52.33827797943078, ",-6.46000684,wexford@iwa.ie,053 912 4578 ,,,,https://www.iwa.ie/,
IWA Enniscorthy,WA,,Ballycanew Gorey Co. Wexford Y25TO44,52.6135693,-6.305620748,wexford@iwa.ie,053 948 2522 ,,,,https://www.iwa.ie/,
IWA Arklow,WA,,ABEC Centre Kilbride Industrial Estate Kilbride Arklow Co Wicklow Y14 T44,52.81147573,-6.154950617,drcarklow@iwa.ie,040 291 311 ,,,,https://www.iwa.ie/,
Shamrock Plaza Primary Care Centre,PCARE,R93 T8Y6,Green Lane Carlow,52.83709657,-6.924153938,059 9133292,,,,,https://www2.hse.ie/services/primary-care-centres/?service_area=Carlow,
Bailieborough Health Centre,PCARE,A82 E0C3,Barrack Street Bailieborough Cavan,53.91388653,-6.969743461,042 9665991,,,,,https://www2.hse.ie/services/primary-care-centres/?service_area=Cavan,
Connolly Street Primary Care Centre,PCARE,H12 C3W6,Connolly Street Cavan Cavan,53.98848157,-7.360714829,049 4378900,,,,,https://www2.hse.ie/services/primary-care-centres/?service_area=Cavan,
Darley Health Centre,PCARE,H16 C589,Fairgreen Cootehill bCavan,54.07594335,-7.083716168,049 5552555,,,,,https://www2.hse.ie/services/primary-care-centres/?service_area=Cavan,
Drumalee Primary Care Centre,PCARE,H12 NV22,Cootehill Road Drumalee Cavan,54.0011668,-7.355084122,049 4353100,,,,,https://www2.hse.ie/services/primary-care-centres/?service_area=Cavan,
Kingscourt Primary Care Centre,PCARE,A82 R2V8,Kells Road Kingscourt Cavan,53.90263104,-6.807934453,042 9679800,,,,,https://www2.hse.ie/services/primary-care-centres/?service_area=Cavan,
Virginia Health Care Unit,PCARE,A82 AH29,Rahardrum Virginia Cavan,53.83231208,-7.067370745,049 8546222,,,,,https://www2.hse.ie/services/primary-care-centres/?service_area=Cavan,
Westbury Health Centre,PCARE,V94 YH29,Westbury Corbally Clare,52.68036566,-8.5995921,061 356555,,,,,https://www2.hse.ie/services/primary-care-centres/?service_area=Clare,
Ballyshannon Primary Care Centre,PCARE,F94 TPX4,Townparks Ballyshannon Donegal,54.5026597,-8.185404968,071 9851600,,,,,https://www2.hse.ie/services/primary-care-centres/?service_area=Donegal,
Donegal Town Primary Care Centre,PCARE,F94 PD8W,Drumlonagher Donegal Town Donegal,54.66047605,-8.090750532,074 9898001 / 074 98 98059 Community Healthcare,,,,,https://www2.hse.ie/services/primary-care-centres/?service_area=Donegal,
Glenties Primary Care Centre,PCARE,F94 FY64,Ballybofey Rd Glenties Donegal,54.79602037,-8.281638041,074 9551330,,,,,https://www2.hse.ie/services/primary-care-centres/?service_area=Donegal,
Letterkenny Primary Care Centre,PCARE,F92 DPX8,Letterkenny Primary Care Centre Pearse Rd Letterkenny Donegal,54.95195322,-7.733324767,074 9123750,,,,,https://www2.hse.ie/services/primary-care-centres/?service_area=Donegal,
Milford Primary Care Centre,PCARE,F92 P7YE,Main St Milford Donegal,55.08741862,-7.697289852,074 9153500,,,,,https://www2.hse.ie/services/primary-care-centres/?service_area=Donegal,
Newtowncunningham Primary Care Centre,PCARE,F93 RTF6,Main Street Newtowncunningham Donegal,54.99661645,-7.520369806,074 989 8560,,,,,https://www2.hse.ie/services/primary-care-centres/?service_area=Donegal,
Athenry Primary Care Centre,PCARE,H65 KH93,Raheen Athenry Galway,53.3002036,-8.755619999,091 844489,,,,,https://www2.hse.ie/services/primary-care-centres/?service_area=Galway,
Ballinasloe Health Centre,PCARE,H53 R658,Brackannagh Ballinasloe Galway,53.32929796,-8.230918415,090 9642447,,,,,https://www2.hse.ie/services/primary-care-centres/?service_area=Galway,
Galway City East Primary Care Centre,PCARE,H91FCV9,Merlin Business Park Doughuisce Road Merlin Park Galway,53.28681092,-8.987931253,091 336300,,,,,https://www2.hse.ie/services/primary-care-centres/?service_area=Galway,
Inis Mor Health Centre,PCARE,H91 E677,"Kilronan, Inis Mor, Galway",53.11882765,-9.673730653,099 75976,,,,,https://www2.hse.ie/services/primary-care-centres/?service_area=Galway,
Inis Oirr Health Centre,PCARE,H91 X625,Inis Oirr Primary Care Centre Inis Oirr Galway,53.06487176,-9.51417203,099 75976,,,,,https://www2.hse.ie/services/primary-care-centres/?service_area=Galway,
Loughrea Primary Care Centre,PCARE,H62 E273,Hibernian House Lake Road Loughrea Galway,53.1942843,-8.565073615,091 847820,,,,,https://www2.hse.ie/services/primary-care-centres/?service_area=Galway,
Mountbellew Primary Care Centre,PCARE,H53 YA46,"Tuam Road, Mountbellew, Galway",53.47467742,-8.515940407,090 9623470,,,,,https://www2.hse.ie/services/primary-care-centres/?service_area=Galway,
Moycullen Health Centre,PCARE,H91 TH5V,Ballycuirke West Moycullen Galway,53.3393229,-9.180046169,091 555398,,,,,https://www2.hse.ie/services/primary-care-centres/?service_area=Galway,
Tuam Primary Care Centre,PCARE,H54 DT61,Tuam Primary Care Centre Sean Purcell Rd Tuam Galway,53.51209074,-8.851550907,093 70494,,,,,https://www2.hse.ie/services/primary-care-centres/?service_area=Galway,
Ballyheighue Health Centre,PCARE,V92 WY61,Harty's Terrace Ballyheighue Kerry,52.39070919,-9.8349853,066 713355,,,,,https://www2.hse.ie/services/primary-care-centres/?service_area=Kerry,
Dingle Community Hospital,PCARE,V92 PF65,Mail Road Farran Dingle Kerry,52.1370063,-10.26646468,066 9151777,,,,,https://www2.hse.ie/services/primary-care-centres/?service_area=Kerry,
Kenmare Primary Care Centre,PCARE,V93 Y05C,Railway Road Kenmare Kerry,51.88546941,-9.580648808,064 6641333,,,,,https://www2.hse.ie/services/primary-care-centres/?service_area=Kerry,
Athy/Castledermot,PCARE,R14 DX94,Dublin Road Athy Kildare,52.99414436,-6.966179996,059 8643701,,,,,https://www2.hse.ie/services/primary-care-centres/?service_area=Kildare,
Celbridge Primary Care,PCARE,W23 YK24,Maynooth Road Celbridge Kildare,53.34530114,-6.541333153,01 9214000,,,,,https://www2.hse.ie/services/primary-care-centres/?service_area=Kildare,
Clane Primary Care,PCARE,W91 AYT5,Abbeylands Centre Abbeyland Kildare,53.29071988,-6.682311538,045 986300,,,,,https://www2.hse.ie/services/primary-care-centres/?service_area=Kildare,
Kilcock Primary Care,PCARE,W23 XY89,Commons West Kilcock Kildare,53.39976202,-6.678454438,01 9213500,,,,,https://www2.hse.ie/services/primary-care-centres/?service_area=Kildare,
Kildare Town Primary Care,PCARE,R51 RX51,Dublin Road Kildare Kildare,53.15452146,-6.901823123,059 8633500,,,,,https://www2.hse.ie/services/primary-care-centres/?service_area=Kildare,
Naas Primary Care,PCARE,W91 X38W,Balymore Road Naas East Kildare,53.21116937,-6.664050707,045 920800,,,,,https://www2.hse.ie/services/primary-care-centres/?service_area=Kildare,
Newbridge Primary Care,PCARE,W12 XD45,Station Road Piercetown Newbridge Kildare,53.18271155,-6.802166169,045 920900,,,,,https://www2.hse.ie/services/primary-care-centres/?service_area=Kildare,
Rathangan Primary Care,PCARE,R51 CY51,River Court New Street Rush Kildare,53.22174572,-6.992710884,045 528088,,,,,https://www2.hse.ie/services/primary-care-centres/?service_area=Kildare,
Ayrefield Medical Centre,PCARE,R95 P2EF,Granges Road Ayrefield Kilkenny,52.65864479,-7.261386577,056 7721320,,,,,https://www2.hse.ie/services/primary-care-centres/?service_area=Kilkenny,
Callan Primary Care Centre,PCARE,R95 N8XK,Friary Walk Retail Park Clashacollare Callan Kilkenny,52.55060108,-7.384331277,076 1082150,,,,,https://www2.hse.ie/services/primary-care-centres/?service_area=Kilkenny,
Mountmellick Primary Care Centre,PCARE,R32 E704,"Connolly Street, Mountmellick, Laois",53.11363233,-7.321451615,057 8697500,,,,,https://www2.hse.ie/services/primary-care-centres/?service_area=Laois,
Portarlington Primary Care Centre,PCARE,R32 Y038,Kilnacourt House Bracklone Street Portarlington Laois,53.15696302,-7.181695053,057 868 4200,,,,,https://www2.hse.ie/services/primary-care-centres/?service_area=Laois,
Ballinamore Primary Care Centre,PCARE,N41 XC92,Ballinamore Bypass Ballinamore Leitrim,54.05080642,-7.803141229,071 9644040,,,,,https://www2.hse.ie/services/primary-care-centres/?service_area=Leitrim,
Manorhamilton Primary & Mental health Centre,PCARE,F91 X012,Our Ladys Hospital & Health Campus Manorhamilton Leitrim,54.30432172,-8.167164122,071 9855788,,,,,https://www2.hse.ie/services/primary-care-centres/?service_area=Leitrim,
Ballylanders Health Centre,PCARE,V35 K164,Galally Road Ballylanders Limerick,52.37303252,-8.347869531,062 46849,,,,,https://www2.hse.ie/services/primary-care-centres/?service_area=Limerick,
Ballynanty Health Centre,PCARE,V94 V380,Killaley Rd Ballynanty Limerick City Limerick,52.67505396,-8.640057054,061 457100,,,,,,
Barrack View Primary Care Centre,PCARE,V94 DD8W,Lord Edward Street Limerick Limerick,52.65530503,-8.627573805,061 461 800,,,,,,
Hospital Health Centre,PCARE,V35 EA44,Knockainey Road Hospital Hospital Limerick,52.47488424,-8.434580585,061 383031,,,,,https://www2.hse.ie/services/primary-care-centres/?service_area=Limerick,
Kings Island Primary Care Centre,PCARE,V94 T2RF,Kings Island Primary Care Centre Kings Island Limerick,52.67234273,-8.62444593,061 311811,,,,,https://www2.hse.ie/services/primary-care-centres/?service_area=Limerick,
Limerick - Castletroy,PCARE,V94 TNP3,Castletroy Park Commercial Centre Castletroy Limerick,52.66781476,-8.574835608,061 338071,,,,,https://www2.hse.ie/services/primary-care-centres/?service_area=Limerick,
Flancare Primary Care Centre,PCARE,N39 FY56,Flancare Business Park Athlone Road Ballyminion Longford,53.72109316,-7.813583838,043 3339701,,,,,https://www2.hse.ie/services/primary-care-centres/?service_area=Longford,
Boyne Centre,PCARE,A92 F4EV,Patrick Street Drogheda Louth,53.71827686,-6.355133253,041 9809500,,,,,https://www2.hse.ie/services/primary-care-centres/?service_area=Louth,
Carlingford Health Centre,PCARE,A91 PEX2,Trinity Close Carlingford Louth,54.03909425,-6.187239115,042 9373110,,,,,https://www2.hse.ie/services/primary-care-centres/?service_area=Louth,
St. Brigid's Hospital,PCARE,A92 DRN0,Kells Road Ardee Louth,53.85755227,-6.549246337,041 6853264,,,,,https://www2.hse.ie/services/primary-care-centres/?service_area=Louth,
Achill Health Centre,PCARE,F28 E142,Achill Sound Achill Mayo,53.93062117,-9.929542391,098 45231,,,,,https://www2.hse.ie/services/primary-care-centres/?service_area=Mayo,
Ballina Primary Care Centre,PCARE,F26 P6P1,Kevin Barry Street Ballina Mayo,54.11237352,-9.159924529,096 22868,,,,,https://www2.hse.ie/services/primary-care-centres/?service_area=Mayo,
Ballinrobe Primary Care Centre,PCARE,F31 RW66,Claremorris Road Ballinrobe Mayo,53.62768061,-9.212960407,094 953 9000,,,,,https://www2.hse.ie/services/primary-care-centres/?service_area=Mayo,
Castlebar Primary Care Centre,PCARE,F23 XV04,Moneenbradagh Moneen Road Castlebar Mayo,53.85644016,-9.274421061,094 9049250,,,,,https://www2.hse.ie/services/primary-care-centres/?service_area=Mayo,
Charlestown Health Centre,PCARE,F12 D620,Ballagh St Charlestown Mayo,53.96435863,-8.791795383,094 9254205,,,,,https://www2.hse.ie/services/primary-care-centres/?service_area=Mayo,
Claremorris Primary Care Centre,PCARE,F12 HX59,Kilcolman Road Claremorris Mayo,53.72461454,-9.000216792,094 9378500,,,,,https://www2.hse.ie/services/primary-care-centres/?service_area=Mayo,
Westport Primary Care Centre,PCARE,F28 ED71,Tober Hill Westport Mayo,53.79690947,-9.528380345,098 44000,,,,,https://www2.hse.ie/services/primary-care-centres/?service_area=Mayo,
Ashbourne Primary Care Centre,PCARE,A84 YX02,Declan Street Ashbourne Meath,53.51227483,-6.402078307,01 6914600,,,,,https://www2.hse.ie/services/primary-care-centres/?service_area=Meath,
Dunboyne Health Centre,PCARE,A86 PW80,Rooske Road Dunboyne Meath,53.41713021,-6.47248233,01 8024150,,,,,https://www2.hse.ie/services/primary-care-centres/?service_area=Meath,
Dunshaughlin Health Care Unit,PCARE,A85 WD91,Main Street Dunshaughlin Meath,53.5086257,-6.542889568,01 8024100,,,,,https://www2.hse.ie/services/primary-care-centres/?service_area=Meath,
Enfield Health Centre,PCARE,A83 YN20,Johnstown Road Enfield Meath,53.41463229,-6.833394799,046 9251580,,,,,https://www2.hse.ie/services/primary-care-centres/?service_area=Meath,
Knightsbridge Medical Centre,PCARE,C15 PHP1,Longwood Road Trim Meath,53.54652334,-6.797363822,046 9431198,,,,,https://www2.hse.ie/services/primary-care-centres/?service_area=Meath,
New Kells Primary Care Centre,PCARE,A82 H3C7,Navan Road Kells Meath,53.72531615,-6.862804168,046 9251400,,,,,https://www2.hse.ie/services/primary-care-centres/?service_area=Meath,
Summerhill Medical Centre,PCARE,A83 V252,New Road Summerhill Meath,53.48327039,-6.739746099,046 9557004,,,,,https://www2.hse.ie/services/primary-care-centres/?service_area=Meath,
Clara Health Centre and Day Care Centre,PCARE,R35 V6E4,The Green Clara Offaly,53.34470527,-7.613450569,057 9331242,,,,,https://www2.hse.ie/services/primary-care-centres/?service_area=Offaly,
Daingean Health Centre,PCARE,R35 E031,Main Street Daingean Offaly,53.29543286,-7.292554707,057 9353142,,,,,https://www2.hse.ie/services/primary-care-centres/?service_area=Offaly,
Moneygall Health Centre,PCARE,E53 FC92,Main Street Moneygall Offaly,52.88003903,-7.9591387,0505 45272,,,,,https://www2.hse.ie/services/primary-care-centres/?service_area=Offaly,
Tullamore Primary Care Centre,PCARE,R35 K1W4,Church Avenue Tullamore Offaly,53.27407448,-7.479140353,057 9319599,,,,,https://www2.hse.ie/services/primary-care-centres/?service_area=Offaly,
Boyle Primary Care Centre,PCARE,F52 A324,Boyle Primary Care Centre The Cresent Elphin St Boyle Roscommon,53.9700092,-8.304583575,071 967 3500,,,,,https://www2.hse.ie/services/primary-care-centres/?service_area=Roscommon,
Castlerea Primary Care Centre,PCARE,F45 CF21,Knock Road Castlerea Roscommon,53.77062942,-8.505141207,094 9624200,,,,,https://www2.hse.ie/services/primary-care-centres/?service_area=Roscommon,
Monksland Primary Care Centre,PCARE,N37 F670,Unit 3 Block C Monksland Business Park Monksland Athlone Roscommon,53.42154812,-7.990853669,090 6424840,,,,,https://www2.hse.ie/services/primary-care-centres/?service_area=Roscommon,
Roscommon Primary Care Centre,PCARE,F42 HY97,Golf Links Road Roscommon,53.62806806,-8.187417846,090 6665000,,,,,https://www2.hse.ie/services/primary-care-centres/?service_area=Roscommon,
Strokestown Primary Care Centre,PCARE,F42 PX61,Caslin Way Strokestown Roscommon,53.77984598,-8.106972922,071 9634160,,,,,https://www2.hse.ie/services/primary-care-centres/?service_area=Roscommon,
Ballymote Primary Care Centre,PCARE,F56 PK88,Earlsfield Ballymote Sligo,54.09495844,-8.515611153,071 9191803,,,,,https://www2.hse.ie/services/primary-care-centres/?service_area=Sligo,
Enniscrone Primary Care Centre,PCARE,F26 R8X3,Trotts Enniscrone Sligo,54.21610592,-9.082763291,096 36045,,,,,https://www2.hse.ie/services/primary-care-centres/?service_area=Sligo,
Markievicz Primary Care Centre,PCARE,F91 Y8EK,Markievicz House Barrack Sligo,54.27749218,-8.474834306,071 9155100,,,,,https://www2.hse.ie/services/primary-care-centres/?service_area=Sligo,
Borrisokane Primary Care Centre,PCARE,E45 C440,Old Convent Rd Borrisokane Tipperary,52.99800297,-8.129040254,067 49007,,,,,https://www2.hse.ie/services/primary-care-centres/?service_area=Tipperary,
Carrick-on-Suir Primary Care Centre,PCARE,E32 DK66,St Brigid's Hospial Campus Pil Road Carrick-on-Suir Tipperary,52.34847846,-7.403452306,051 603900,,,,,https://www2.hse.ie/services/primary-care-centres/?service_area=Tipperary,
Nenagh Health Centre,PCARE,E45 KH59,Tyone Nenagh Tipperary,52.85779842,-8.191774362,067 46400,,,,,https://www2.hse.ie/services/primary-care-centres/?service_area=Tipperary,
Our Ladies Hospital Cashel,PCARE,E25 P407,PCC services being delivered from the H.S.E.'s property the former Our Ladies Hospital The Green Cashel Tipperary,52.51460514,-7.888095062,062 70600,,,,,https://www2.hse.ie/services/primary-care-centres/?service_area=Tipperary,
Tipperary Primary Care Centre,PCARE,E34 K682,Roseanna Road Tipperary Town Tipperary,52.4797811,-8.159143123,062 87200,,,,,https://www2.hse.ie/services/primary-care-centres/?service_area=Tipperary,
Dungarvan Primary Care Centre,PCARE,X35 X236,Dungarvan Community Hospital Campus Dungarvan Waterford,52.08897141,-7.635349354,058 20900,,,,,https://www2.hse.ie/services/primary-care-centres/?service_area=Waterford,
Tramore Primary Care Centre,PCARE,X91 PK5E,Summerhill Tramore Waterford,52.16515465,-7.161551839,076 1082250,,,,,https://www2.hse.ie/services/primary-care-centres/?service_area=Waterford,
Waterford Health Park,PCARE,X91 X3HY,Slievekeil Road Waterford City Waterford,52.2541468,-7.127756993,051 861100,,,,,https://www2.hse.ie/services/primary-care-centres/?service_area=Waterford,
Waterford Primary Care Centre,PCARE,X91 F65D,St Oterans Hospital Campus John's Hill Waterford,52.24596702,-7.103945769,051 861100,,,,,https://www2.hse.ie/services/primary-care-centres/?service_area=Waterford,
Athlone Kinnegad Primary Care Centre,PCARE,N37 P8P8,Clonbrusk Athlone Westmeath,53.43403831,-7.942002199,090 6424840,,,,,https://www2.hse.ie/services/primary-care-centres/?service_area=Westmeath,
Kinnegad Primary Care Centre,PCARE,N91 PX33,Main Street Kinnegad Westmeath,53.45409585,-7.097815238,044 9374120,,,,,https://www2.hse.ie/services/primary-care-centres/?service_area=Westmeath,
Mullingar Primary Care Centre,PCARE,N91 V6R9,Harbour Road Mullingar Westmeath,53.53294642,-7.344568822,044 9353700,,,,,https://www2.hse.ie/services/primary-care-centres/?service_area=Westmeath,
Carnew Primary Care Centre,PCARE,Y14 PY64,Gorey Road Carnew Wexford,52.7109621,-6.483477108,076 6959090,,,,,https://www2.hse.ie/services/primary-care-centres/?service_area=Wexford,
Conal House Primary Care Centre,PCARE,Y25 K2N0,St Michael's Road Gorey Wexford,52.67587854,-6.291591746,053 9421303,,,,,https://www2.hse.ie/services/primary-care-centres/?service_area=Wexford,
The Avenue Primary Care Centre,PCARE,Y25 C7Y3,The Avenue Primary Care Centre The Palms Gorey Wexford,52.67500419,-6.296035284,053 9421336,,,,,https://www2.hse.ie/services/primary-care-centres/?service_area=Wexford,
Wexford Primary Care Centre,PCARE,Y35 DA39,Grogans Road Wexford Wexford,52.33574309,-6.464287093,053 9114201,,,,,https://www2.hse.ie/services/primary-care-centres/?service_area=Wexford,
Baltinglass Primary Care Centre,PCARE,W91 K510,Chapel Hill Baltinglass Wicklow,52.94239325,-6.703981854,059 8643900,,,,,https://www2.hse.ie/services/primary-care-centres/?service_area=Wicklow,
Blessington Primary Care,PCARE,W91 F5X4,Blessington Business Park Blessington Wicklow,53.17686367,-6.528891769,045 920700,,,,,https://www2.hse.ie/services/primary-care-centres/?service_area=Wicklow,
Bray Primary Care Centre,PCARE,A98 KW13,"Killarney Road, Bray, Wicklow",53.20076335,-6.112433738,01 7786020,,,,,https://www2.hse.ie/services/primary-care-centres/?service_area=Wicklow,
Newtownmountkennedy Primary Care,PCARE,A63 HD58,Mount Kennedy Town Centre Newtownmountkennedy Wicklow,53.09187699,-6.11396233,01 2018500,,,,,https://www2.hse.ie/services/primary-care-centres/?service_area=Wicklow,
Rathdrum Primary Care Centre,PCARE,A67 KX33,Balleese Lower Rathdrum Wicklow,52.93170037,-6.232673754,0404 72050,,,,,https://www2.hse.ie/services/primary-care-centres/?service_area=Wicklow,
Wicklow Town Primary Care,PCARE,A67 K5C7,Glebe Knockrobin Wicklow,52.99045311,-6.065774954,0404 30401,,,,,https://www2.hse.ie/services/primary-care-centres/?service_area=Wicklow,
Armagh Road Primary Care,PCARE,D12 W62N,Armagh Road Crumlin Dublin,53.31971728,-6.306147453,01 9213801,,,,,https://www2.hse.ie/services/primary-care-centres/?service_area=Dublin,
Balally Primary Care Centre,PCARE,D16 A6K5,Block 13 Rockfield Balally Dundrum Dublin,53.28662863,-6.236482569,01 2924500,,,,,https://www2.hse.ie/services/primary-care-centres/?service_area=Dublin,
Balbriggan Primary Care,PCARE,K32 HC94,70 Dublin Street Balbriggan Dublin,53.60584207,-6.183663576,01 9213200,,,,,https://www2.hse.ie/services/primary-care-centres/?service_area=Dublin,
Ballyfermot Primary Care and Mental Health Centre,PCARE,D10 C973,Ballyfermot Road Ballyfermot Dublin,53.34370377,-6.37165744,01 7956001,,,,,https://www2.hse.ie/services/primary-care-centres/?service_area=Dublin,
Ballymun Primary Care,PCARE,D09 C8P5,Main Street Ballymun Dublin,53.3960434,-6.263156946,01 8467000,,,,,https://www2.hse.ie/services/primary-care-centres/?service_area=Dublin,
Churchtown Primary Care,PCARE,D14 NT35,Unit 9-11 Nutgrove Retail Park Dublin 14 Churchtown Dublin,53.2933624,-6.267093677,01 4916400,,,,,https://www2.hse.ie/services/primary-care-centres/?service_area=Dublin,
Coolock Primary Care,PCARE,D05 V026,Cromcastle Road Coolock Dublin,53.39623568,-6.216913584,01 8164200,,,,,https://www2.hse.ie/services/primary-care-centres/?service_area=Dublin,
Corduff Primary Care,PCARE,D15 T9NH,Corduff Close Blanchardstown Dublin,53.39968604,-6.373888399,01 7956700,,,,,https://www2.hse.ie/services/primary-care-centres/?service_area=Dublin,
Grangegorman Primary Care Centre,PCARE,D07 H984,Grangegorman Campus Dublin Dublin,53.35791428,-6.281275723,01 8676200,,,,,https://www2.hse.ie/services/primary-care-centres/?service_area=Dublin,
Grove Court Primary Care,PCARE,D15 HNT2,Level 3 and 4 Grove Court Primary Care Grove Road Blanchardstown Dublin,53.39173184,-6.393411046,01 8297233,,,,,https://www2.hse.ie/services/primary-care-centres/?service_area=Dublin,
Inchicore Primary Care and Mental Health Centre,PCARE,D08 KW35,Patriot's Path St Michael's Estate Inchicore Dublin,53.33928598,-6.316263238,01 4716300,,,,,https://www2.hse.ie/services/primary-care-centres/?service_area=Dublin,
Irishtown Primary Care,PCARE,D04 HW30,1a Irishtown Road Irishtown Dublin,53.34116129,-6.225565369,01 2320600,,,,,https://www2.hse.ie/services/primary-care-centres/?service_area=Dublin,
Kilnamanagh/Tymon Primary Care Centre,PCARE,D24 CF75,Airton Road Tallaght Dublin,53.29452617,-6.356372915,01 921 4801,,,,,https://www2.hse.ie/services/primary-care-centres/?service_area=Dublin,
Leopardstown Primary Care,PCARE,D18 PV38,Leopardstown Primary Care Unit 12 Leopardstown Shopping Centre Dublin,53.27172588,-6.213054777,01 2996600,,,,,https://www2.hse.ie/services/primary-care-centres/?service_area=Dublin,
Navan Road Primary Care,PCARE,D07 K229,"Navan Road Dublin, Dublin",53.36377725,-6.302396653,01 5132828,,,,,https://www2.hse.ie/services/primary-care-centres/?service_area=Dublin,
Oldtown,PCARE,A45 KC66,Dublin Road Oldtown Dublin,53.51886682,-6.317969453,01 9210940,,,,,https://www2.hse.ie/services/primary-care-centres/?service_area=Dublin,
Pearse Street Primary Care,PCARE, D02 TD23,Mark's Lane Dublin 2 Lombard Street Dublin,53.34556102,-6.249690401,01 6427700,,,,,https://www2.hse.ie/services/primary-care-centres/?service_area=Dublin,
Portmarnock Primary Care,PCARE,D13 TY32,Kingsfort Cross Portmarnock Dublin,53.42147682,-6.139037369,01 9213601,,,,,https://www2.hse.ie/services/primary-care-centres/?service_area=Dublin,
Rialto Primary Care Centre,PCARE,D08 E0X7,383 South Circular Road Rialto Dublin,53.33568061,-6.294318038,01 7083200,,,,,https://www2.hse.ie/services/primary-care-centres/?service_area=Dublin,
Rush Health Centre,PCARE,K56 R274,41 Lower Main Street Dublin Dublin,53.52226177,-6.088187399,01 8437463,,,,,https://www2.hse.ie/services/primary-care-centres/?service_area=Dublin,
Shankill Primary Care Centre,PCARE,D18 DW08,Lower Road Dublin 18 Shankill Dublin,53.230725,-6.126423815,01 9212790,,,,,https://www2.hse.ie/services/primary-care-centres/?service_area=Dublin,
Springfield-Tallaght Primary Care Centre,PCARE,D24 DH74,The Russell Building Tallaght Cross West Navan Road Dublin,53.28807013,-6.376031492,01 4275067,,,,,https://www2.hse.ie/services/primary-care-centres/?service_area=Dublin,
Summerhill Primary Care Centre,PCARE,D01 T6C2,46-65 Summerhill Summerhill Dublin,53.35642444,-6.251601132,01 7072300,,,,,https://www2.hse.ie/services/primary-care-centres/?service_area=Dublin,
The Meath Primary Care,PCARE,D08 Y1TW,Heytesbury Street Dublin 8 Dublin,53.33645215,-6.270228523,01 7085700,,,,,https://www2.hse.ie/services/primary-care-centres/?service_area=Dublin,
Thomas Court Primary Care,PCARE,D08 WTW0,4 St Catherine's Lane West Dublin 8 Dublin,53.34295786,-6.280617992,01 4539514,,,,,https://www2.hse.ie/services/primary-care-centres/?service_area=Dublin,
Blackrock Hall Primary Care Centre,PCARE,T12 YR2P,Blackrock Avenue Eden Blackrock Cork,51.89242839,-8.411401524,021 423 1166,,,,,https://www2.hse.ie/services/primary-care-centres/?service_area=Cork,
Carrigaline Primary Care Centre,PCARE,P43 PX99,Kilnagleary Carrigaline Cork,51.80968812,-8.373351531,021 4540201,,,,,https://www2.hse.ie/services/primary-care-centres/?service_area=Cork,
Carrigtwohill Primary Care Centre,PCARE,T45 FX06,Castle Square Carrigtwohill Cork,51.90993987,-8.27124987,021 4538908,,,,,https://www2.hse.ie/services/primary-care-centres/?service_area=Cork,
Charleville Primary Care Centre,PCARE,P56 TP20,Rathgoggan South Charleville Cork,52.34907571,-8.674644377,063 89454,,,,,https://www2.hse.ie/services/primary-care-centres/?service_area=Cork,
Dunmanway Primary Care Medical Centre,PCARE,P47 PK51,Sackville Street Dunmanway Cork,51.72225667,-9.108479524,023 8855500,,,,,https://www2.hse.ie/services/primary-care-centres/?service_area=Cork,
Kinsale Primary Care Centre,PCARE,P17 RY11,Kinsale Quarter New Road Kinsale Cork,51.70872332,-8.521610439,021 4772253,,,,,https://www2.hse.ie/services/primary-care-centres/?service_area=Cork,
Living Health Clinic,PCARE,P67 T263,Fermoy Road Mitchelstown Cork,52.26247536,-8.2729821,025 52470,,,,,https://www2.hse.ie/services/primary-care-centres/?service_area=Cork,
Macroom Primary Care Centre,PCARE,P12 E363,Fair Green Plaza Macroom Cork,51.9062616,-8.954612516,026 20650,,,,,https://www2.hse.ie/services/primary-care-centres/?service_area=Cork,
Mallow Primary Healthcare Centre MPHC,PCARE,P51 Y8EC,Mallow Business Park Goulds Hill Mallow Cork,52.12040681,-8.656523462,022 587 00,,,,,https://www2.hse.ie/services/primary-care-centres/?service_area=Cork,
Rosscarbery Primary Care Centre,PCARE,P85 R720,Barrack Lane Rosscarbey Cork,51.57751764,-9.032750681,023 48255,,,,,https://www2.hse.ie/services/primary-care-centres/?service_area=Cork,
Schull Primary Care Centre,PCARE,P81 NH42,Ardmanagh Road Schull Cork,51.52911837,-9.55145937,028 28311,,,,,https://www2.hse.ie/services/primary-care-centres/?service_area=Cork,
St. Mary's Primary Care Centre,PCARE,T23 V09X,St. Mary's Health Campus Bakers Road Gurranebraher Cork,51.90566443,-8.499031478,021 4225600,,,,,https://www2.hse.ie/services/primary-care-centres/?service_area=Cork,
West Cork LHO Offices Primary Care Centre,PCARE,P81 YV62,Coolnagurrane Skibbereen Cork,51.56386508,-9.263350445,028 40400,,,,,https://www2.hse.ie/services/primary-care-centres/?service_area=Cork,
Abbey Healthcare,PHA,,"14 Uam Var Avenue, Bishopstown, Co. Cork",51.87734,-8.53418,,,,,,,
Aghada Pharmacy,PHA,,"1 Lower Aghada, Co. Cork",51.8424,-8.21248,,,,,,,
Allcare Late Night Pharmacy Wilton,PHA,,"Phelan's Late Night Pharmacy, Cardinal Way, Wilton, Cork, T12x22n",51.88148,-8.51164,,,,,,,
Ballincollig Allcare Pharmacy,PHA,,"Ballincollig Pharmacy, Main Street, Ballincollig, Co. Cork, P31da59",51.88808,-8.59117,,,,,,,
Ballintemple Allcare Pharmacy,PHA,,"1 Maryville Mews, Ballintemple, Cork, T12c9xn",51.89589,-8.43473,,,,,,,
Ballyphehane Pharmacy,PHA,,"66 Tory Top Road, Ballyphehane, Cork, T12x28h",51.88433,-8.47623,,,,,,,
Bandon Medical Hall Limited,PHA,,"5/6 Bridge Street, Bandon, Co. Cork",51.74557,-8.73584,,,,,,,
Berehaven Pharmacy,PHA,,"Main Street, Castletownbere, Co. Cork",51.6518,-9.91004,,,,,,,
Bermingham's Pharmacy,PHA,,"8 Patrick Street, Fermoy, Co. Cork",52.13787,-8.27557,,,,,,,
Bishopstown Pharmacy,PHA,,"Looneys Cross, Bishopstown Road, Bishopstown, Cork, Co. Cork",51.87937,-8.51681,,,,,,,
Blackpool Bridge Pharmacy Ltd,PHA,,"Blackpool Bridge, Blackpool, Cork, Co. Cork",51.91172,-8.47385,,,,,,,
Blackpool Late Night Pharmacy,PHA,,"Unit 4, City Square, Watercourse Road, Blackpool, Cork Co. Cork",51.90659,-8.47458,,,,,,,
Bluetts Pharmacy,PHA,,"1 Pearse Street, Clonakilty, Co. Cork",51.62307,-8.88864,,,,,,,
Boots,PHA,,"Living Health Centre, Fermoy Road, Mitchelstown, Co. Cork",52.26198,-8.27281,,,,,,,
Boots,PHA,,"26-27 Main Street, Midleton, Co. Cork",51.91486,-8.17309,,,,,,,
Boots,PHA,,"71 -72 Patrick Street, Co. Cork",51.89857,-8.47466,,,,,,,
Boots,PHA,,"Owenabue Mall, Main Street, Carrigaline, Co. Cork",51.81392,-8.39315,,,,,,,
Boots,PHA,,"108 Thomas Davis Street, Mallow, Co. Cork, P51x6yh",52.1361,-8.64361,,,,,,,
Boots,PHA,,"Unit C, Blackpool Retail Park, Cork City, Co. Cork",51.91615,-8.47199,,,,,,,
Boots,PHA,,"37-39 Wilton Shopping Centre, Wilton, Co. Cork",51.88101,-8.50819,,,,,,,
Boots,PHA,,"Units 2-3, Fair Green Plaza, Macroom, Co. Cork",51.90557,-8.9544,,,,,,,
Boots,PHA,,"South Main Street, Bandon, Co. Cork",51.74531,-8.73812,,,,,,,
Boots,PHA,,"1 Half Moon Street, Cork, Co. Cork",51.89961,-8.47028,,,,,,,
Boots,PHA,,"Douglas Court Shopping Centre, Douglas, Co. Cork",51.87845,-8.43156,,,,,,,
Boots,PHA,,"Merchants Quay Shopping Centre, Cork City, Co. Cork",51.8995,-8.46982,,,,,,,
Bourke's Pharmacy,PHA,,"Iona Park, Mayfield, Cork",51.9117,-8.43942,,,,,,,
Brosnan's Pharmacy,PHA,,"36 Main Street, Midleton, Co. Cork",51.91462,-8.17368,,,,,,,
Buttevant Pharmacy,PHA,,"Main Street, Buttevant, Co. Cork",52.23113,-8.67032,,,,,,,
Carrignavar Pharmacy,PHA,,"Units 3 - 4, Main Street, Carrignavar, Co. Cork",51.9895,-8.47813,,,,,,,
Carrigtwohill Pharmacy Ltd,PHA,,"Unit 4, Carrigtwohill Shopping Centre, Carrigtwohill, Co. Cork",51.90932,-8.25659,,,,,,,
Castle Pharmacy,PHA,,"Main Street, Castlemartyr, Co. Cork",51.91199,-8.05503,,,,,,,
Castle Pharmacy,PHA,,"Main Street, Castlemartyr, Co. Cork",51.91178,-8.05398,,,,,,,
Chemco Pharmacy,PHA,,"New Road, Bandon, Co. Cork",51.74106,-8.74329,,,,,,,
Classes Lake Pharmacy,PHA,,"Unit 3, Classes Lake Retail Centre, Bridewood, Ovens, Co. Cork",51.8821,-8.62844,,,,,,,
Cleary's Pharmacy,PHA,,"8/9 Main Street, Skibbereen, Co. Cork, P81px32",51.54947,-9.268,,,,,,,
Clockgate Pharmacy,PHA,,"76 North Main Street, Youghal, Co. Cork",51.95347,-7.84874,,,,,,,
Cloghroe Pharmacy Limited,PHA,,"Cloghroe, Blarney, Co. Cork",51.91888,-8.61858,,,,,,,
Clonakilty Pharmacy,PHA,,"29 Pearse Street, Clonakilty, Co. Cork",51.62333,-8.89065,,,,,,,
Cloyne Pharmacy,PHA,,"The Square, Cloyne, Co. Cork",51.86323,-8.1211,,,,,,,
Coachford Pharmacy,PHA,,"Coachford, Co. Cork",51.90934,-8.78909,,,,,,,
Cobh Pharmacy,PHA,,"3 East Beach, Cobh, Co. Cork",51.85048,-8.29143,,,,,,,
Coen's Pharmacy,PHA,,"Wolfe Tone Square, Bantry, Co. Cork, P75a780",51.68021,-9.45418,,,,,,,
College Road Pharmacy,PHA,,"63 College Road, Cork, Co. Cork",51.8917,-8.49424,,,,,,,
Collins Kinsale Pharmacy,PHA,,"11-12 Exchange Building, Market Place, Kinsale, Co. Cork",51.7061,-8.52461,,,,,,,
Cotter's Pharmacy,PHA,,"48 Main Street, Carrigtwohill, Co. Cork",51.90935,-8.25962,,,,,,,
Crosshaven Pharmacy Ltd.,PHA,,"Point Road, Crosshaven, Co. Cork",51.8023,-8.29446,,,,,,,
Crowley's Pharmacy,PHA,,"Unit 3, Mahon Shopping Centre, Avenue De Rennes, Ave. De Rennes, Mahon Co. Cork",51.89318,-8.40351,,,,,,,
Crowley's Pharmacy,PHA,,"Supervalue Shopping Centre, Fax Bridge, Cork Road, Clonakilty, Co. Cork",51.62419,-8.8826,,,,,,,
D & M Harrington,PHA,,"1 Ashe Street, Clonakilty, Co. Cork",51.62309,-8.88816,,,,,,,
D & M Harrington,PHA,,"Mill Street, Timoleague, Bandon, Co. Cork",51.64276,-8.76659,,,,,,,
Dan McCarthy's Pharmacy,PHA,,"91 Patrick Street, Cork, Co. Cork",51.89852,-8.47295,,,,,,,
Deasy's Pharmacy,PHA,,"2 South Main Street, Bandon, Co. Cork",51.74537,-8.73595,,,,,,,
Deasy's Pharmacy,PHA,,"98/99 Shandon Street, Cork, Co. Cork",51.90335,-8.47825,,,,,,,
Deasy's Pharmacy,PHA,,"Ballymakeera, Co. Cork",51.93644,-9.14537,,,,,,,
Dennehy's Cross Pharmacy,PHA,,"Wilton House, Wilton Road, Cork, T12wpw6",51.8887,-8.50749,,,,,,,
Diarmuid O'Donovan (Pharmacist) Limited,PHA,,"4 Pearse Square, Ballyphehane, Co. Cork",51.8834,-8.48269,,,,,,,
DocMorris Pharmacy,PHA,,"Unit 12, Charleville Town Centre, Charleville, Co. Cork",52.35414,-8.68025,,,,,,,
DocMorris Pharmacy,PHA,,"8 Grand Parade, Cork City, Co. Cork",51.89834,-8.47529,,,,,,,
DocMorris Pharmacy,PHA,,"Hollyhill, Cork City, Co. Cork",51.90441,-8.50587,,,,,,,
DocMorris Pharmacy,PHA,,"21 Main Street, Midleton, Co. Cork",51.91508,-8.17327,,,,,,,
Doneraile Pharmacy,PHA,,"Main Street, Doneraile, Co. Cork",52.21703,-8.58506,,,,,,,
Doody's Pharmacy,PHA,,"10 Lower Cork Street, Mitchelstown, Co. Cork",52.2682,-8.26989,,,,,,,
Douglas Road Pharmacy,PHA,,"Douglas Pharmacy, Douglas Road, Cork",51.88103,-8.44358,,,,,,,
Drimoleague Pharmacy,PHA,,"Main Street, Drimoleague, Co. Cork",51.66091,-9.2601,,,,,,,
Drinagh Pharmacy,PHA,,"Market Street, Skibbereen, Co. Cork",51.54653,-9.26505,,,,,,,
Drinagh Pharmacy,PHA,,"Sackville Street, Dunmanway, Co. Cork",51.72248,-9.10967,,,,,,,
Duane's Pharmacy,PHA,,"4 Strand Street, Kanturk, Co. Cork",52.1766,-8.90515,,,,,,,
Duffy's Pharmacy,PHA,,"Duffys Pharmacy, Main Street, Castletownroche, Co. Cork",52.17288,-8.4662,,,,,,,
Elmwood Pharmacy,PHA,,"Elmwood Medical Centre, Frankfield, Douglas, Co. Cork",51.86702,-8.45842,,,,,,,
Falvey's Pharmacy,PHA,,"17 Bridge Street, Cork, Co. Cork",51.90149,-8.47039,,,,,,,
Falvey's Pharmacy Limited,PHA,,"Unit A, Douglas Village S. C., Douglas, Cork, Co. Cork",51.87745,-8.43795,,,,,,,
Fermoy Medical Hall,PHA,,"61-63 Mc Curtain Street, Fermoy, Co. Cork",52.1376,-8.27852,,,,,,,
Firgrove Pharmacy,PHA,,"The Cornfields, Curraheen Road, Bishopstown, Co. Cork",51.87974,-8.52028,,,,,,,
Fleming's Pharmacy,PHA,,"Southern Road, Cork, Co. Cork",51.89018,-8.46191,,,,,,,
G.J. Cross Pharmacy,PHA,,"The Square, Castletownbere, Co. Cork",51.6515,-9.91053,,,,,,,
Gallwey's Pharmacy,PHA,,"49 Pearse Street, Clonakilty, Co. Cork",51.62298,-8.88942,,,,,,,
Gary Johnson Pharmacist Ltd,PHA,,"Victoria Cross, Cork, Co. Cork",51.893,-8.50492,,,,,,,
Glengarriff Pharmacy,PHA,,"Glengariff Pharmacy, The Village, Glengarriff, Co. Cork",51.75042,-9.55261,,,,,,,
Glenheights Pharmacy,PHA,,"4 College Shopping Centre, Ballyvolane, Co. Cork",51.91927,-8.45925,,,,,,,
H. Gibbs & Co. Ltd,PHA,,"15 Midleton Street, Cobh, Co. Cork",51.8531,-8.29496,,,,,,,
H.S.E. Pharmacy,PHA,,"St. Stephen's Hospital, Glanmire, Co. Cork",51.95268,-8.40061,,,,,,,
Hamilton's Pharmacy,PHA,,"74 Bridge Street, Skibbereen, Co. Cork",51.54925,-9.26866,,,,,,,
Harrington's Pharmacy Ballincollig,PHA,,"Main St., Ballincollig, Co. Cork",51.88788,-8.58784,,,,,,,
Hickey's Pharmacy,PHA,,"Unit 16, Ballincollig Shopping Centre, Ballincollig, Co. Cork",51.88875,-8.59232,,,,,,,
Holland's Pharmacy,PHA,,"Templehill, Lower Ballinlough Road, Co. Cork",51.8871,-8.43331,,,,,,,
Horgan's Pharmacy,PHA,,"3/4 Park West, Mallow, Co. Cork, P51cd56",52.13643,-8.64753,,,,,,,
Horgan's Pharmacy,PHA,,"Horgan's, 33/34 Main Street, Skibbereen, Co. Cork, P81n2w8",51.54927,-9.26817,,,,,,,
Horgan's Pharmacy,PHA,,"Strand Street, Kanturk, Co. Cork, P51x309",52.1772,-8.90625,,,,,,,
Horgan's Pharmacy,PHA,,"3/4 Park West, Mallow, Co. Cork, P51cd56",52.13643,-8.64753,,,,,,,
Horgan's Pharmacy,PHA,,"Unit 2, Bandon Shopping Centre, South Main Street, Co. Cork",51.74472,-8.7395,,,,,,,
Horgan's Pharmacy,PHA,,"Strand Street, Kanturk, Co. Cork, P51x309",52.1772,-8.90625,,,,,,,
Horgan's Pharmacy,PHA,,"33/34 Main Street, Skibbereen, Co. Cork, P81n2w8",51.54927,-9.26817,,,,,,,
Horgan's Pharmacy,PHA,,"Horgan's, Mount Oval Pharmacy, The Square, Mount Oval Village, Rochestown",51.86961,-8.40868,,,,,,,
Horgan's Pharmacy,PHA,,"Unit 2, Bandon Shopping Centre, South Main Street, Co. Cork",51.74472,-8.7395,,,,,,,
Horgan's Pharmacy,PHA,,"6 Barrack Street, Cork, Co. Cork",51.89515,-8.47611,,,,,,,
Innishannon Pharmacy,PHA,,"Main Street, Innishannon, Co. Cork",51.76489,-8.65853,,,,,,,
Irwin's Pharmacies,PHA,,"Mayfield Shopping Centre, Mayfield, Cork, Co. Cork",51.91409,-8.42869,,,,,,,
Irwin's Pharmacy,PHA,,"77 Shandon Street, Cork, Co. Cork",51.90235,-8.47887,,,,,,,
James Pettit Pharmacy,PHA,,"Main Street, Charleville, Co. Cork",52.35461,-8.68264,,,,,,,
John D. Broderick Limited,PHA,,"84 Barrack Street, Cork, Co. Cork",51.8928,-8.4805,,,,,,,
Joyce's Pharmacy,PHA,,"40 Bank Place, Mallow, Co. Cork, P51d398",52.13737,-8.64584,,,,,,,
Kelleher's Pharmacy,PHA,,"Main Street, Ballincollig, Co. Cork",51.88844,-8.58834,,,,,,,
Kerins Pharmacy,PHA,,"Main Street, Macroom, Co. Cork",51.90489,-8.9588,,,,,,,
Kerr's Pharmacy,PHA,,"21 Main Street, Dunmanway, Co. Cork",51.72214,-9.11341,,,,,,,
Killeagh Pharmacy,PHA,,"Main Street, Killeagh, Co. Cork",51.94142,-7.99399,,,,,,,
Leeview Pharmacy,PHA,,"Eastside Centre, Ballincollig, Co. Cork",51.88927,-8.58244,,,,,,,
Little Island Pharmacy Ltd,PHA,,"Eastgate Village, Little Island, Co. Cork",51.90499,-8.35411,,,,,,,
Lloyd's Pharmacy,PHA,,"The Glen, Kinsale, Co. Cork",51.70701,-8.5239,,,,,,,
Lynch's Pharmacy,PHA,,"Unit 1, Broadale, Maryborough Hill, Cork",51.86458,-8.41347,,,,,,,
Mackessy's Pharmacy,PHA,,"New Street, Newmarket, Co. Cork",52.21484,-8.99931,,,,,,,
Magner's Pharmact,PHA,,"Unit 4, Corrin Court, Cork Road, Fermoy, Co. Cork",52.13575,-8.28271,,,,,,,
Mallow Community Pharmacy Limited,PHA,,"Mallow Primary Care Centre, Gouldshill, Mallow, Co. Cork",52.11931,-8.66111,,,,,,,
Mari Mina Pharmacy (Rathcormac) Limited,PHA,,"Main Street, Rathcormac, Co. Cork",52.07848,-8.28124,,,,,,,
Mari Mina Pharmacy Youghal Limited,PHA,,"MARA MINA PHARMACY, 97 NORTH MAIN STREET, YOUGHAL, CO. CORK",51.95305,-7.84766,,,,,,,
Martin Walsh Pharmacy,PHA,,"Unit 7-7a, Carrigaline Shopping Centre, Main Street, Carrigaline, Co. Cork",51.81333,-8.39261,,,,,,,
Mary Shinnick - The North Gate Pharmacy,PHA,,"12 North Main Street, Cork, Co. Cork",51.90057,-8.47904,,,,,,,
Matt Murphy's Pharmacy,PHA,,"Main Street, Macroom, Co. Cork, P12p968",51.90506,-8.95825,,,,,,,
McCarthy's Pharmacy,PHA,,"35 Main Street, Charleville, Co. Cork",52.35434,-8.68291,,,,,,,
McCarthy's Pharmacy (Schull) Ltd,PHA,,"Main Street, Schull, Co. Cork",51.52683,-9.5469,,,,,,,
McElligott's Pharmacy,PHA,,"Ashdale House, Shean Lower, Blarney, Co. Cork",51.93344,-8.56154,,,,,,,
Minihan's Chemist,PHA,,"108 Oliver Plunkett Street, Cork City, Co. Cork",51.89803,-8.47066,,,,,,,
Moloney's Pharmacy,PHA,,"Emmet Place, Kinsale, Co. Cork",51.70518,-8.52261,,,,,,,
Moynihan's Pharmacy,PHA,,"Main Street, Watergrasshill, Cork, Co. Cork",52.0116,-8.34378,,,,,,,
Mulcahy's Pharmacy,PHA,,"118 Thomas Davis Street, Mallow, Co. Cork, P51xt26",52.13655,-8.64428,,,,,,,
Mulcahy's Pharmacy,PHA,,"The Square, Millstreet, Co. Cork",52.06043,-9.06064,,,,,,,
Mullins Pharmacy,PHA,,"Main Street, Charleville, Co. Cork",52.35502,-8.68308,,,,,,,
Mullins Pharmacy,PHA,,"O'brien Street, Kanturk, Co. Cork",52.17775,-8.90544,,,,,,,
Mullins Pharmacy Ltd,PHA,,"O'Brien Street, Kanturk, Co. Cork",52.17733,-8.90444,,,,,,,
Murphy's Abbey Pharmacy,PHA,,"Brigown, Mitchelstown, Co. Cork",52.26349,-8.2689,,,,,,,
Murphy's Pharmacy,PHA,,"Murphys Pharamacy, 129 North Main Street, Youghal, Co. Cork, P36fk40",51.95509,-7.85009,,,,,,,
Murphy's Pharmacy,PHA,,"Boherbue, Co. Cork, P51frw0",52.15899,-9.07239,,,,,,,
Murphy's Pharmacy,PHA,,"Unit 1, Riverdale Shopping Centre, Mill Road, Midleton, Co. Cork",51.9176,-8.17531,,,,,,,
Murphy's Pharmacy,PHA,,"Murphys Pharamacy, 129 North Main Street, Youghal, Co. Cork, P36fk40",51.95509,-7.85009,,,,,,,
Newtown Pharmacy,PHA,,"Londis Shopping Centre, Newtown, Cobh, Co. Cork",51.85391,-8.31003,,,,,,,
Newtown Pharmacy,PHA,,"37 Glengarriff Road, Bantry, Co. Cork, P75ef21",51.683,-9.44814,,,,,,,
Norman Brookes Pharmacy,PHA,,"29 South Main Street, Bandon, Co. Cork",51.74476,-8.73852,,,,,,,
North Main Street Pharmacy,PHA,,"North Main St. S. Centre, Kyrl's Quay, Cork City, Co. Cork",51.90034,-8.47878,,,,,,,
North Main Street Pharmacy,PHA,,"North Main Street Shopping Centre, North Main Street, Cork",51.90054,-8.47983,,,,,,,
North Square Pharmacy,PHA,,"North Square, Macroom, Co. Cork",51.90538,-8.96068,,,,,,,
O'Carroll's Allcare Pharmacy,PHA,,"O'carroll's All Care Pharmacy, Orchard Court, Blackpool, Cork, T23wr84",51.91196,-8.47488,,,,,,,
O'Connell's Pharmacy,PHA,,"67 Magazine Road, Cork, Co. Cork",51.89031,-8.49287,,,,,,,
O'Connor's Pharmacy,PHA,,"O'connor, Knockaderry, Curraheen Road, Bishopstown, Cork",51.8785,-8.52895,,,,,,,
O'Connor's Pharmacy,PHA,,"O'connor's Pharmacy, Pearse Street, Kinsale, Co. Cork, P17xk02",51.70616,-8.52383,,,,,,,
O'Hanlon's Pharmacy Ltd,PHA,,"11a Gurranebraher Road, Cork, Co. Cork",51.90353,-8.48863,,,,,,,
O'Regan's Pharmacy,PHA,,"Ballea Road, Carrigaline, Co. Cork",51.81703,-8.39511,,,,,,,
O'Reilly's Pharmacy,PHA,,"17 Pearse Square, Fermoy, Co. Cork",52.13816,-8.27565,,,,,,,
O'Sullivan Allcare Pharmacy,PHA,,"O'sullivans Pharmacy, New Street, Bantry, Co. Cork, P75xr29",51.6802,-9.45302,,,,,,,
O'Sullivan Allcare Pharmacy,PHA,,"O'sullivans Pharmacy, New Street, Bantry, Co. Cork, P75xr29",51.6802,-9.45302,,,,,,,
O'Sullivan's Pharmacy,PHA,,"2 Oakfield Lawn, Ballinlough Road, Cork, Co. Cork",51.88958,-8.44482,,,,,,,
O'Sullivan's Pharmacy,PHA,,"Unit 3, Supervalu Shopping Centre, Grange, Co. Cork",51.8679,-8.45273,,,,,,,
O'Sullivan's Pharmacy,PHA,,"Unit 5-6 Wilton Shopping Centre, Cork, Co. Cork",51.88101,-8.50819,,,,,,,
O'Sullivan's Pharmacy .,PHA,,"South Douglas Road, Cork, Co. Cork",51.87928,-8.44521,,,,,,,
Old Quarter Pharmacy,PHA,,"Old Quarter, Ballincollig, Co. Cork",51.88984,-8.6001,,,,,,,
Owenacurra Pharmacy,PHA,,"79 Main Street, Midleton, Co. Cork",51.91378,-8.1726,,,,,,,
Passage West Pharmacy,PHA,,"Strand Street, Passage West, Co. Cork",51.86969,-8.33451,,,,,,,
Patrick Fitzgibbon Pharmacy Limited,PHA,,"Fitzgibbon's Pharmacy, 34 Lower Cork Street, Mitchelstown, Co. Cork, P67wv91",52.26691,-8.2712,,,,,,,
Peter Weedle Allcare Pharmacy ,PHA,,"Main Street, Ballynoe, Mallow, Co. Cork, P51rr6f",52.05991,-8.09851,,,,,,,
Pharmacy Department - St. Patrick's Hospital (Cork) Limited,PHA,,"Curraheen Road, Curraheen, Cork, Co. Cork",51.8748,-8.53905,,,,,,,
"Pharmacy Department, Bantry General Hospital",PHA,,"Bantry, Co. Cork",51.67599,-9.44967,,,,,,,
"Pharmacy Department, Bon Secours Hospital",PHA,,"College Road, Cork, Co. Cork",51.89155,-8.4973,,,,,,,
"Pharmacy Department, Cork University Hospital",PHA,,"Wilton, Cork, Co. Cork",51.88336,-8.51053,,,,,,,
"Pharmacy Department, Mallow General Hospital",PHA,,"Limerick Road, Mallow, Co. Cork",52.15133,-8.66361,,,,,,,
"Pharmacy Department, Mercy University Hospital",PHA,,"Grenville Place, Cork, Co. Cork",51.89875,-8.48245,,,,,,,
"Pharmacy Department, South Infirmary - Victoria Hospital Ltd",PHA,,"Old Blackrock Road, Cork, Co. Cork",51.89356,-8.46379,,,,,,,
Pharmacy First Plus (Glanmire),PHA,,"Hazelwood Centre, Glanmire, Co. Cork",51.93092,-8.39764,,,,,,,
Pharmacy First Plus (Grenagh),PHA,,"Grenagh Commercial Centre, Grenagh, Co. Cork",52.01195,-8.60967,,,,,,,
Pharmacy First Plus (Northside),PHA,,"Glenwood Drive, Onslow Gardens, Commons Road, Co. Cork",51.91721,-8.48316,,,,,,,
Pharmacy First Plus (Tower),PHA,,"Tower Shopping Centre, Tower, Blarney, Co. Cork",51.92533,-8.60595,,,,,,,
Pharmacy First Plus Douglas,PHA,,"Pharmacy First, Douglas Village Shopping Centre, Douglas, Cork, T12r27h",51.87765,-8.43906,,,,,,,
Phelan's Late Night Pharmacy,PHA,,"9 Patrick Street, Cork, Co. Cork",51.89968,-8.47044,,,,,,,
Phelan's Pharmacy,PHA,,"6 Crestfield Centre, Glanmire, Co. Cork",51.92969,-8.39472,,,,,,,
Phelan's Pharmacy,PHA,,"11-13 Grand Parade, Cork",51.89842,-8.47628,,,,,,,
Phelan's Pharmacy,PHA,,"Main Street, Carrigaline, Co. Cork",51.81265,-8.39278,,,,,,,
Phelans Midnight Pharmacy,PHA,,"Kinsale Road Commercial Centre, Cork, Co. Cork",51.87431,-8.47166,,,,,,,
Pophams Road Pharmacy,PHA,,"12 Pophams Road, Farranree, Co. Cork",51.91486,-8.47935,,,,,,,
R. Murphy MPSI Ltd,PHA,,"48 North Main Street, Cork, Co. Cork",51.89894,-8.47756,,,,,,,
Reen's Pharmacy,PHA,,"Main Street, Millstreet, Co. Cork",52.06036,-9.06331,,,,,,,
Riverstick Pharmacy,PHA,,"Unit 24, Riverside Grove, Riverstick, Co. Cork",51.77184,-8.49551,,,,,,,
Rosscarbery Pharmacy,PHA,,"West Square, Rosscarbery, Co. Cork",51.57733,-9.03348,,,,,,,
Sam McCauley Chemists,PHA,,"Unit 2a Douglas Court Shopping Centre, Douglas, Cork, Co. Cork",51.87845,-8.43156,,,,,,,
Sam McCauley Chemists,PHA,,"Units A1 - A2, Market Green Shopping Centre, Midleton, Co. Cork",51.9162,-8.17924,,,,,,,
Sam McCauley Chemists,PHA,,"Blackpool Shopping Centre, Blackpool, Co. Cork",51.91385,-8.47235,,,,,,,
Sam McCauley Chemists,PHA,,"Unit 2, Mahon Point, Mahon Point Shopping Centre, Mahon, Co. Cork",51.88592,-8.39627,,,,,,,
Santry's Washington Street Pharmacy,PHA,,"SANTRY'S PHARMACY, 25A WASHINGTON STREET WEST, CORK",51.89734,-8.48057,,,,,,,
Scannell's Pharmacy,PHA,,"Scannell's Medical Hall, 16 South Main Street, Bandon, Co. Cork, P72ah24",51.74531,-8.73818,,,,,,,
Scannell's Pharmacy,PHA,,"Main Street, Ballineen, Co. Cork",51.73601,-8.94958,,,,,,,
Scannell's Riverview Pharmacy,PHA,,"Unit 4, Riverview Shopping Centre, Bandon, Co. Cork",51.74458,-8.74085,,,,,,,
Sheehan's Pharmacy,PHA,,"West End, Newmarket, Co. Cork",52.21446,-9.00154,,,,,,,
South Terrace Pharmacy,PHA,,"2 Trinity Chambers, South Terrace, Cork, T12c6cf",51.89447,-8.46871,,,,,,,
St. Luke's Pharmacy,PHA,,"38 Wellington Road, St. Luke's Cross, Cork City, Co. Cork",51.90454,-8.45815,,,,,,,
Stock Health Pharmacy,PHA,,"Distillery Bridge, Bandon, Co. Cork",51.74778,-8.71976,,,,,,,
Thornhill Pharmacy,PHA,,"Main Street, Kildorrery, Co. Cork",52.24639,-8.42546,,,,,,,
Ticknock Pharmacy,PHA,,"Supervalu Centre, Ticknock, Cobh, Co. Cork",51.86062,-8.29634,,,,,,,
Togher Pharmacy,PHA,,"Togher Village Centre, Togher Road, Cork, Co. Cork",51.87678,-8.49362,,,,,,,
Turners Cross Allcare Pharmacy,PHA,,"Turners Cross Pharmacy, 1 Ossory Place, Evergreen Road, Cork, T12yh6p",51.88981,-8.47034,,,,,,,
Turners Cross Allcare Pharmacy,PHA,,"Turners Cross Pharmacy, 1 Ossory Place, Evergreen Road, Cork, T12yh6p",51.88981,-8.47034,,,,,,,
Wallace's Pharmacy,PHA,,"Ballyvolane Shopping Centre, Ballyvolane, Cork, Co. Cork",51.91633,-8.44777,,,,,,,
Walsh's Pharmacy,PHA,,"Walshs Pharmacy, 255 Old Youghal Road, Cork",51.90936,-8.45623,,,,,,,
Walsh's Pharmacy,PHA,,"123 Shandon Street, Cork, Co. Cork",51.90449,-8.47743,,,,,,,
Walsh's Pharmacy (Fermoy) Limited,PHA,,"15 Patrick Street, Fermoy, Co. Cork",52.13804,-8.27437,,,,,,,
Walsh's Pharmacy Carrigaline,PHA,,"Walsh's Pharmacy, Main Street, Carrigaline, Co. Cork",51.81354,-8.39363,,,,,,,
Walsh's Pharmacy Midleton,PHA,,"Walsh's Pharmacy, 50 Main Street, Midleton, Co. Cork",51.91353,-8.17281,,,,,,,
Wilson's Pharmacy,PHA,,"18 West Beach, Cobh, Co. Cork",51.85042,-8.29259,,,,,,,
Youghal Pharmacy,PHA,,"149 North Main Street, Youghal, Co. Cork",51.9563,-7.85088,,,,,,,
Abbeydorney Pharmacy,PHA,,"Abbeydorney, Tralee, Co. Kerry",52.34605,-9.6899,,,,,,,
Ahern's Pharmacy,PHA,,"Farranfore, Killarney, Co. Kerry",52.17206,-9.55021,,,,,,,
Ballybunion Pharmacy,PHA,,"Supervalu Shopping Centre, Main Street, Ballybunion, Co. Kerry",52.51216,-9.67173,,,,,,,
Ballyduff Pharmacy,PHA,,"Ballyduff, Tralee, Co. Kerry",52.45457,-9.6627,,,,,,,
Bon Secours Hospital Tralee,PHA,,"Pharmacy Department, Bon Secours Hospital, Strand Road, Tralee, Co. Kerry",52.26959,-9.71304,,,,,,,
Boots,PHA,,"Units 10-11, Deerpark Retail Centre, Killarney, Co. Kerry",52.06319,-9.49669,,,,,,,
Boots,PHA,,"Central Plaza, Abbey Court, The Square, Tralee, Co. Kerry",52.26846,-9.70764,,,,,,,
Brassil's Pharmacy,PHA,,"Main Street, Ballyheigue, Co. Kerry",52.38974,-9.83164,,,,,,,
Broderick's Pharmacy,PHA,,"7 William Street, Listowel, Co. Kerry",52.4463,-9.48574,,,,,,,
Burn's Pharmacy,PHA,,"Balloonagh Estate, Tralee, Co. Kerry",52.27124,-9.71537,,,,,,,
Burns Pharmacy,PHA,,"Unit 2, O'Donnell's Business Park, Mounthawk, Tralee, Co. Kerry",52.27687,-9.71873,,,,,,,
C.H. Chemists (Tralee) Limited,PHA,,"31 The Mall, Tralee, Co. Kerry",52.26973,-9.70613,,,,,,,
Costello's Pharmacy,PHA,,"Russell Street, Tralee, Co. Kerry",52.27024,-9.70766,,,,,,,
Creedon's Pharmacy,PHA,,"Main Street, Tarbert, Co. Kerry",52.57255,-9.37567,,,,,,,
Crowley's Pharmacy Limited,PHA,,"81 Main Street, Castleisland, Co. Kerry",52.23177,-9.46173,,,,,,,
Dan Sean's Pharmacy Limited,PHA,,"West Main Street, Cahirsiveen, Co. Kerry",51.94564,-10.22767,,,,,,,
Diarmuid O'Sullivan (Pharmacy) Ltd,PHA,,"Mill Road, Killorglin, Co. Kerry",52.10749,-9.78763,,,,,,,
F. & M. Reen Pharmacy Limited,PHA,,"College Square, Killarney, Co. Kerry",52.05854,-9.50736,,,,,,,
Grogan's Pharmacy Poitigeir,PHA,,"Grogan's Pharmacy, Spa Road, Dingle, Co. Kerry, V92yy07",52.14176,-10.26619,,,,,,,
Harnett's Pharmacy,PHA,,"41 The Square, Listowel, Co. Kerry",52.44564,-9.48643,,,,,,,
Jeffrey's Pharmacy Ltd,PHA,,"Medical Hall, Church Street, Cahirsiveen, Co. Kerry",51.94656,-10.2257,,,,,,,
John F. Mc Guire & Co. Limited,PHA,,"6 Church Street, Listowel, Co. Kerry",52.4461,-9.48551,,,,,,,
Kelly's Pharmacy,PHA,,"9 The Mall, Tralee, Co. Kerry",52.26938,-9.70586,,,,,,,
Kennelly's Chemists & Opticians,PHA,,"46 Main Street, Castleisland, Co. Kerry",52.23173,-9.46295,,,,,,,
Kennelly's Pharmacy,PHA,,"6 Castle Street, Tralee, Co. Kerry",52.26917,-9.70449,,,,,,,
Kennelly's Pharmacy and Opticians,PHA,,"33 New Street, Killarney, Co. Kerry",52.05868,-9.51368,,,,,,,
Kennelly's Pharmacy at the Reeks,PHA,,"The Reeks Gateway, Rock Road, Killarney, Co. Kerry",52.06807,-9.51733,,,,,,,
Laune Pharmacy,PHA,,"Market Road, Killorglin, Co. Kerry",52.10808,-9.78708,,,,,,,
Leahy's Pharmacy,PHA,,"Oakpark, Tralee, Co. Kerry",52.27507,-9.69378,,,,,,,
Lixnaw Pharmacy Limited,PHA,,"Clogher, Lixnaw, Co. Kerry, V92xc53",52.40641,-9.62111,,,,,,,
Lynch's Pharmacy,PHA,,"9 Lower Main Street, Castleisland, Co. Kerry",52.23057,-9.46498,,,,,,,
McSweeney Pharmacy,PHA,,"Kenmare Shopping Centre, Unit 7, Railway Road, Kenmare, Co. Kerry",51.88465,-9.58074,,,,,,,
Mulvihill Pharmacy Limited,PHA,,"Main Street, Killorglin, Co. Kerry",52.10617,-9.78596,,,,,,,
Noreen Collins Pharmacy,PHA,,"Killarney Road, Abbeyfeale, Co. Limerick",52.38226,-9.30239,,,,,,,
O'Carroll's Pharmacy,PHA,,"106 Rock Street, Tralee, Co. Kerry",52.27098,-9.70803,,,,,,,
O'Connell's Pharmacy,PHA,,"St. Brendan's Park, Tralee, Co. Kerry",52.27753,-9.70335,,,,,,,
O'Connor's Pharmacy and Opticians Ltd,PHA,,"7 Market Street, Listowel, Co. Kerry",52.44708,-9.48646,,,,,,,
O'Doherty's Pharmacy,PHA,,"Bridge Street, Milltown, Co. Kerry",52.14462,-9.71785,,,,,,,
O'Donoghue's Pharmacy,PHA,,"O'donoghues Pharmacy, 63/64 Boherbee, Tralee, Co. Kerry",52.2693,-9.69944,,,,,,,
O'Keeffe's Pharmacy Limited,PHA,,"Strand Street, Dingle, Co. Kerry",52.1396,-10.27175,,,,,,,
O'Mahony's Pharmacy,PHA,,"Ardfert, Co. Kerry",52.32521,-9.77856,,,,,,,
O'Neill's Pharmacy,PHA,,"3 Abbeycourt, Tralee, Co. Kerry",52.26892,-9.70672,,,,,,,
O'Sullivan's Pharmacy,PHA,,"6 Bridge Street, Milltown, Co. Kerry",52.14482,-9.71791,,,,,,,
O'Sullivan's Pharmacy,PHA,,"81 New Street, Killarney, Co. Kerry",52.05849,-9.51371,,,,,,,
P. O'Donoghue (Killarney) Limited,PHA,,"The Medical Hall, Main St, Killarney, Co. Kerry",52.05857,-9.50935,,,,,,,
Park Road Pharmacy,PHA,,"Countess Centre, Park Road, Killarney, Co. Kerry",52.06011,-9.4937,,,,,,,
"Pharmacy Department, Kerry General Hospital",PHA,,"Tralee, Co. Kerry",52.26538,-9.68915,,,,,,,
Reen's Pharmacy (Rathmore) Ltd,PHA,,"West End, Rathmore, Co. Kerry",52.0841,-9.21969,,,,,,,
Sam McCauley Chemists,PHA,,"Manor West Retail Park, Tralee, Co. Kerry",52.26364,-9.67799,,,,,,,
Sewell's Pharmacy,PHA,,"1/2 New Street, Killarney, Co. Kerry",52.05923,-9.50967,,,,,,,
Shanahan's Pharmacy (Castleisland) Ltd,PHA,,"Church Street, Castleisland, Co. Kerry",52.22874,-9.46274,,,,,,,
Sheahan's Pharmacy,PHA,,"34 Main Street, Killarney, Co. Kerry",52.05895,-9.50911,,,,,,,
Sheahan's Pharmacy Limited,PHA,,"18 Main Street, Kenmare, Co. Kerry",51.87948,-9.58247,,,,,,,
Sneem Pharmacy,PHA,,"South Square, Sneem, Co. Kerry",51.83767,-9.89763,,,,,,,
The Village Pharmacy,PHA,,"Strand Street, Castlegregory, Co. Kerry",52.25506,-10.01984,,,,,,,
Thomas J. Brosnan Limited,PHA,,"19 Henry Street, Kenmare, Co. Kerry",51.87858,-9.58372,,,,,,,
Trant's Pharmacy,PHA,,"Park Road, Killarney, Co. Kerry",52.06026,-9.48183,,,,,,,
Walsh's Pharmacy,PHA,,"Green Street, Dingle, Co. Kerry",52.14065,-10.27141,,,,,,,
Waterville Pharmacy Limited,PHA,,"Main Street, Waterville, Co. Kerry",51.82723,-10.17181,,,,,,,
Willms Pharmacy Limited,PHA,,"New Street, Killarney, Co. Kerry",52.05871,-9.51113,,,,,,,
Abbeylands Nursing Home & Alzheimer Unit,NURSE,,Abbeylands Nursing Home & Alzheimer Unit Carhoo Kildorrery Co. Cork Cork,52.2433,-8.43062,info@abbeylandsnursinghome.com,022-25090,,,,https://www.abbeylandsnursinghome.com,
Amberley Home and Retirement Cottages,NURSE,,Amberley Home and Retirement Cottages Acres Fermoy Co. Cork Cork,52.15249,-8.32881,directorofcare@amberleyhome.ie,025 40900,,,,https://www.amberleyhome.ie,
Araglen House Nursing and Convalescent Home,NURSE,,Araglen House Nursing and Convalescent Home Loumanagh Boherbue Mallow Co Cork Cork,52.1522,-9.08457,araglenhouse@gmail.com ,029 76771,,,,NA,
Ardsley Nursing Home,NURSE,,Ardsley Nursing Home Rocky Road Farran Co. Cork Cork,51.87449,-8.719,ardsleynursinghome@gmail.com ,021 733 1163 ,,,,NA,
Aperee Living Churchtown,NURSE,,"Churchtown, Mallow, Co. Cork",,,adminchurchtown@aperee.ie,022-23789,,,,https://aperee.ie/,
Ballincollig Community Nursing Unit,NURSE,,Ballincollig Community Nursing Unit Murphy's Barracks Ballincollig Cork Cork,51.88812,-8.58785,ballincollig@mowlamhealthcare.com,021-4620600,,,,https://www.mowlamhealthcare.com/,
Ballincurrig Care Centre Limited,NURSE,,Ballincurrig Care Centre Ballincurrig Leamlara Co. Cork Cork,51.98789,-8.22618,elainemacg@gmail.com,021 464 2130,,,,NA,
Bandon Community Hospital,NURSE,,Bandon Community Hospital Bandon Co. Cork Cork,51.74713,-8.73695,,,,,,NA,
Beaumont Residential Care,NURSE,,Beaumont Residential Care Woodvale Road Beaumont Co. Cork Cork,51.89011,-8.42382,admin@brccork.com,021-4292195,,,,https://carechoice.ie/beaumont-residential-care,
Bishopscourt Residential Care Ltd,NURSE,,Bishopscourt Residential Care Liskillea Waterfall Co. Cork Cork,51.87303,-8.52978,info@bishopscourt.ie ,021-4885833,,,,https://www.bishopscourt.ie/,
Blairs Hill Nursing Home,NURSE,,Blair's Hill Nursing Home Blair's Hill Sunday's Well Cork Cork,51.89979,-8.49198,patobrien09@yahoo.ie,021-4304229,,,,NA,
Blarney Nursing and Retirement Home,NURSE,,Blarney Nursing Home Killowen Blarney Co. Cork Cork,51.94126,-8.59066,brianblarney@gmail.com,021-4381631,,,,NA,
Bridhaven Nursing Home,NURSE,,Bridhaven Nursing Home Spa Glen Mallow Co. Cork Cork,52.14506,-8.64332,info@bridhaven.ie,022 22205,,,,https://www.bridhaven.ie,
Brookfield Care Centre,NURSE,,Brookfield Care Centre Leamlara Co. Cork Cork,51.97179,-8.2656,bushmountnursinghome@eircom.net,023-8833991,,,,https://www.bushmountnursinghome.ie/,
Bushmount Nursing Home,NURSE,,Bushmount Nursing Home Bushmount Clonakilty Co. Cork Cork,51.6208,-8.8998,,,,,,NA,
Cahereen Care Centre,NURSE,,Cahereen Care Centre Codrum Macroom Co. Cork Cork,51.90672,-8.99652,cahereenrescare@eircom.net,026-41280,,,,NA,
Cara House,NURSE,,Cara House Market Street Skibbereen Co Cork Cork,51.54826,-9.26438,,,,,,NA,
Carechoice Ballynoe,NURSE,,Carechoice Ballynoe White's Cross Co. Cork Cork,51.94287,-8.45413,ballynoe@carechoice.ie,021 4300534,,,,https://www.carechoice.ie,
Carechoice Brookfield,NURSE,,"Leamlara,  Co. Cork.  T56 YX21",,,hr@brookfieldcc.ie,021-4642642,,,,https://www.carechoice.ie,
Carechoice Clonakilty,NURSE,,Carechoice Clonakilty Clogheen Clonakilty Co. Cork Cork,51.61809,-8.90529,clonakilty@carechoice.ie,023 883 6300,,,,https://www.carechoice.ie,
Carechoice Macroom,NURSE,,Carechoice Macroom Gurteenroe Macroom Co. Cork Cork,51.90746,-8.97601,macroom@carechoice.ie,026 42366,,,,https://www.carechoice.ie,
Carechoice Montenotte,NURSE,,Carechoice Montenotte Middle Glanmire Road Montenotte Cork Cork,51.90679,-8.4429,montenotte@carechoice.ie,021 486 1777,,,,https://www.carechoice.ie,
Castletownbere Community Hospital,NURSE,,Castletownbere Community Hospital Castletownbere Co. Cork Cork,51.65597,-9.91146,,,,,,NA,
Clonakilty Community Hospital,NURSE,,Clonakilty Community Hospital Clonakilty Co. Cork Cork,51.62378,-8.88525,,,,,,NA,
Cobh Community Hospital,NURSE,,Cobh Community Hospital Cobh Co. Cork Cork,51.85511,-8.29942,cobh.hospital@ireland.com,021 4811345,,,,NA,
Cois Abhainn Residential Centre,NURSE,,Cois Abhainn Residential Centre Greencloyne Youghal Co. Cork Cork,51.96181,-7.86095,,,,,,NA,
Conna Nursing Home,NURSE,,Conna Nursing Home Conna Mallow Co. Cork Cork,52.09354,-8.10715,connanursinghome@gmail.com,086 1806335,,,,https://www.connanursinghome.ie,
Corpus Christi Nursing Home,NURSE,,Corpus Christi Nursing Home Brigown Mitchelstown Co. Cork Cork,52.26264,-8.26894,corpuschristinh@eircom.net,025-84844,,,,NA,
Cramers Court Nursing Home,NURSE,,Cramer's Court Nursing Home Belgooly Kinsale Co. Cork Cork,51.73628,-8.481,info@cramerscourt.com,021-4770721,,,,https://www.cramerscourt.com/,
Darraglynn Nursing Home,NURSE,,Darraglynn Nursing Home Carrigaline Road Douglas Cork Cork,51.86662,-8.42736,darraglynn1@eircom.net,021-4364722,,,,NA,
Deerpark House,NURSE,,Deerpark House Nursing Home Seafield Bantry Co. Cork Cork,51.67932,-9.46046,info@deerparkhouse.ie,027 52711,,,,https://www.deerparkhouse.ie/,
Douglas Nursing and Retirement Home,NURSE,,Douglas Nursing and Retirement Home Moneygourney Douglas Cork Cork,51.8612,-8.40221,david@douglasnursinghome.ie,021 4364264,,,,https://www.douglasnursinghome.ie,
Dunmanway Community Hospital,NURSE,,Dunmanway Community Hospital Dunmanway Co. Cork Cork,51.7224,-9.1133,,,,,,NA,
East Ferry House Nursing Home,NURSE,,East Ferry House Nursing Home East Ferry Midleton Co. Cork Cork,51.85907,-8.20837,annepatrica_wilson@hotmail.com,021-4652538,,,,NA,
Fairfield Nursing Home,NURSE,,Fairfield Nursing Home Quarry Road Drimoleague Co. Cork Cork,51.66157,-9.25984,fairfielddrimoleague@eircom.net,028-31881,,,,NA,
Farranlea House Community Nursing Unit,NURSE,,Farranlea House CNU Farranlea Road Wilton Cork Cork,51.892,-8.51583,,,,,,NA,
Fermoy Community Hospital,NURSE,,Fermoy Community Hospital Tallow Road Fermoy Co. Cork Cork,52.13961,-8.25671,,,,,,NA,
Glanmire Residential Care Ltd.,NURSE,,Glanmire Residential Care Ltd. Glyntown Glanmire Co. Cork Cork,51.92434,-8.38829,,,,,,NA,
Glendonagh Residential Home,NURSE,,Glendonagh Residential Home Dungourney Midleton Co Cork Cork,51.97896,-8.09535,info@glendonaghnursinghome.ie,021 466 8327,,,,https://www.glendonaghnursinghome.ie,
Glyntown Care Centre,NURSE,,"Glyntown, Glanmire, Co. Cork ",,,info@glyntowncare.ie,021 482 1500,,,,https://www.glyntowncare.ie,
Grange Con Nursing Home,NURSE,,Grange Con Nursing Home Coolatanavally Carrigrohane Co. Cork Cork,51.91773,-8.61179,grangecon@gmail.com,021-4385479,,,,NA,
Haven Bay Care Centre,NURSE,,Haven Bay Care Centre Ballinacubby Kinsale Co. Cork Cork,51.70368,-8.53223,info@havenbay.ie,021-4777328,,,,https://www.havenbay.ie,
Heather House Community Nursing Unit,NURSE,,Heather House Community Nursing Unit St Marys Orthopaedic Hospital Gurranabraher Cork Cork,51.90497,-8.49722,,,,,,NA,
Kanturk Community Hospital,NURSE,,Kanturk Community Hospital Kanturk Co. Cork Cork,52.17746,-8.9065,,,,,,NA,
Kinsale Community Hospital,NURSE,,Kinsale Community Hospital Kinsale Co. Cork Cork,51.70667,-8.52358,,,,,,NA,
Macroom Community Hospital,NURSE,,Macroom Community Hospital Macroom Co. Cork Cork,51.90537,-8.96064,,,,,,NA,
Maryborough Nursing Home,NURSE,,Maryborough Nursing Home Maryborough Hill Douglas Cork Cork,51.86254,-8.41135,office@maryboroughnh.com,021-4891586,,,,https://www.maryboroughnh.com,
Midleton Community Hospital,NURSE,,Midleton Community Hospital Midleton Co. Cork Cork,51.91399,-8.17283,,,,,,NA,
Mount Alvernia Hospital,NURSE,,Mount Alvernia Hospital Newberry Mallow Cork Cork,52.11099,-8.69231,,,,,,NA,
Mount Cara,NURSE,,Mount Cara Redemption Road Blackpool Cork Cork,51.90734,-8.47879,,,,,,NA,
Nazareth House,NURSE,,Nazareth House Dromahane Mallow Co Cork Cork,52.13816,-8.64936,nazarethmallow@eircom.net,022-21561,,,,NA,
Norwood Grange,NURSE,,Norwood Grange Ballinora Waterfall Cork Cork,51.86355,-8.58119,norwoodgrange@gmail.com,021-4873291,,,,NA,
Oaklodge Nursing Home,NURSE,,Oaklodge Nursing Home Churchtown South Cloyne Co. Cork Cork,51.82783,-8.08326,info@oaklodgenursinghome.ie,021 4646080,,,,https://www.oaklodgenursinghome.ie/,
Padre Pio House Nursing Home,NURSE,,Padre Pio House Nursing Home Churchtown Mallow Co. Cork Cork,52.27209,-8.73031,padrepiorochestown@eircom.net,021-4841595,,,,NA,
Padre Pio Nursing Home,NURSE,,Padre Pio Nursing Home Sunnyside Upper Rochestown Cork Cork,51.86811,-8.36977,padrepiorochestown@eircom.net,021-4841595,,,,NA,
Powdermill Nursing Home,NURSE,,Powdermill Nursing Home Gunpowder Mill Ballincollig Co. Cork Cork,51.8929,-8.59188,powdermillnursing.home@gmail.com,021-4871184,,,,https://www.powdermillnursing.com,
Rochestown Nursing Home,NURSE,,Rochestown Nursing Home Monastery Road Rochestown Co. Cork Cork,51.86793,-8.37052,rochestownnursinghome@yahoo.ie ,021-4841707,,,,NA,
Rosenalee Care Centre Ltd.,NURSE,,Rosenalee Care Centre Poulavone Ballincollig Co. Cork Cork,51.88964,-8.57844,,,,,,NA,
Skibbereen Community Hospital,NURSE,,Skibbereen Community Hospital Coolnagarrane Skibbereen Co. Cork Cork,51.56226,-9.26376,,,,,,NA,
Skibbereen Residential Care Centre,NURSE,,Skibbereen Residential Care Centre Baltimore Road Skibbereen Co. Cork Cork,51.54294,-9.26908,,,,,,NA,
St. Finbarr's Hospital,NURSE,,St. Finbarr's Hospital Douglas Road Cork Cork,51.88963,-8.46109,,,,,,NA,
St. Gabriel's Community Hospital,NURSE,,St. Gabriel's Community Hospital Schull Cork Cork,51.52415,-9.55315,,,,,,NA,
St. Joseph's Community Hospital,NURSE,,St. Joseph's Community Hospital Millstreet Co. Cork Cork,52.06063,-9.06209,,,,,,NA,
St. Joseph's Hospital,NURSE,,St. Joseph's Hospital Bon Secours Care Village Mount Desert Lee Road Cork,51.89971,-8.53322,,,,,,NA,
St. Joseph's Unit,NURSE,,St. Joseph's Unit Bantry General Hospital Bantry Co. Cork Cork,51.68058,-9.45121,,,,,,NA,
St. Luke's Home,NURSE,,St. Luke's Home Castle Road Mahon Cork Cork,51.89804,-8.39919,info@stlukeshome.ie,021-4359444,,,,https://www.stlukeshome.ie,
St. Martha's Nursing Home,NURSE,,St. Martha's Nursing Home Love Lane Charleville Co. Cork Cork,52.35666,-8.68808,adminstmarthas@ehg.ie,063-30750,,,,https://www.mowlamhealthcare.com/,
St. Patricks Hospital Cork,NURSE,,St. Patrick's Hospital (Cork) Ltd. Curraheen Road Curraheen Cork Cork,51.90452,-8.46109,,,,,,NA,
St.Stephens Unit 1,NURSE,,Unit 1 St Stephen's Hospital Sarsfield Court Glanmire Cork Cork,51.9543,-8.39981,,,,,,NA,
Strawhall Nursing Home,NURSE,,Strawhall Nursing Home Strawhall Fermoy Co. Cork Cork,52.13824,-8.25744,strawhallnursinghome@eircom.net ,025-31678,,,,https://www.strawhallnursinghome.ie/,
Teach Altra Nursing Home,NURSE,,Teach Altra Nursing Home Scarteen Newmarket Co. Cork Cork,52.21597,-9.00399,hello@teachaltranursinghome.ie,029-61166,,,,https://evergreencare.ie,
Windmill House Nursing Home,NURSE,,Windmill House Nursing Home Churchtown Mallow Co. Cork Cork,52.27188,-8.72996,care@windmillhealthcare.ie,022 59067,,,,https://windmillhealthcare.ie,
Youghal Community Hospital,NURSE,,Youghal Community Hospital Cork Hill Youghal Cork Cork,51.95602,-7.85624,,,,,,NA,
Youghal and District Nursing Home,NURSE,,Youghal and District Nursing Home Gortroe Youghal Co. Cork Cork,51.93007,-7.91484,youghalnursinghome@eircom.net,024 90280,,,,https://www.youghalnursinghome.ie/,
Aras Mhuire Nursing Home,NURSE,,Aras Mhuire Nursing Home Greenville Listowel Co. Kerry Kerry,52.44667,-9.49702,,,,,,NA,
Ashborough Lodge,NURSE,,Ashborough Lodge Lyre Road Milltown Co. Kerry Kerry,52.14056,-9.71766,,,,,,NA,
Caherciveen Community Hospital,NURSE,,Caherciveen Community Hospital Valentia Road Caherciveen Co. Kerry Kerry,51.94231,-10.23494,,,,,,NA,
Cuil Didin,NURSE,,Cuil Didin Skahanagh Tralee Co. Kerry Kerry,52.24649,-9.69065,,,,,,NA,
Heatherlee Nursing Home,NURSE,,Heatherlee Nursing Home Lawlor's Cross Tralee Road Killarney Kerry,52.11179,-9.51993,,,,,,NA,
Kenmare Community Nursing Unit- New Build,NURSE,,Hospital Road Kenmare Co. Kerry Kerry,51.88865,-9.58138,,,,,,NA,
Kenmare Nursing Home 'Tir na nOg',NURSE,,Kenmare Nursing Home 'Tir na nOg' Killaha East Kenmare Co. Kerry Kerry,51.86344,-9.60215,,,,,,NA,
Kilcara House Nursing Home,NURSE,,Kilcara House Nursing Home Kilcara Duagh Listowel Co. Kerry Kerry,52.41575,-9.39043,,,,,,NA,
"Killarney Community Hospitals (Fuschia, Hawthorn and Heather Wards)",NURSE,,"Killarney Community Hospitals (Fuschia, Hawthorn and Heather Wards) St. Margaret's Road Killarney Co. Kerry Kerry",52.06715,-9.51882,,,,,,NA,
Killarney Nursing Home,NURSE,,Killarney Nursing Home Rock Road Killarney Co. Kerry Kerry,52.06343,-9.51607,,,,,,NA,
Listowel Community Hospital,NURSE,,Listowel Community Hospital St. Joseph's Ward Listowel Co. Kerry Kerry,52.44714,-9.49797,,,,,,NA,
Lystoll Lodge Nursing Home,NURSE,,Lystoll Lodge Nursing Home Skehenerin Listowel Co. Kerry Kerry,52.44854,-9.44258,,,,,,NA,
Oaklands Nursing home,NURSE,,Oaklands Nursing Home Derry Listowel Co. Kerry Kerry,52.48217,-9.41978,,,,,,NA,
Ocean View Retirement and Nursing Home,NURSE,,Ocean View Retirement and Nursing Home Knockglassmore Camp Tralee Co. Kerry Kerry,52.22522,-9.89454,,,,,,NA,
Ospideal Pobail Chorca Dhuibhne (West Kerry Community Hospital),NURSE,,BÃƒÂ³thar an Phoist Daingean UÃƒÂ­ ChÃƒÂºis Co. ChiarraÃƒÂ­,52.14103,-10.26771,,,,,,NA,
Our Lady of Fatima Home,NURSE,,Our Lady of Fatima Home Oakpark Road Tralee Co. Kerry Kerry,52.28214,-9.68513,,,,,,NA,
Our Lady of Lourdes Care Facility,NURSE,,Our Lady of Lourdes Care Facility Kilcummin Village Killarney Co. Kerry Kerry,52.05035,-9.46115,,,,,,NA,
Riverside Nursing Home,NURSE,,Riverside Care Centre Milltown Abbeydorney Tralee Co. Kerry Kerry,52.34366,-9.69769,,,,,,NA,
St. Joseph's Home,NURSE,,St. Joseph's Home Killorglin Co. Kerry Kerry,52.10676,-9.78441,,,,,,NA,
St. Joseph's Nursing Home,NURSE,,St. Joseph's Nursing Home Derrymore East Tralee Co. Kerry Kerry,52.23939,-9.82902,,,,,,NA,
St. Joseph's Nursing Home,NURSE,,St. Joseph's Nursing Home Killowen Kenmare Co. Kerry Kerry,51.88453,-9.56756,,,,,,NA,
St. Louis Nursing Home,NURSE,,St. Louis Nursing Home Clonmore Tralee Co. Kerry Kerry,52.26673,-9.70074,,,,,,NA,
Tralee Community Nursing Unit,NURSE,,Tralee Community Nursing Unit Tralee Co. Kerry Kerry,52.26974,-9.70528,,,,,,NA,
Valentia Hospital,NURSE,,Valentia Hospital Valentia Island Co. Kerry Kerry,51.88972,-10.36715,,,,,,NA,
Carlow,NCBI, R93 K3H4, Teach Failte Kilkenny Road Carlow Co. Carlow,52.82262862,-6.941422594, info@ncbi.ie, 1800 911 250,,,,https://www.ncbi.ie/,
Cavan,NCBI, H12 P3V8, Dublin Road Cavan Co. Cavan,53.98712475,-7.360622362, info@ncbi.ie, 1800 911 250,,,,https://www.ncbi.ie/,
Cork,NCBI, T23 K126, 1A Penrose Wharf Penrose Quay Cork,51.90119042,-8.463650064, info@ncbi.ie, 1800 911 250,,,,https://www.ncbi.ie/,
Donegal,NCBI, F92 TP48, 1 St. Columba`s Terrace High Road Letterkenny Co. Donega,54.95505894,-7.734784792, info@ncbi.ie, 1800 911 250,,,,https://www.ncbi.ie/,
DÃºn Laoghaire,NCBI, A96 FW70, Marina House Clarence Street DÃºn Laoghaire Co. Dublin,53.29590855,-6.143150239, info@ncbi.ie, 1800 911 250,,,,https://www.ncbi.ie/,
Galway,NCBI, H91 PX9K, Odeon House Eyre Square Galway,53.27538243,-9.048409247, info@ncbi.ie, 1800 911 250,,,,https://www.ncbi.ie/,
Dublin Head Office,NCBI, DO9 RP70, Whitworth Road Drumcondra Dublin,53.36405722,-6.264693762, info@ncbi.ie, 01 830 70 33,,,,https://www.ncbi.ie/,
Iona Resource Centre,NCBI, DO9 XK51, Unit 7 Botanic Business Centre Botanic Road Dublin,53.36796623,-6.267612047, info@ncbi.ie, 01 830 40 14,,,,https://www.ncbi.ie/,
Kerry,NCBI, V92 W8YY, Market Place Maine Street Tralee Co. Kerry,52.27163646,-9.706813233, info@ncbi.ie, 1800 911 250,,,,https://www.ncbi.ie/,
Kildare,NCBI, R14 AE80, Athy Health Centre Woodstock Street Athy Co. Kildare,52.99511863,-6.991581663, info@ncbi.ie, 1800 911 250,,,,https://www.ncbi.ie/,
Kilkenny,NCBI, R95 V8DE, 7 Ormonde Road Kilkenny Co. Kilkenny,52.64862842,-7.251867402, info@ncbi.ie, 1800 911 250,,,,https://www.ncbi.ie/,
Laois,NCBI, R32 YFW6, Alvernia House St. Fintanâ€™s Campus Dublin Road Portlaoise Co. Laois,53.03627587,-7.284255017, info@ncbi.ie, 1800 911 250,,,,https://www.ncbi.ie/,
Library and Media Centre,NCBI, D11 PF53, Unit 29 Finglas Business Centre Jamestown Road Finglas Dublin,53.39885386,-6.295705016, info@ncbi.ie, 1800 911 250,,,,https://www.ncbi.ie/,
Limerick,NCBI, V94NX38, (Clare Tipperary) Units 2&3 Parkview Court Lord Edward Street Limerick,52.65742279,-8.627299348, info@ncbi.ie, 1800 911 250,,,,https://www.ncbi.ie/,
Louth,NCBI, A91 XNY2, (Monaghan) 14 Jocelyn Street Dundalk Co. Louth,54.00547152,-6.396657962, info@ncbi.ie, 1800 911 250,,,,https://www.ncbi.ie/,
Mayo,NCBI, F23 X821, Mosaic Centre Stephen Garvey Way Castlebar Co. Mayo,53.85417205,-9.304909454, info@ncbi.ie, 1800 911 250,,,,https://www.ncbi.ie/,
Meath,NCBI, C15 RCW1, Unit 1 Kennedy Road Navan Co. Meath,53.65371411,-6.688758093, info@ncbi.ie, 1800 911 250,,,,https://www.ncbi.ie/,
Offaly,NCBI, R35 HP73, Regional Disability Services HSE Arden Road Tullamore Co. Offaly,53.28220473,-7.490931909, info@ncbi.ie, 1800 911 250,,,,https://www.ncbi.ie/,
Sligo,NCBI, F91 XTX2, (Leitrim) John F. Kennedy House John F. Kennedy Parade Sligo,54.27178331,-8.469017192, info@ncbi.ie, 1800 911 250,,,,https://www.ncbi.ie/,
Rehabilitation Training Centre,NCBI, DO9 RP70, Whitworth Road Drumcondra Dublin,53.36395478,-6.264779593, info@ncbi.ie, 01 830 70 33,,,,https://www.ncbi.ie/,
Tallaght,NCBI, D24 F22V, (Wicklow) Unit F5 Talbot House Belgard Square West Tallaght Dublin,53.28819866,-6.374993209, info@ncbi.ie, 1800 911 250,,,,https://www.ncbi.ie/,
Waterford,NCBI, X91 CKC7, Cheshire Complex John`s Hill Waterford,52.25103841,-7.104683694, info@ncbi.ie, 1800 911 250,,,,https://www.ncbi.ie/,
Westmeath,NCBI, N37 C1K2, (Roscommon  Longford) Clonbrusk Resource Centre Coosan Road Athlone Co. Westmeath,53.43384955,-7.94572527, info@ncbi.ie, 1800 911 250,,,,https://www.ncbi.ie/,
Lochrann Resource Centre,NCBI, Y35 DW73, Lochrann Centre Cinema Lane Wexford,52.33752333,-6.460198494, info@ncbi.ie, 053 912 43 42,,,,https://www.ncbi.ie/,
Comharchumann Forbartha an Leith TriÃºigh Teo,MOW, V92 DK4C, Halla Le ChÃ©ile Baile UÃ­ Dhuibhne,52.25781192,-10.17183244,,0667138137,,,,https://mealsonwheelsnetwork.ie/directory-meals_on_wheels/?filter_address%5Btext%5D=Current%20Map%20View&filter_address%5Bviewport%5D=51.32326959635218%2C-11.245623958125014%2C52.08916363292999%2C-7.729998958125015&filter_address%5Bzoom%5D=9&filter=1&filter_location_address%5Btext%5D=Current%20Map%20View&filter_location_address%5Bviewport%5D=51.32326959635218%2C-11.245623958125014%2C52.08916363292999%2C-7.729998958125015&filter_location_address%5Bzoom%5D=9&sort=post_published,
Lauragh Meals on Wheels,MOW, V93 HR98,Lauragh Community Centre,51.7643606,-9.778710877,,087 3405863,,,,https://mealsonwheelsnetwork.ie/directory-meals_on_wheels/?filter_address%5Btext%5D=Current%20Map%20View&filter_address%5Bviewport%5D=51.32326959635218%2C-11.245623958125014%2C52.08916363292999%2C-7.729998958125015&filter_address%5Bzoom%5D=9&filter=1&filter_location_address%5Btext%5D=Current%20Map%20View&filter_location_address%5Bviewport%5D=51.32326959635218%2C-11.245623958125014%2C52.08916363292999%2C-7.729998958125015&filter_location_address%5Bzoom%5D=9&sort=post_published,
Charleville Meals on Wheels,MOW, P56 D857,Main Street ,52.35685805,-8.685103799,,087 7691605,,,,https://mealsonwheelsnetwork.ie/directory-meals_on_wheels/?filter_address%5Btext%5D=Current%20Map%20View&filter_address%5Bviewport%5D=51.32326959635218%2C-11.245623958125014%2C52.08916363292999%2C-7.729998958125015&filter_address%5Bzoom%5D=9&filter=1&filter_location_address%5Btext%5D=Current%20Map%20View&filter_location_address%5Bviewport%5D=51.32326959635218%2C-11.245623958125014%2C52.08916363292999%2C-7.729998958125015&filter_location_address%5Bzoom%5D=9&sort=post_published,
Crosshaven Meals on Wheels,MOW, P43 EK76,Crosshaven ,51.8015799,-8.293230554,,087 3240445,,,,https://mealsonwheelsnetwork.ie/directory-meals_on_wheels/?filter_address%5Btext%5D=Current%20Map%20View&filter_address%5Bviewport%5D=51.32326959635218%2C-11.245623958125014%2C52.08916363292999%2C-7.729998958125015&filter_address%5Bzoom%5D=9&filter=1&filter_location_address%5Btext%5D=Current%20Map%20View&filter_location_address%5Bviewport%5D=51.32326959635218%2C-11.245623958125014%2C52.08916363292999%2C-7.729998958125015&filter_location_address%5Bzoom%5D=9&sort=post_published,
Bishopstown Meals on Wheels,MOW, T12 XKF2,Wilton Park House ,51.87869114,-8.512250508,,021 4543757,,,,https://mealsonwheelsnetwork.ie/directory-meals_on_wheels/?filter_address%5Btext%5D=Current%20Map%20View&filter_address%5Bviewport%5D=51.32326959635218%2C-11.245623958125014%2C52.08916363292999%2C-7.729998958125015&filter_address%5Bzoom%5D=9&filter=1&filter_location_address%5Btext%5D=Current%20Map%20View&filter_location_address%5Bviewport%5D=51.32326959635218%2C-11.245623958125014%2C52.08916363292999%2C-7.729998958125015&filter_location_address%5Bzoom%5D=9&sort=post_published,
The Caha Centre FRC,MOW, P75 EK72,Droumlave ,51.68551553,-9.712926623,,087 9144427,,,,https://mealsonwheelsnetwork.ie/directory-meals_on_wheels/?filter_address%5Btext%5D=Current%20Map%20View&filter_address%5Bviewport%5D=51.32326959635218%2C-11.245623958125014%2C52.08916363292999%2C-7.729998958125015&filter_address%5Bzoom%5D=9&filter=1&filter_location_address%5Btext%5D=Current%20Map%20View&filter_location_address%5Bviewport%5D=51.32326959635218%2C-11.245623958125014%2C52.08916363292999%2C-7.729998958125015&filter_location_address%5Bzoom%5D=9&sort=post_published,
Schull Community Care Meals on Wheels,MOW, P81 DP84,,51.53593056,-9.565677785,,086 3159719,,,,https://mealsonwheelsnetwork.ie/directory-meals_on_wheels/?filter_address%5Btext%5D=Current%20Map%20View&filter_address%5Bviewport%5D=51.32326959635218%2C-11.245623958125014%2C52.08916363292999%2C-7.729998958125015&filter_address%5Bzoom%5D=9&filter=1&filter_location_address%5Btext%5D=Current%20Map%20View&filter_location_address%5Bviewport%5D=51.32326959635218%2C-11.245623958125014%2C52.08916363292999%2C-7.729998958125015&filter_location_address%5Bzoom%5D=9&sort=post_published,
Meals on Wheels Youghal,MOW, P36 YE98,TÃ­r na NÃ³g Blackwater Heights,51.95460083,-7.860743992,,087 3851764,,,,https://mealsonwheelsnetwork.ie/directory-meals_on_wheels/?filter_address%5Btext%5D=Current%20Map%20View&filter_address%5Bviewport%5D=51.32326959635218%2C-11.245623958125014%2C52.08916363292999%2C-7.729998958125015&filter_address%5Bzoom%5D=9&filter=1&filter_location_address%5Btext%5D=Current%20Map%20View&filter_location_address%5Bviewport%5D=51.32326959635218%2C-11.245623958125014%2C52.08916363292999%2C-7.729998958125015&filter_location_address%5Bzoom%5D=9&sort=post_published,
Goleen District and Community Council,MOW, P81 VX95,Boulysallagh ,51.49884386,-9.718201,,087- 7164242,,,,https://mealsonwheelsnetwork.ie/directory-meals_on_wheels/?filter_address%5Btext%5D=Current%20Map%20View&filter_address%5Bviewport%5D=51.32326959635218%2C-11.245623958125014%2C52.08916363292999%2C-7.729998958125015&filter_address%5Bzoom%5D=9&filter=1&filter_location_address%5Btext%5D=Current%20Map%20View&filter_location_address%5Bviewport%5D=51.32326959635218%2C-11.245623958125014%2C52.08916363292999%2C-7.729998958125015&filter_location_address%5Bzoom%5D=9&sort=post_published,
Bere Island Project Group,MOW, P75 XP38,Ballynakilla ,51.64043863,-9.858334492,,027 75099,,,,https://mealsonwheelsnetwork.ie/directory-meals_on_wheels/?filter_address%5Btext%5D=Current%20Map%20View&filter_address%5Bviewport%5D=51.32326959635218%2C-11.245623958125014%2C52.08916363292999%2C-7.729998958125015&filter_address%5Bzoom%5D=9&filter=1&filter_location_address%5Btext%5D=Current%20Map%20View&filter_location_address%5Bviewport%5D=51.32326959635218%2C-11.245623958125014%2C52.08916363292999%2C-7.729998958125015&filter_location_address%5Bzoom%5D=9&sort=post_published,
Millstreet Day Centre,MOW, P51 RY10,Claragh Road ,52.0586558,-9.066940484,,029 70926,,,,https://mealsonwheelsnetwork.ie/directory-meals_on_wheels/?filter_address%5Btext%5D=Current%20Map%20View&filter_address%5Bviewport%5D=51.32326959635218%2C-11.245623958125014%2C52.08916363292999%2C-7.729998958125015&filter_address%5Bzoom%5D=9&filter=1&filter_location_address%5Btext%5D=Current%20Map%20View&filter_location_address%5Bviewport%5D=51.32326959635218%2C-11.245623958125014%2C52.08916363292999%2C-7.729998958125015&filter_location_address%5Bzoom%5D=9&sort=post_published,
Cluain Dara Day Care Centre,MOW, P61 H242,Cluain Dara Duntaheen,52.13618129,-8.283888646,,025 33315,,,,https://mealsonwheelsnetwork.ie/directory-meals_on_wheels/?filter_address%5Btext%5D=Current%20Map%20View&filter_address%5Bviewport%5D=51.32326959635218%2C-11.245623958125014%2C52.08916363292999%2C-7.729998958125015&filter_address%5Bzoom%5D=9&filter=1&filter_location_address%5Btext%5D=Current%20Map%20View&filter_location_address%5Bviewport%5D=51.32326959635218%2C-11.245623958125014%2C52.08916363292999%2C-7.729998958125015&filter_location_address%5Bzoom%5D=9&sort=post_published,
Conna Community Housing,MOW, P51 PP30,Monty's Meadow ,52.09241881,-8.110398123,,058 59822,,,,https://mealsonwheelsnetwork.ie/directory-meals_on_wheels/?filter_address%5Btext%5D=Current%20Map%20View&filter_address%5Bviewport%5D=51.32326959635218%2C-11.245623958125014%2C52.08916363292999%2C-7.729998958125015&filter_address%5Bzoom%5D=9&filter=1&filter_location_address%5Btext%5D=Current%20Map%20View&filter_location_address%5Bviewport%5D=51.32326959635218%2C-11.245623958125014%2C52.08916363292999%2C-7.729998958125015&filter_location_address%5Bzoom%5D=9&sort=post_published,
Ballyheigue Community Centre,MOW, V92 K227,Sandyhills Road ,52.38878661,-9.833239253,,066 7133837,,,,https://mealsonwheelsnetwork.ie/directory-meals_on_wheels/?filter_address%5Btext%5D=Current%20Map%20View&filter_address%5Bviewport%5D=51.32326959635218%2C-11.245623958125014%2C52.08916363292999%2C-7.729998958125015&filter_address%5Bzoom%5D=9&filter=1&filter_location_address%5Btext%5D=Current%20Map%20View&filter_location_address%5Bviewport%5D=51.32326959635218%2C-11.245623958125014%2C52.08916363292999%2C-7.729998958125015&filter_location_address%5Bzoom%5D=9&sort=post_published,
Beara West Family Resource Centre,MOW, P75 YX38,Knockanroe House Bank Place,51.6513227,-9.911784123,,027 70998,,,,https://mealsonwheelsnetwork.ie/directory-meals_on_wheels/?filter_address%5Btext%5D=Current%20Map%20View&filter_address%5Bviewport%5D=51.32326959635218%2C-11.245623958125014%2C52.08916363292999%2C-7.729998958125015&filter_address%5Bzoom%5D=9&filter=1&filter_location_address%5Btext%5D=Current%20Map%20View&filter_location_address%5Bviewport%5D=51.32326959635218%2C-11.245623958125014%2C52.08916363292999%2C-7.729998958125015&filter_location_address%5Bzoom%5D=9&sort=post_published,
St. Michael's Centre,MOW, P72 XN61,36 South Main Street ,51.74508783,-8.739532215,,023 8841681,,,,https://mealsonwheelsnetwork.ie/directory-meals_on_wheels/?filter_address%5Btext%5D=Current%20Map%20View&filter_address%5Bviewport%5D=51.32326959635218%2C-11.245623958125014%2C52.08916363292999%2C-7.729998958125015&filter_address%5Bzoom%5D=9&filter=1&filter_location_address%5Btext%5D=Current%20Map%20View&filter_location_address%5Bviewport%5D=51.32326959635218%2C-11.245623958125014%2C52.08916363292999%2C-7.729998958125015&filter_location_address%5Bzoom%5D=9&sort=post_published,
Skibbereen Meals on Wheels,MOW, P81 Y046,Cara House Market Street ,51.54876985,-9.2645507,,028 22269,,,,https://mealsonwheelsnetwork.ie/directory-meals_on_wheels/?filter_address%5Btext%5D=Current%20Map%20View&filter_address%5Bviewport%5D=51.32326959635218%2C-11.245623958125014%2C52.08916363292999%2C-7.729998958125015&filter_address%5Bzoom%5D=9&filter=1&filter_location_address%5Btext%5D=Current%20Map%20View&filter_location_address%5Bviewport%5D=51.32326959635218%2C-11.245623958125014%2C52.08916363292999%2C-7.729998958125015&filter_location_address%5Bzoom%5D=9&sort=post_published,
Clonakilty Community Care Meals on Wheels,MOW, P85 V327,Saint Fachtna's Community Care Centre Casement Park,51.62158366,-8.888948423,,023 8833107,,,,https://mealsonwheelsnetwork.ie/directory-meals_on_wheels/?filter_address%5Btext%5D=Current%20Map%20View&filter_address%5Bviewport%5D=51.32326959635218%2C-11.245623958125014%2C52.08916363292999%2C-7.729998958125015&filter_address%5Bzoom%5D=9&filter=1&filter_location_address%5Btext%5D=Current%20Map%20View&filter_location_address%5Bviewport%5D=51.32326959635218%2C-11.245623958125014%2C52.08916363292999%2C-7.729998958125015&filter_location_address%5Bzoom%5D=9&sort=post_published,
Tralee Soup Kitchen,MOW, V92 EV50,Ashe Street ,52.27171875,-9.703931269,,086 3188736,,,,https://mealsonwheelsnetwork.ie/directory-meals_on_wheels/?filter_address%5Btext%5D=Current%20Map%20View&filter_address%5Bviewport%5D=51.32326959635218%2C-11.245623958125014%2C52.08916363292999%2C-7.729998958125015&filter_address%5Bzoom%5D=9&filter=1&filter_location_address%5Btext%5D=Current%20Map%20View&filter_location_address%5Bviewport%5D=51.32326959635218%2C-11.245623958125014%2C52.08916363292999%2C-7.729998958125015&filter_location_address%5Bzoom%5D=9&sort=post_published,
Westgate Foundation,MOW, P31 TF34,West Village ,51.8887624,-8.602034792,,021 4873648,,,,https://mealsonwheelsnetwork.ie/directory-meals_on_wheels/?filter_address%5Btext%5D=Current%20Map%20View&filter_address%5Bviewport%5D=51.32326959635218%2C-11.245623958125014%2C52.08916363292999%2C-7.729998958125015&filter_address%5Bzoom%5D=9&filter=1&filter_location_address%5Btext%5D=Current%20Map%20View&filter_location_address%5Bviewport%5D=51.32326959635218%2C-11.245623958125014%2C52.08916363292999%2C-7.729998958125015&filter_location_address%5Bzoom%5D=9&sort=post_published,
Waterville Community Care,MOW, V23 P935,,51.82865597,-10.17362029,,066 9474366,,,,https://mealsonwheelsnetwork.ie/directory-meals_on_wheels/?filter_address%5Btext%5D=Current%20Map%20View&filter_address%5Bviewport%5D=51.32326959635218%2C-11.245623958125014%2C52.08916363292999%2C-7.729998958125015&filter_address%5Bzoom%5D=9&filter=1&filter_location_address%5Btext%5D=Current%20Map%20View&filter_location_address%5Bviewport%5D=51.32326959635218%2C-11.245623958125014%2C52.08916363292999%2C-7.729998958125015&filter_location_address%5Bzoom%5D=9&sort=post_published,
Tralee Meals On Wheels,MOW, V92 X704,Ozanam House 9 Day Place,52.26883701,-9.709255438,,066 712 8021,,,,https://mealsonwheelsnetwork.ie/directory-meals_on_wheels/?filter_address%5Btext%5D=Current%20Map%20View&filter_address%5Bviewport%5D=51.32326959635218%2C-11.245623958125014%2C52.08916363292999%2C-7.729998958125015&filter_address%5Bzoom%5D=9&filter=1&filter_location_address%5Btext%5D=Current%20Map%20View&filter_location_address%5Bviewport%5D=51.32326959635218%2C-11.245623958125014%2C52.08916363292999%2C-7.729998958125015&filter_location_address%5Bzoom%5D=9&sort=post_published,
Tralee Community Care & Action Ltd,MOW, V92 Y336,Cumann Iosaef Balloonagh,52.27295675,-9.714728715,,066 7120056,,,,https://mealsonwheelsnetwork.ie/directory-meals_on_wheels/?filter_address%5Btext%5D=Current%20Map%20View&filter_address%5Bviewport%5D=51.32326959635218%2C-11.245623958125014%2C52.08916363292999%2C-7.729998958125015&filter_address%5Bzoom%5D=9&filter=1&filter_location_address%5Btext%5D=Current%20Map%20View&filter_location_address%5Bviewport%5D=51.32326959635218%2C-11.245623958125014%2C52.08916363292999%2C-7.729998958125015&filter_location_address%5Bzoom%5D=9&sort=post_published,
SVDP Listowel Day Centre,MOW, V31 YA37,14 Meelish Close John B. Keane Road,52.44850982,-9.481698838,,087 781 8053,,,,https://mealsonwheelsnetwork.ie/directory-meals_on_wheels/?filter_address%5Btext%5D=Current%20Map%20View&filter_address%5Bviewport%5D=51.32326959635218%2C-11.245623958125014%2C52.08916363292999%2C-7.729998958125015&filter_address%5Bzoom%5D=9&filter=1&filter_location_address%5Btext%5D=Current%20Map%20View&filter_location_address%5Bviewport%5D=51.32326959635218%2C-11.245623958125014%2C52.08916363292999%2C-7.729998958125015&filter_location_address%5Bzoom%5D=9&sort=post_published,
Social Action Group Rathmore Clg,MOW, P51 DV7F,Saint Joseph's Day Care Centre ,52.07750741,-9.249628669,,064 7758588,,,,https://mealsonwheelsnetwork.ie/directory-meals_on_wheels/?filter_address%5Btext%5D=Current%20Map%20View&filter_address%5Bviewport%5D=51.32326959635218%2C-11.245623958125014%2C52.08916363292999%2C-7.729998958125015&filter_address%5Bzoom%5D=9&filter=1&filter_location_address%5Btext%5D=Current%20Map%20View&filter_location_address%5Bviewport%5D=51.32326959635218%2C-11.245623958125014%2C52.08916363292999%2C-7.729998958125015&filter_location_address%5Bzoom%5D=9&sort=post_published,
Sneem Welfare Organisation Ltd,MOW, V93 TX07,Sea View ,51.83803451,-9.905261869,,087 7923499,,,,https://mealsonwheelsnetwork.ie/directory-meals_on_wheels/?filter_address%5Btext%5D=Current%20Map%20View&filter_address%5Bviewport%5D=51.32326959635218%2C-11.245623958125014%2C52.08916363292999%2C-7.729998958125015&filter_address%5Bzoom%5D=9&filter=1&filter_location_address%5Btext%5D=Current%20Map%20View&filter_location_address%5Bviewport%5D=51.32326959635218%2C-11.245623958125014%2C52.08916363292999%2C-7.729998958125015&filter_location_address%5Bzoom%5D=9&sort=post_published,
Rockmount Care Centre,MOW, V93 XY75,Doctor's Surgery  Rockmount Gortnaboul,51.90319764,-9.445744718,,064 6685952,,,,https://mealsonwheelsnetwork.ie/directory-meals_on_wheels/?filter_address%5Btext%5D=Current%20Map%20View&filter_address%5Bviewport%5D=51.32326959635218%2C-11.245623958125014%2C52.08916363292999%2C-7.729998958125015&filter_address%5Bzoom%5D=9&filter=1&filter_location_address%5Btext%5D=Current%20Map%20View&filter_location_address%5Bviewport%5D=51.32326959635218%2C-11.245623958125014%2C52.08916363292999%2C-7.729998958125015&filter_location_address%5Bzoom%5D=9&sort=post_published,
Portmagee Social Services,MOW, V23 HY51,Portmagee Community Centre ,51.88610403,-10.36331278,,066- 9477200,,,,https://mealsonwheelsnetwork.ie/directory-meals_on_wheels/?filter_address%5Btext%5D=Current%20Map%20View&filter_address%5Bviewport%5D=51.32326959635218%2C-11.245623958125014%2C52.08916363292999%2C-7.729998958125015&filter_address%5Bzoom%5D=9&filter=1&filter_location_address%5Btext%5D=Current%20Map%20View&filter_location_address%5Bviewport%5D=51.32326959635218%2C-11.245623958125014%2C52.08916363292999%2C-7.729998958125015&filter_location_address%5Bzoom%5D=9&sort=post_published,
P.A.C.E. (Passage Association For The Care Of T...,MOW, T12 X4AX,Town Hall Main Street,51.87274834,-8.336508169,,021 4863272,,,,https://mealsonwheelsnetwork.ie/directory-meals_on_wheels/?filter_address%5Btext%5D=Current%20Map%20View&filter_address%5Bviewport%5D=51.32326959635218%2C-11.245623958125014%2C52.08916363292999%2C-7.729998958125015&filter_address%5Bzoom%5D=9&filter=1&filter_location_address%5Btext%5D=Current%20Map%20View&filter_location_address%5Bviewport%5D=51.32326959635218%2C-11.245623958125014%2C52.08916363292999%2C-7.729998958125015&filter_location_address%5Bzoom%5D=9&sort=post_published,
Middleton Meals On Wheels,MOW, P25 H343,Parish Hall Youghal Road,51.91176576,-8.168914954,,021 4633260,,,,https://mealsonwheelsnetwork.ie/directory-meals_on_wheels/?filter_address%5Btext%5D=Current%20Map%20View&filter_address%5Bviewport%5D=51.32326959635218%2C-11.245623958125014%2C52.08916363292999%2C-7.729998958125015&filter_address%5Bzoom%5D=9&filter=1&filter_location_address%5Btext%5D=Current%20Map%20View&filter_location_address%5Bviewport%5D=51.32326959635218%2C-11.245623958125014%2C52.08916363292999%2C-7.729998958125015&filter_location_address%5Bzoom%5D=9&sort=post_published,
Middle Parish Meals On Wheels,MOW, T12 P302,1 Peter's Street ,51.89962516,-8.480670692,,021 427 3934,,,,https://mealsonwheelsnetwork.ie/directory-meals_on_wheels/?filter_address%5Btext%5D=Current%20Map%20View&filter_address%5Bviewport%5D=51.32326959635218%2C-11.245623958125014%2C52.08916363292999%2C-7.729998958125015&filter_address%5Bzoom%5D=9&filter=1&filter_location_address%5Btext%5D=Current%20Map%20View&filter_location_address%5Bviewport%5D=51.32326959635218%2C-11.245623958125014%2C52.08916363292999%2C-7.729998958125015&filter_location_address%5Bzoom%5D=9&sort=post_published,
Mallow Social Service Council,MOW, P51P2FF,The New Road ,52.13935848,-8.642419369,,877546547,,,,https://mealsonwheelsnetwork.ie/directory-meals_on_wheels/listing/mallow-social-service-council/,
Listry Communtiy Council,MOW, V93 PX08,Listry Community Council ,51.89729076,-8.416774669,,087 2563883,,,,https://mealsonwheelsnetwork.ie/directory-meals_on_wheels/?filter_address%5Btext%5D=Current%20Map%20View&filter_address%5Bviewport%5D=51.32326959635218%2C-11.245623958125014%2C52.08916363292999%2C-7.729998958125015&filter_address%5Bzoom%5D=9&filter=1&filter_location_address%5Btext%5D=Current%20Map%20View&filter_location_address%5Bviewport%5D=51.32326959635218%2C-11.245623958125014%2C52.08916363292999%2C-7.729998958125015&filter_location_address%5Bzoom%5D=9&sort=post_published,
Knocknagoshel Meals On Wheels,MOW, V92 WV70,Knocknagoshel,52.33129282,-9.384824423,,087 1269270,,,,https://mealsonwheelsnetwork.ie/directory-meals_on_wheels/?filter_address%5Btext%5D=Current%20Map%20View&filter_address%5Bviewport%5D=51.32326959635218%2C-11.245623958125014%2C52.08916363292999%2C-7.729998958125015&filter_address%5Bzoom%5D=9&filter=1&filter_location_address%5Btext%5D=Current%20Map%20View&filter_location_address%5Bviewport%5D=51.32326959635218%2C-11.245623958125014%2C52.08916363292999%2C-7.729998958125015&filter_location_address%5Bzoom%5D=9&sort=post_published,
Knockanure Community Centre,MOW, V31 K778,Knockanure ,52.46345044,-9.369618792,,068 49799,,,,https://mealsonwheelsnetwork.ie/directory-meals_on_wheels/?filter_address%5Btext%5D=Current%20Map%20View&filter_address%5Bviewport%5D=51.32326959635218%2C-11.245623958125014%2C52.08916363292999%2C-7.729998958125015&filter_address%5Bzoom%5D=9&filter=1&filter_location_address%5Btext%5D=Current%20Map%20View&filter_location_address%5Bviewport%5D=51.32326959635218%2C-11.245623958125014%2C52.08916363292999%2C-7.729998958125015&filter_location_address%5Bzoom%5D=9&sort=post_published,
Killarney Community Services,MOW, V93 EVP2,Holy Cross Day Care Centre Rock Road,52.06494473,-9.516575369,,064 6635005,,,,https://mealsonwheelsnetwork.ie/directory-meals_on_wheels/?filter_address%5Btext%5D=Current%20Map%20View&filter_address%5Bviewport%5D=51.32326959635218%2C-11.245623958125014%2C52.08916363292999%2C-7.729998958125015&filter_address%5Bzoom%5D=9&filter=1&filter_location_address%5Btext%5D=Current%20Map%20View&filter_location_address%5Bviewport%5D=51.32326959635218%2C-11.245623958125014%2C52.08916363292999%2C-7.729998958125015&filter_location_address%5Bzoom%5D=9&sort=post_published,
Kenmare Community Care Clg,MOW,V93 D9HE,Taobh Linn Social Centre  Taobh Linn Railway Road,51.88545414,-9.581221518,,064 6648616,,,,https://mealsonwheelsnetwork.ie/directory-meals_on_wheels/?filter_address%5Btext%5D=Current%20Map%20View&filter_address%5Bviewport%5D=51.32326959635218%2C-11.245623958125014%2C52.08916363292999%2C-7.729998958125015&filter_address%5Bzoom%5D=9&filter=1&filter_location_address%5Btext%5D=Current%20Map%20View&filter_location_address%5Bviewport%5D=51.32326959635218%2C-11.245623958125014%2C52.08916363292999%2C-7.729998958125015&filter_location_address%5Bzoom%5D=9&sort=post_published,
Glounthaune Meals On Wheels,MOW, T45 TD73,28 Tower Hill Kilcoolishal,51.90973264,-8.363014838,,021 4353557,,,,https://mealsonwheelsnetwork.ie/directory-meals_on_wheels/?filter_address%5Btext%5D=Current%20Map%20View&filter_address%5Bviewport%5D=51.32326959635218%2C-11.245623958125014%2C52.08916363292999%2C-7.729998958125015&filter_address%5Bzoom%5D=9&filter=1&filter_location_address%5Btext%5D=Current%20Map%20View&filter_location_address%5Bviewport%5D=51.32326959635218%2C-11.245623958125014%2C52.08916363292999%2C-7.729998958125015&filter_location_address%5Bzoom%5D=9&sort=post_published,
Glencar Community Care,MOW, V93 R963,Shanacashel Community Centre Shanacashel,52.01233434,-9.853073861,,087 9314668,,,,https://mealsonwheelsnetwork.ie/directory-meals_on_wheels/?filter_address%5Btext%5D=Current%20Map%20View&filter_address%5Bviewport%5D=51.32326959635218%2C-11.245623958125014%2C52.08916363292999%2C-7.729998958125015&filter_address%5Bzoom%5D=9&filter=1&filter_location_address%5Btext%5D=Current%20Map%20View&filter_location_address%5Bviewport%5D=51.32326959635218%2C-11.245623958125014%2C52.08916363292999%2C-7.729998958125015&filter_location_address%5Bzoom%5D=9&sort=post_published,
Gairdin Mhuire Day Care Centre,MOW, V92 HK79,Sraid An Doirin ,52.14235911,-10.2706288,,066 9151300,,,,https://mealsonwheelsnetwork.ie/directory-meals_on_wheels/?filter_address%5Btext%5D=Current%20Map%20View&filter_address%5Bviewport%5D=51.32326959635218%2C-11.245623958125014%2C52.08916363292999%2C-7.729998958125015&filter_address%5Bzoom%5D=9&filter=1&filter_location_address%5Btext%5D=Current%20Map%20View&filter_location_address%5Bviewport%5D=51.32326959635218%2C-11.245623958125014%2C52.08916363292999%2C-7.729998958125015&filter_location_address%5Bzoom%5D=9&sort=post_published,
Fermoy Community Resource Centre,MOW, P61 T267,42 Mccurtain Street ,52.13834112,-8.277445107,,025 32962,,,,https://mealsonwheelsnetwork.ie/directory-meals_on_wheels/?filter_address%5Btext%5D=Current%20Map%20View&filter_address%5Bviewport%5D=51.32326959635218%2C-11.245623958125014%2C52.08916363292999%2C-7.729998958125015&filter_address%5Bzoom%5D=9&filter=1&filter_location_address%5Btext%5D=Current%20Map%20View&filter_location_address%5Bviewport%5D=51.32326959635218%2C-11.245623958125014%2C52.08916363292999%2C-7.729998958125015&filter_location_address%5Bzoom%5D=9&sort=post_published,
Dunmanway Family Resource Centre,MOW, P47 DP99,Tonafora Bantry Road,51.71792993,-9.116656938,,028 8868110,,,,https://mealsonwheelsnetwork.ie/directory-meals_on_wheels/?filter_address%5Btext%5D=Current%20Map%20View&filter_address%5Bviewport%5D=51.32326959635218%2C-11.245623958125014%2C52.08916363292999%2C-7.729998958125015&filter_address%5Bzoom%5D=9&filter=1&filter_location_address%5Btext%5D=Current%20Map%20View&filter_location_address%5Bviewport%5D=51.32326959635218%2C-11.245623958125014%2C52.08916363292999%2C-7.729998958125015&filter_location_address%5Bzoom%5D=9&sort=post_published,
Duhallow Community Food Services,MOW, P51 C5YF,James O'Keeffe Institute Demesne,52.21039966,-8.994400215,,029 76375,,,,https://mealsonwheelsnetwork.ie/directory-meals_on_wheels/?filter_address%5Btext%5D=Current%20Map%20View&filter_address%5Bviewport%5D=51.32326959635218%2C-11.245623958125014%2C52.08916363292999%2C-7.729998958125015&filter_address%5Bzoom%5D=9&filter=1&filter_location_address%5Btext%5D=Current%20Map%20View&filter_location_address%5Bviewport%5D=51.32326959635218%2C-11.245623958125014%2C52.08916363292999%2C-7.729998958125015&filter_location_address%5Bzoom%5D=9&sort=post_published,
Duagh Family & Community Resource Centre Ltd,MOW, V31 FH67,Duagh Village ,52.41605136,-9.391048377,,087 6866822,,,,https://mealsonwheelsnetwork.ie/directory-meals_on_wheels/?filter_address%5Btext%5D=Current%20Map%20View&filter_address%5Bviewport%5D=51.32326959635218%2C-11.245623958125014%2C52.08916363292999%2C-7.729998958125015&filter_address%5Bzoom%5D=9&filter=1&filter_location_address%5Btext%5D=Current%20Map%20View&filter_location_address%5Bviewport%5D=51.32326959635218%2C-11.245623958125014%2C52.08916363292999%2C-7.729998958125015&filter_location_address%5Bzoom%5D=9&sort=post_published,
Castlemaine Community Centre,MOW,V93 R273,Tralee Road ,52.17153122,-9.700245838,,066 9767833,,,,https://mealsonwheelsnetwork.ie/directory-meals_on_wheels/?filter_address%5Btext%5D=Current%20Map%20View&filter_address%5Bviewport%5D=51.32326959635218%2C-11.245623958125014%2C52.08916363292999%2C-7.729998958125015&filter_address%5Bzoom%5D=9&filter=1&filter_location_address%5Btext%5D=Current%20Map%20View&filter_location_address%5Bviewport%5D=51.32326959635218%2C-11.245623958125014%2C52.08916363292999%2C-7.729998958125015&filter_location_address%5Bzoom%5D=9&sort=post_published,
Caherdaniel Community Care,MOW, V93 KR70,Caherdamiel Community Hall ,51.76947552,-10.10004309,,087 9206667,,,,https://mealsonwheelsnetwork.ie/directory-meals_on_wheels/?filter_address%5Btext%5D=Current%20Map%20View&filter_address%5Bviewport%5D=51.32326959635218%2C-11.245623958125014%2C52.08916363292999%2C-7.729998958125015&filter_address%5Bzoom%5D=9&filter=1&filter_location_address%5Btext%5D=Current%20Map%20View&filter_location_address%5Bviewport%5D=51.32326959635218%2C-11.245623958125014%2C52.08916363292999%2C-7.729998958125015&filter_location_address%5Bzoom%5D=9&sort=post_published,
Beaufort Community Care Group,MOW, V93 F2NY,Beaufort,52.06938849,-9.640367323,,064 6644859,,,,https://mealsonwheelsnetwork.ie/directory-meals_on_wheels/?filter_address%5Btext%5D=Current%20Map%20View&filter_address%5Bviewport%5D=51.32326959635218%2C-11.245623958125014%2C52.08916363292999%2C-7.729998958125015&filter_address%5Bzoom%5D=9&filter=1&filter_location_address%5Btext%5D=Current%20Map%20View&filter_location_address%5Bviewport%5D=51.32326959635218%2C-11.245623958125014%2C52.08916363292999%2C-7.729998958125015&filter_location_address%5Bzoom%5D=9&sort=post_published,
Castleisland St Vincent De Paul,MOW, V92 TD5F,33 Church Street ,52.23033518,-9.462796615,,066 7142234,,,,https://mealsonwheelsnetwork.ie/directory-meals_on_wheels/?filter_address%5Btext%5D=Current%20Map%20View&filter_address%5Bviewport%5D=51.32326959635218%2C-11.245623958125014%2C52.08916363292999%2C-7.729998958125015&filter_address%5Bzoom%5D=9&filter=1&filter_location_address%5Btext%5D=Current%20Map%20View&filter_location_address%5Bviewport%5D=51.32326959635218%2C-11.245623958125014%2C52.08916363292999%2C-7.729998958125015&filter_location_address%5Bzoom%5D=9&sort=post_published,
Baile Mhuire Ltd,MOW, V92 TC59,Bhaile Mhuire Centre Balloonagh,52.27504876,-9.713838938,,066 7123373,,,,https://mealsonwheelsnetwork.ie/directory-meals_on_wheels/?filter_address%5Btext%5D=Current%20Map%20View&filter_address%5Bviewport%5D=51.32326959635218%2C-11.245623958125014%2C52.08916363292999%2C-7.729998958125015&filter_address%5Bzoom%5D=9&filter=1&filter_location_address%5Btext%5D=Current%20Map%20View&filter_location_address%5Bviewport%5D=51.32326959635218%2C-11.245623958125014%2C52.08916363292999%2C-7.729998958125015&filter_location_address%5Bzoom%5D=9&sort=post_published,
Castleisland Day Care Centre,MOW, V92 K138,Chapel Lane ,52.23064773,-9.460728084,,066 7143865,,,,https://mealsonwheelsnetwork.ie/directory-meals_on_wheels/?filter_address%5Btext%5D=Current%20Map%20View&filter_address%5Bviewport%5D=51.32326959635218%2C-11.245623958125014%2C52.08916363292999%2C-7.729998958125015&filter_address%5Bzoom%5D=9&filter=1&filter_location_address%5Btext%5D=Current%20Map%20View&filter_location_address%5Bviewport%5D=51.32326959635218%2C-11.245623958125014%2C52.08916363292999%2C-7.729998958125015&filter_location_address%5Bzoom%5D=9&sort=post_published,
Buds Family & Community Resource Centre Ballyduff,MOW, V92 A2VC,Benmore Ballyduff,52.45165103,-9.663566553,,066 7148883,,,,https://mealsonwheelsnetwork.ie/directory-meals_on_wheels/?filter_address%5Btext%5D=Current%20Map%20View&filter_address%5Bviewport%5D=51.32326959635218%2C-11.245623958125014%2C52.08916363292999%2C-7.729998958125015&filter_address%5Bzoom%5D=9&filter=1&filter_location_address%5Btext%5D=Current%20Map%20View&filter_location_address%5Bviewport%5D=51.32326959635218%2C-11.245623958125014%2C52.08916363292999%2C-7.729998958125015&filter_location_address%5Bzoom%5D=9&sort=post_published,
Ballybunion Community Centre,MOW, V31 TV25,Lartigue Rd ,52.51097322,-9.673495653,,068 27799,,,,https://mealsonwheelsnetwork.ie/directory-meals_on_wheels/?filter_address%5Btext%5D=Current%20Map%20View&filter_address%5Bviewport%5D=51.32326959635218%2C-11.245623958125014%2C52.08916363292999%2C-7.729998958125015&filter_address%5Bzoom%5D=9&filter=1&filter_location_address%5Btext%5D=Current%20Map%20View&filter_location_address%5Bviewport%5D=51.32326959635218%2C-11.245623958125014%2C52.08916363292999%2C-7.729998958125015&filter_location_address%5Bzoom%5D=9&sort=post_published,
Ionad Lae na Dromoda / Dromid Day Centre,MOW, V23 RK10,An Cillin Liath ,51.90690173,-10.06148761,,066 9474782,,,,https://mealsonwheelsnetwork.ie/directory-meals_on_wheels/?filter_address%5Btext%5D=Current%20Map%20View&filter_address%5Bviewport%5D=51.32326959635218%2C-11.245623958125014%2C52.08916363292999%2C-7.729998958125015&filter_address%5Bzoom%5D=9&filter=1&filter_location_address%5Btext%5D=Current%20Map%20View&filter_location_address%5Bviewport%5D=51.32326959635218%2C-11.245623958125014%2C52.08916363292999%2C-7.729998958125015&filter_location_address%5Bzoom%5D=9&sort=post_published,
Caherciveen Social Services,MOW, V23 R726,Caherciveen Social Services Centre  The Old Barracks The Avenue,51.94667372,-10.23161259,,066 9472779,,,,https://mealsonwheelsnetwork.ie/directory-meals_on_wheels/?filter_address%5Btext%5D=Current%20Map%20View&filter_address%5Bviewport%5D=51.32326959635218%2C-11.245623958125014%2C52.08916363292999%2C-7.729998958125015&filter_address%5Bzoom%5D=9&filter=1&filter_location_address%5Btext%5D=Current%20Map%20View&filter_location_address%5Bviewport%5D=51.32326959635218%2C-11.245623958125014%2C52.08916363292999%2C-7.729998958125015&filter_location_address%5Bzoom%5D=9&sort=post_published,
Comhlacht Forbartha An Gleanna,MOW, V23 F293,An Gleann Ionad Lae  Rath Ciarain An Timleach Mor,51.85008596,-10.3352487,,066 9479366,,,,https://mealsonwheelsnetwork.ie/directory-meals_on_wheels/?filter_address%5Btext%5D=Current%20Map%20View&filter_address%5Bviewport%5D=51.32326959635218%2C-11.245623958125014%2C52.08916363292999%2C-7.729998958125015&filter_address%5Bzoom%5D=9&filter=1&filter_location_address%5Btext%5D=Current%20Map%20View&filter_location_address%5Bviewport%5D=51.32326959635218%2C-11.245623958125014%2C52.08916363292999%2C-7.729998958125015&filter_location_address%5Bzoom%5D=9&sort=post_published,
Coiste Forbartha na Sceilge Ballinskelligs Comm...,MOW, V23 DT28,An Halla Pobail ,51.83412477,-10.26407848,,066 947 9111,,,,https://mealsonwheelsnetwork.ie/directory-meals_on_wheels/?filter_address%5Btext%5D=Current%20Map%20View&filter_address%5Bviewport%5D=51.32326959635218%2C-11.245623958125014%2C52.08916363292999%2C-7.729998958125015&filter_address%5Bzoom%5D=9&filter=1&filter_location_address%5Btext%5D=Current%20Map%20View&filter_location_address%5Bviewport%5D=51.32326959635218%2C-11.245623958125014%2C52.08916363292999%2C-7.729998958125015&filter_location_address%5Bzoom%5D=9&sort=post_published,
Ballyphehane Community Centre,MOW,T12 WC6V,Tory Top Road ,51.88514367,-8.474929084,,021 4965339,,,,https://mealsonwheelsnetwork.ie/directory-meals_on_wheels/?filter_address%5Btext%5D=Current%20Map%20View&filter_address%5Bviewport%5D=51.32326959635218%2C-11.245623958125014%2C52.08916363292999%2C-7.729998958125015&filter_address%5Bzoom%5D=9&filter=1&filter_location_address%5Btext%5D=Current%20Map%20View&filter_location_address%5Bviewport%5D=51.32326959635218%2C-11.245623958125014%2C52.08916363292999%2C-7.729998958125015&filter_location_address%5Bzoom%5D=9&sort=post_published,
Douglas Meals On Wheels,MOW, T12 C840,Douglas Community Centre Church Road,51.87458612,-8.437473954,,021 4362289,,,,https://mealsonwheelsnetwork.ie/directory-meals_on_wheels/?filter_address%5Btext%5D=Current%20Map%20View&filter_address%5Bviewport%5D=51.32326959635218%2C-11.245623958125014%2C52.08916363292999%2C-7.729998958125015&filter_address%5Bzoom%5D=9&filter=1&filter_location_address%5Btext%5D=Current%20Map%20View&filter_location_address%5Bviewport%5D=51.32326959635218%2C-11.245623958125014%2C52.08916363292999%2C-7.729998958125015&filter_location_address%5Bzoom%5D=9&sort=post_published,
Blackrock / Mahon Meals On Wheels,MOW, T12 A020,Convent Road ,51.89726427,-8.416774669,,021 4291603,,,,https://mealsonwheelsnetwork.ie/directory-meals_on_wheels/?filter_address%5Btext%5D=Current%20Map%20View&filter_address%5Bviewport%5D=51.32326959635218%2C-11.245623958125014%2C52.08916363292999%2C-7.729998958125015&filter_address%5Bzoom%5D=9&filter=1&filter_location_address%5Btext%5D=Current%20Map%20View&filter_location_address%5Bviewport%5D=51.32326959635218%2C-11.245623958125014%2C52.08916363292999%2C-7.729998958125015&filter_location_address%5Bzoom%5D=9&sort=post_published,
Bantry Care For The Aged Association Company Ltd,MOW, P75 YY93,1 Ard Mhuire Hospital Road,51.67801062,-9.446536154,,085 730 0454,,,,https://mealsonwheelsnetwork.ie/directory-meals_on_wheels/?filter_address%5Btext%5D=Current%20Map%20View&filter_address%5Bviewport%5D=51.32326959635218%2C-11.245623958125014%2C52.08916363292999%2C-7.729998958125015&filter_address%5Bzoom%5D=9&filter=1&filter_location_address%5Btext%5D=Current%20Map%20View&filter_location_address%5Bviewport%5D=51.32326959635218%2C-11.245623958125014%2C52.08916363292999%2C-7.729998958125015&filter_location_address%5Bzoom%5D=9&sort=post_published,
McAuley Day Care Centre Meals on Wheels Service,MOW, P56 TX68,Main Street ,52.35676324,-8.685475923,,087 7691605,,,,https://mealsonwheelsnetwork.ie/directory-meals_on_wheels/?filter_address%5Btext%5D=Current%20Map%20View&filter_address%5Bviewport%5D=51.32326959635218%2C-11.245623958125014%2C52.08916363292999%2C-7.729998958125015&filter_address%5Bzoom%5D=9&filter=1&filter_location_address%5Btext%5D=Current%20Map%20View&filter_location_address%5Bviewport%5D=51.32326959635218%2C-11.245623958125014%2C52.08916363292999%2C-7.729998958125015&filter_location_address%5Bzoom%5D=9&sort=post_published,
Cobh Meals On Wheels,MOW, P24 YD88,The Park Road Day Care Centre Park Road,51.85431083,-8.298517884,,021 4816054,,,,https://mealsonwheelsnetwork.ie/directory-meals_on_wheels/?filter_address%5Btext%5D=Current%20Map%20View&filter_address%5Bviewport%5D=51.32326959635218%2C-11.245623958125014%2C52.08916363292999%2C-7.729998958125015&filter_address%5Bzoom%5D=9&filter=1&filter_location_address%5Btext%5D=Current%20Map%20View&filter_location_address%5Bviewport%5D=51.32326959635218%2C-11.245623958125014%2C52.08916363292999%2C-7.729998958125015&filter_location_address%5Bzoom%5D=9&sort=post_published,
Blarney Care of the Aged,MOW, ,The Convent ,,,,087 7372706,,,,https://mealsonwheelsnetwork.ie/directory-meals_on_wheels/?filter_address%5Btext%5D=Current%20Map%20View&filter_address%5Bviewport%5D=51.32326959635218%2C-11.245623958125014%2C52.08916363292999%2C-7.729998958125015&filter_address%5Bzoom%5D=9&filter=1&filter_location_address%5Btext%5D=Current%20Map%20View&filter_location_address%5Bviewport%5D=51.32326959635218%2C-11.245623958125014%2C52.08916363292999%2C-7.729998958125015&filter_location_address%5Bzoom%5D=9&sort=post_published,
Kinsale Meals On Wheels,MOW,,Kinsale ,,,,087 1509996,,,,https://mealsonwheelsnetwork.ie/directory-meals_on_wheels/?filter_address%5Btext%5D=Current%20Map%20View&filter_address%5Bviewport%5D=51.32326959635218%2C-11.245623958125014%2C52.08916363292999%2C-7.729998958125015&filter_address%5Bzoom%5D=9&filter=1&filter_location_address%5Btext%5D=Current%20Map%20View&filter_location_address%5Bviewport%5D=51.32326959635218%2C-11.245623958125014%2C52.08916363292999%2C-7.729998958125015&filter_location_address%5Bzoom%5D=9&sort=post_published,
Kildare MABS,MABS, W12 EV81, Henry Street Newbridge,53.18102568,-6.800030553,  kildare@mabs.ie,  0818 07 2600,,,,https://mabs.ie/,
Carlow MABS,MABS, R93 ED82,72D Tullow Street Carlow,52.83700425,-6.924827861,  carlow@mabs.ie,  0818 07 2070,,,,https://mabs.ie/,
Cavan MABS,MABS, H12 A8H7, Kinnypottle Cavan,53.99648634,-7.358873329,  cavan@mabs.ie,  0818 07 2410,,,,https://mabs.ie/,
Clare MABS,MABS, V95 WNP6, 7 The Mall Clare Road Ennis,52.83402729,-8.980630192,  ennis@mabs.ie,  0818 07 2430,,,,https://mabs.ie/,
Clare MABS,MABS, V14 K292, Unit 4 Shannon Business Centre,52.70987131,-8.879855614,,  0818 07 2790 ,,,,https://mabs.ie/,
Cork MABS (North),MABS, P51 WF90, 25 O'Brien Street Mallow,52.13738443,-8.642514115,  mallow@mabs.ie,  0818 07 2440,,,,https://mabs.ie/,
Cork MABS (West),MABS, P47 XD71, Unit 11 Underhill Commercial Park Dunmanway,51.71661695,-9.110453015,  dunmanway@mabs.ie,  0818 07 2450,,,,https://mabs.ie/,
Cork MABS,MABS, P56 PP93, Rathgoggin South Charleville,52.3494229,-8.677300369,  charleville@mabs.ie, 0818 07 2420,,,,https://mabs.ie/,
Cork MABS,MABS, T12 AKA6, Ground Floor 101 North Main Street Cork,51.90112215,-8.479315892,  cork@mabs.ie,  0818 07 2090,,,,https://mabs.ie/,
Donegal MABS (North),MABS, F92 R6NF, First Floor Forte Lynne House Letterkenny,54.94854404,-7.731461821,  letterkenny@mabs.ie,  0818 07 2460,,,,https://mabs.ie/,
Donegal MABS (South),MABS, F94 DK6C, Donegal Public Services Centre Drumlonagher Donegal,54.65982538,-8.087919444,  southdonegal@mabs.ie,  0818 07 2480,,,,https://mabs.ie/,
Donegal MABS (West) / Iarthar Dun na nGall,MABS, F92 KF82, Derrybeg,55.07805875,-8.288249251,  iarthar_dhun_na_ngall@mabs.ie,  0818 07 2650,,,,https://mabs.ie/,
Dublin South MABS,MABS, D10 T042, Ballyfermot Civic Centre Ballyfermot Rd Drumfinn Dublin 10,53.34395123,-6.361855983,  ballyfermot@mabs.ie,  0818 07 2800,,,,https://mabs.ie/,
Dublin South MABS,MABS, D22 E9X5, Civic Offices Ninth Lock Road Clondalkin Dublin 22,53.32428818,-6.395179268,  clondalkin@mabs.ie,  0818 07 2270,,,,https://mabs.ie/,
Dublin South MABS,MABS, A96 V803, Ground Floor Marina House Clarence Street Dun Laoghaire,53.2959855,-6.142763991,  Dun_Laoghaire@mabs.ie,  0818 07 2530,,,,https://mabs.ie/,
Dublin South MABS,MABS, D02 X898, 26-28 Lombard Street Dublin 2,53.34527114,-6.249184207,dublin.south.central.mabs@mabs.ie,  0818 07 2520  ,,,,https://mabs.ie/,
Dublin South MABS,MABS, D24 RFV0, Hainault House The Square Tallaght Dublin 24,53.28653589,-6.369048053,  tallaght@mabs.ie,  0818 07 2370,,,,https://mabs.ie/,
Dundrum MABS,MABS, D14 EY13, 1A Upper Kilmacud Road Dundrum Dublin 14,53.28991114,-6.243252814,  dundrum@mabs.ie,  0818 07 2310,,,,https://mabs.ie/,
Galway MABS (North),MABS, H54 Y677, Unit 4 Mellows House Barrack Street Tuam,53.51207883,-8.854394629,  tuam@mabs.ie,  0818 07 2560,,,,https://mabs.ie/,
Galway MABS (South),MABS, H91 D296, Aran Suite Granary Suites 58 Lower Dominick Street Galway,53.27171217,-9.056571729,  galway@mabs.ie,  0818 07 2570,,,,https://mabs.ie/,
Galway MABS,MABS, H62 H721, Piggott Street Loughrea,53.19840681,-8.565996268,  loughrea@mabs.ie,  0818 07 2580,,,,https://mabs.ie/,
Kerry MABS,MABS, V93 PY6X, Unit 2 First Floor Park Court Beech Road Killarney,52.05826876,-9.510058569,  kerry@mabs.ie,  0818 07 7827,,,,https://mabs.ie/,
Kerry MABS,MABS, V92 E6K1, Unit 2 Liber House Monavalley Tralee,52.28074414,-9.702810699,  kerry@mabs.ie,  0818 07 2190,,,,https://mabs.ie/,
Kildare MABS,MABS, W23 Y5D1, Unit 3 Millennium House Harbour View Kilcock,53.39932029,-6.666429691,  kildare@mabs.ie,  0818 07 2590,,,,https://mabs.ie/,
Kilkenny MABS,MABS, R95 VO52, 4 The Parade Gardens Kilkenny,52.65099984,-7.250917761,  kilkenny@mabs.ie,  0818 07 2610,,,,https://mabs.ie/,
Laois MABS,MABS, R32 K298, Railway Mews Railway Street Portlaoise,53.03510312,-7.299301853,  portlaoise@mabs.ie,  0818 07 2620,,,,https://mabs.ie/,
Leitrim MABS,MABS, N41 E177, Swanlinbar Road Ballinamore,54.26279027,-7.699332431,  ballinamore@mabs.ie,  0818 07 2630,,,,https://mabs.ie/,
Limerick MABS,MABS, V94 3T28, Floor 1 Riverstone House 23-27 Henry Street Limerick,52.6609676,-8.632043476,  limerick@mabs.ie,  0818 07 2210,,,,https://mabs.ie/,
Longford MABS,MABS, N39 W1X7, Fee Court 1 Church Street Longford,53.7314398,-7.800428537,  longford@mabs.ie,  0818 07 2640,,,,https://mabs.ie/,
Louth MABS,MABS, A92 ADC9, 1 Mayoralty Street Drogheda,53.71541331,-6.347872922,  drogheda@mabs.ie,  0818 07 2490,,,,https://mabs.ie/,
Louth MABS,MABS, A91 RF97, 58/59 Anne Street Dundalk,54.0012473,-6.406972813,  dundalk@mabs.ie,  0818 07 2540,,,,https://mabs.ie/,
Mayo MABS (North),MABS, F26 WD35, Cualgara Teeling Street Ballina,54.11508187,-9.159164183,  ballina@mabs.ie,  0818 07 2660,,,,https://mabs.ie/,
Mayo MABS (South),MABS, F23 NF82 , Unit 14  Nephin Halls Hopkins Road Castlebar,53.85480051,-9.303468014,  castlebar@mabs.ie, 0818 07 2670,,,,https://mabs.ie/,
Meath MABS,MABS, C15 XR8Y, 1st Floor 1B Brews Hill Navan,53.65271287,-6.688508798,  meath@mabs.ie,  0818 07 2680,,,,https://mabs.ie/,
Monaghan MABS,MABS, A75 Y034, 3rd Floor Bramley House Muckno Street Castleblayney,54.12200899,-6.735755813,  monaghan@mabs.ie,  0818 07 2690,,,,https://mabs.ie/,
North Dublin MABS,MABS, D09 K8W2, Main Street Ballymun Dublin 9,53.39533286,-6.263759337,  ballymun@mabs.ie,  0818 07 2150,,,,https://mabs.ie/,
North Dublin MABS,MABS, D15 TX40, 7A Church Avenue Blanchardstown Dublin 15,53.38584362,-6.375520191,  blanchardstown@mabs.ie, 0818 07 2330,, (access to the office is from Mary Brennan Park)  ,,https://mabs.ie/,
North Dublin MABS,MABS, D17 K462, Northside Civic Centre Bunratty Road Coolock Dublin 5,53.39444868,-6.206870622,  coolock@mabs.ie,  0818 07 2290,,,,https://mabs.ie/,
North Dublin MABS,MABS, D01 K5F2, 53 Upper Dorset Street Dublin 1,53.3570835,-6.264677653,  dorsetstreet@mabs.ie,  0818 07 2510,,,,https://mabs.ie/,
North Dublin MABS,MABS, D11 XF78, 5 Church Street Finglas Dublin 11,53.3885258,-6.300282922,  finglas@mabs.ie,  0818 07 2170,,,,https://mabs.ie/,
North Dublin MABS,MABS, K67 R9X9, Third Floor North Colonnade The Plaza Village Swords,53.45748738,-6.220638422,  swords@mabs.ie,  0818 07 2550,,,,https://mabs.ie/,
Offaly MABS,MABS, R35 P923, Unit 23A The Bridge Centre Tullamore,53.27490572,-7.493102983,  offaly@mabs.ie,  0818 07 2710,,,,https://mabs.ie/,
Roscommon MABS,MABS, F42 TD98,  Tower Block A Roscommon West Business Park Golf Links Road Roscommon,53.62787546,-8.188858337,  roscommon@mabs.ie,  0818 07 2720,,,,https://mabs.ie/,
Sligo MABS,MABS, F91 F8YY, Carbury House Fish Quay Sligo,54.27353977,-8.475299506,  sligo@mabs.ie,  0818 07 2730,,,,https://mabs.ie/,
Tipperary MABS (North),MABS, E45 K825, 31 Pearse Street Nenagh,52.86503934,-8.197391099,  nenagh@mabs.ie,  0818 07 2760,,,,https://mabs.ie/,
Tipperary MABS (North),MABS, E41 R6C9, Mall House Slievenamon Road Thurles,52.67745163,-7.812322253,  thurles@mabs.ie,  0818 07 2740,,,,https://mabs.ie/,
Tipperary MABS (South),MABS, E32 P928, Nano Nagle Community Resource Centre Clancy House Greenside Carrick-on-Suir,52.34818591,-7.411072407,  carrick_on_suir@mabs.ie,  0818 07 2810,,,,https://mabs.ie/,
Tipperary MABS (South),MABS, E91 H2Y2, Anglesea House Anglesea Street Clonmel,52.354088,-7.696300653,  clonmel@mabs.ie,  0818 07 2750,,,,https://mabs.ie/,
Tipperary MABS (South),MABS, E34 DW40, 13 Davis Street Tipperary Town,52.47539374,-8.162246346,  tipperary@mabs.ie,  0818 07 2130,,,,https://mabs.ie/,
Tipperary MABS,MABS, E21 F895, Enterprise Centre Market Yard Cahir,52.37562228,-7.923453984,  Please phone for an appointment,  052 7443066,,,,https://mabs.ie/,
Waterford MABS,MABS, X91 DR60, 6B Wallace House Maritana Gate Canada Street Waterford,52.25806471,-7.10430463,  waterford@mabs.ie,  0818 07 2050,,,,https://mabs.ie/,
Waterford MABS (West),MABS, X35 Y326, Civic Offices Davitts Quay Dungarvan,52.09290275,-7.621380638,  dungarvan@mabs.ie,  0818 07 2770,,,,https://mabs.ie/,
Westmeath MABS,MABS, N37 T0H3, 1st Floor Arcadia Retail Centre Athlone Co. Westmeath,53.43350124,-7.939544787,  westmeath@mabs.ie,  0818 07 2400,,,,https://mabs.ie/,
Westmeath MABS,MABS, N91 NV00, Mount Street (County Buildings Complex) Mullingar,53.52409329,-7.341206083,  westmeath@mabs.ie,  0818 07 2700,,,,https://mabs.ie/,
Wexford MABS,MABS, Y25 P6R3, Unit 1B The Palms Centre The Avenue Gorey,52.67511585,-6.295513892,  arklow@mabs.ie,  0818 07 2390,,,,https://mabs.ie/,
Wexford MABS,MABS, Y35 EY05, 98/100 South Main Street Stonebridge,52.3362226,-6.458730607,  wexford@mabs.ie,  0818 07 2780,,,,https://mabs.ie/,
Wicklow MABS,MABS, Y14 R822, Arus Lorcain Castle Park Arklow,52.79774901,-6.157052407,  arklow@mabs.ie,  0818 07 2390,,,,https://mabs.ie/,
Wicklow MABS,MABS, A98 P9C2, 2 The Boulevard Quinsboro Road Bray,53.20564715,-6.106253883,  bray@mabs.ie,  0818 07 2250,,,,https://mabs.ie/,
Midland Regional Hospital Portlaoise,HOSP,R32RW61,"Dublin Road, Portlaoise, Co. Laois, ",53.03817,-7.27712,,,,,,https://www2.hse.ie/services/hospitals/midland-regional-hospital-portlaoise/,
Midland Regional Hospital Tullamore,HOSP,R35NY51,"Arden Road, Tullamore, Co. Offaly, ",53.28239,-7.49215,,,,,,https://www2.hse.ie/services/hospitals/midland-regional-hospital-tullamore/,
St James's Hospital Dublin,HOSP,D08NHY1,"James's Street, Dublin 8, ",53.33946,-6.29776,,,,,,https://www.stjames.ie/,
Naas General Hospital,HOSP,W91AE76,"Craddockstown Road, Naas, Co. Kildare, ",53.21169,-6.66271,,,,,,https://www.naashospital.ie/,
The Adelaide & Meath Hospital (Tallaght Hospital) Dublin,HOSP,D24 NR0A,"Tallaght, Dublin 24",53.29065,-6.37825,,,,,,https://www.tuh.ie/,
Cavan General Hospital,HOSP,H12A5D7,"Lisdarn, Cavan, ",54.00105,-7.37386,,,,,,https://www2.hse.ie/services/hospitals/cavan-general-hospital/,
Louth County Hospital Dundalk,HOSP,A91 E671,"Dublin Road, Marshes Upper, Dundalk, Co. Louth",53.98808,-6.401,,,,,,https://www2.hse.ie/services/hospitals/louth-county-hospital-dundalk/,
Monaghan Hospital,HOSP,H18NV91,"Monaghan, ",54.24971,-6.97551,,,,,,https://www2.hse.ie/services/hospitals/monaghan-hospital/,
Our Lady of Lourdes Hospital Drogheda,HOSP,A92VW28,"Drogheda, Co. Louth, ",53.72296,-6.35609,,,,,,https://www2.hse.ie/services/hospitals/our-lady-of-lourdes-hospital-drogheda/,
Connolly Hospital Dublin,HOSP,D15X40D,"Mill Road, Dublin 15, ",53.38879,-6.36927,,,,,,https://www2.hse.ie/services/hospitals/connolly-hospital-dublin/,
Beaumont Hospital,HOSP,D09C562,"Beaumont Road, Dublin 9, ",53.39235,-6.22679,,,,,,http://www.beaumont.ie/,
St Luke's General Hospital Kilkenny,HOSP,R95FY71,"Freshford Road, Kilkenny, ",52.66625,-7.26392,,,,,,https://www2.hse.ie/services/hospitals/st-lukes-general-hospital-kilkenny/,
Wexford General Hospital,HOSP,Y35 Y17D,"Newtown Road, Wexford, Y35y17d",52.34305,-6.48351,,,,,,https://www2.hse.ie/services/hospitals/wexford-general-hospital/,
Our Lady's Hospital Navan,HOSP,C15RK7Y,"Navan, Co. Meath, ",53.65052,-6.69829,,,,,,https://www2.hse.ie/services/hospitals/our-ladys-hospital-navan/,
Midland Regional Hospital Mullingar,HOSP,N91NA43,"Longford Road, Mullingar, Co. Westmeath, ",53.53439,-7.35026,,,,,,https://www.iehg.ie/regional-hospital-mullingar,
St Columcille's Hospital,HOSP,D18V9K1,"Bray Road, Loughlinstown, Co. Dublin, ",53.24305,-6.13356,,,,,,https://www2.hse.ie/services/hospitals/st-columcilles-hospital/,
St Vincent's University Hospital,HOSP,D04T6F4,"Elm Park, Nutley Lane, Dublin 4, ",53.31681,-6.21438,,,,,,https://www.stvincents.ie/,
St Michael's Hospital Dun Laoghaire,HOSP,A96P902,"George's Street Lower, Dun Laoghaire, Co. Dublin, ",53.29403,-6.13965,,,,,,https://stmichaels.ie/,
Mater Misericordiae Hospital,HOSP,D07R2WY,"Eccles Street, Dublin 7, ",53.35962,-6.26936,,,,,,https://www.mater.ie/,
South Tipperary General Hospital,HOSP,E91VY40,"Western Road, Clonmel, Co. Tipperary, ",52.35569,-7.71543,,,,,,https://www.hiqa.ie/areas-we-work/find-a-centre/south-tipperary-general-hospital-clonmel,
University Hospital Waterford,HOSP,X91ER8E,"Dunmore Road, Waterford, ",52.24877,-7.07961,,,,,,https://www2.hse.ie/services/hospitals/university-hospital-waterford/,
Bantry General Hospital,HOSP,P75DX93,Carrignagat Bantry Co. Cork ,51.67618,-9.45078,,,,,,https://www2.hse.ie/services/hospitals/bantry-general-hospital/,
Cork University Hospital,HOSP,T12DC4A,"Wilton, Cork, ",51.88357,-8.51164,,,,,,https://www.cuh.hse.ie/,
Mallow General Hospital,HOSP,P51N288,"Kilknockin, Mallow, Co. Cork, ",52.15153,-8.66472,,,,,,https://www2.hse.ie/services/hospitals/mallow-general-hospital/,
Ennis Hospital,HOSP,V95HN29,"Gort Road, Ennis, Co. Clare, ",52.85131,-8.98438,,,,,,https://www2.hse.ie/services/hospitals/ennis-hospital/,
Roscommon County Hospital,HOSP,F42AX61,"Ardsallagh Beg, Co. Roscommon, ",53.62497,-8.17623,,,,,,https://www.saolta.ie/hospital/ruh,
Mercy University Hospital,HOSP,T12WE28,"Grenville Place, Cork, ",51.89896,-8.48356,,,,,,https://www.muh.ie/,
Nenagh Hospital,HOSP,E45PT86,"Tyone, Nenagh, Co. Tipperary, ",52.85786,-8.19232,,,,,,https://www2.hse.ie/services/hospitals/nenagh-hospital/,
Sligo Regional Hospital,HOSP,F91H684,"The Mall, Sligo, ",54.27438,-8.46453,,,,,,https://www.saolta.ie/hospital/suh,
University Hospital Galway,HOSP,H91YR71,"Newcastle Road, Galway, ",53.27606,-9.06616,,,,,,https://www.saolta.ie/hospital/university-hospital-galway,
Portiuncula Hospital,HOSP,H53T971,"Ballinasloe, Co. Galway, ",53.32685,-8.23578,,,,,,https://www2.hse.ie/services/hospitals/portiuncula-university-hospital/,
South Infirmary Victoria University Hospital,HOSP,T12X23H,"Old Blackrock Road, Cork, ",51.89376,-8.4649,,,,,,https://www.sivuh.ie/,
St John's Hospital,HOSP,V94H272,"St. John's Square, Limerick",52.66305,-8.61706,,,,,,https://www.stjohnshospital.ie/,
Letterkenny University Hospital,HOSP,F92AE81,"Kilmacrennan Road, Letterkenny, Co. Donegal, ",54.96023,-7.73553,,,,,,https://www2.hse.ie/services/hospitals/letterkenny-university-hospital/,
Merlin Park University Hospital,HOSP,H91N973,"Galway, ",53.27762,-8.99434,,,,,,https://www.saolta.ie/hospital/mpuh,
University Hospital Kerry,HOSP,V92NX94,"Tralee, Co. Kerry, ",52.26557,-9.69027,,,,,,https://uhk.ie/,
University Hospital Limerick,HOSP,V94F858,"Saint Nessan's Road, Dooradoyle, Limerick, ",52.63607,-8.65446,,,,,,https://www2.hse.ie/services/hospitals/university-hospital-limerick/,
Mayo General Hospital,HOSP,F23H529,"Westport Road, Castlebar, Co. Mayo, ",53.85224,-9.30459,,,,,,https://www.saolta.ie/hospital/muh,
"Ballinspittle Health Centre, ",HSE,P17AF53,"Ballycatten, Ballinspittle, Co. Cork, ",,,,,,,,,
"Ballincollig Health Centre, ",HSE,P31D832,"Innishmore, Ballincollig, Co. Cork, ",,,,,,,,,
Ballyclough,HSE,P51E793,"Ballyclough Community Hall, Ballyclough, Co. Cork, ",,,,,,,,,
"Ballydesmond Health Centre, ",HSE,P51FW66,"Ballydesmond, Co. Cork, ",,,,,,,,,
"Allihies Health Centre, ",HSE,P75EK70,"Cluin, Allihies, Co. Cork, ",51.64226,-10.0455,,,,,,,
Adrigole Health Centre,HSE,P75YE24,"Cappanaparka East, Adrigole, Co. Cork, ",51.68932,-9.73529,,,,,,,
Ballydehob Health Centre ,HSE,P81KF97,"The Parade, Ballydehob, Co. Cork, ",,,,,,,,,
Asdee Health Centre,HSE,V31A257,"Asdee Community Centre, Asdee, Co. Kerry, ",52.5525,-9.56095,,,,,,,
"Ballylongford Health Centre, ",HSE,V31VX90,"Rusheen, Ballylongford, Co. Kerry, ",,,,,,,,,
"Ardfert Health Centre,",HSE,V92EKX9,"Farranwilliam, Ardfert, Co. Kerry, ",52.3254,-9.77971,,,,,,,
"Annascaul Health Centre, ",HSE,V92KA03,"Church Avenue, Annascaul, Co. Kerry, ",52.15215,-10.05287,,,,,,,
Ballyduff Health Centre - Kerry,HSE,V92WCV5,"Benmore, Ballyduff, Co. Kerry, ",,,,,,,,,
"Ballyheigue Health Centre, ",HSE,V92WY61,"Harty's Terrace, Ballyheigue, Co. Kerry, ",,,,,,,,,
Abbeydorney Health Centre,HSE,V92YK5X,"Abbeydorney Parish Community Hall, Abbeydorney, Co. Kerry, ",52.34533,-9.69213,,,,,,,
Clonakilty,HSE,,"Primary Care Centre Hospital Grounds, Scartagh, Clonakilty, Co. Cork.",51.63048,-8.87638,,,,,,,
Milltown,HSE,,"Bridge Street, Milltown, Co. Kerry",52.14374,-9.71419,,,,,,,
Dillons Cross,HSE,,"Harrington Square, Ballyhooly Road, Cork.",51.90827,-8.45689,,,,,,,
Rockchapel,HSE,,"Community Hall, Rockchapel, Co. Cork.",52.28826,-9.1477,,,,,,,
Grattan Street,HSE,,"Grattan Street, Cork.",51.89897,-8.47927,,,,,,,
Blackpool,HSE,,"Blackpool Community Centre, Great William O'Brien Street, Blackpool, Cork.",51.91094,-8.47438,,,,,,,
Macroom,HSE,,"Middle Square, Macroom, Co. Cork.",51.90703,-8.96698,,,,,,,
Rylane,HSE,,"Knocknagoun, Rylane, Co. Cork.",51.98378,-8.84123,,,,,,,
Cois Abhann Residential Centre,HSE,,"Greencloyne, Youghal, Co. Cork",51.96195,-7.85969,,,,,,,
Blarney,HSE,,"The Square, Blarney, Co. Cork.",51.93295,-8.56873,,,,,,,
Gurranebraher,HSE,,"St. Mary's Orthopaedic Hospital, Gurranebraher, Co. Cork.",51.90505,-8.49734,,,,,,,
Farranree,HSE,,"Farranree Community Centre, Popham's Road, Farranree, Cork.",51.91476,-8.48072,,,,,,,
Mayfield,HSE,,"Old Youghal Road, Cork.",51.9118,-8.4418,,,,,,,
Riverstown,HSE,,"Riverstown Village, Glanmire, Cork.",51.9286,-8.39578,,,,,,,
Cobh,HSE,,"Bishop's Street, Cobh, Co. Cork.",51.85342,-8.29459,,,,,,,
Ballymacoda,HSE,,"Ballymacoda, Youghal, Co. Cork.",51.89228,-7.94289,,,,,,,
Youghal,HSE,,"The Lodge Youghal Community Centre, Cork Hill, Youghal, Co. Cork.",51.95706,-7.85941,,,,,,,
Castlemartyr,HSE,,"Main Street, Castlemartyr, Co. Cork.",51.91188,-8.05513,,,,,,,
Kilmurray,HSE,,"Kilmurray, Macroom, Co. Cork.",51.84251,-8.88174,,,,,,,
Cobh,HSE,,"Canon O'Leary Place, Cobh, Co. Cork.",51.85265,-8.29522,,,,,,,
Killbrittain,HSE,,"Killbrittain, Co. Cork.",51.67346,-8.69227,,,,,,,
Carrigtwohill,HSE,,"Main Street, Carrigtwohill, Co. Cork.",51.90933,-8.25729,,,,,,,
Cloyne,HSE,,"Canon Lynch Place, Chapel Street, Cloyne, Co. Cork.",51.86253,-8.12294,,,,,,,
Fairhill,HSE,,"27 Bridevalley View, Fairhill, Cork.",51.90933,-8.25729,,,,,,,
Eason's Hill,HSE,,"Eason's Hill, Cork.",51.90382,-8.47575,,,,,,,
The Glen,HSE,,"The Glen Resource and Leisure Centre, The Glen, Cork.",51.91178,-8.45792,,,,,,,
Carrignavar,HSE,,"Carrignavar, Co. Cork.",51.98826,-8.47808,,,,,,,
Lotamore,HSE,,"20 Lotamore Park, Mayfield, Cork.",51.91488,-8.41904,,,,,,,
Baltimore,HSE,,"Baltimore, Co. Cork.",51.48331,-9.37326,,,,,,,
Bere Island,HSE,,"Rerrin, Bere Island, Co. Cork.",51.64039,-9.85947,,,,,,,
Tralee,HSE,,"Kerry Community Services, Rathass, Co. Kerry",52.26727,-9.68525,,,,,,,
Drimoleague,HSE,,"East End, Drimoleague, Co. Cork.",51.6618,-9.25868,,,,,,,
Drinagh,HSE,,"Drinagh, Co. Cork.",51.64649,-9.1578,,,,,,,
Dunmanway,HSE,,"Main Street, Dunmanway, Co. Cork",51.72316,-9.1101,,,,,,,
Eyeries,HSE,,"Eyeries, Co. Cork.",51.69505,-9.95694,,,,,,,
Glengarriff,HSE,,"Glengarriff, Co. Cork.",51.74998,-9.55038,,,,,,,
Goleen,HSE,,"Church Road, Goleen, Co. Cork.",51.49473,-9.71274,,,,,,,
Inchigeela,HSE,,"Inchigeela, Co. Cork.",51.84194,-9.12717,,,,,,,
Johnstown,HSE,,"Johnstown, Macroom, Co. Cork.",51.8097,-9.08411,,,,,,,
Kealkil,HSE,,"Kealkil, Co. Cork.",51.74865,-9.38631,,,,,,,
Kilcrohane,HSE,,"Kilcrohane, Co. Cork",51.58096,-9.70384,,,,,,,
Leap,HSE,,"Main Street, Leap, Co. Cork.",51.58133,-9.14049,,,,,,,
Moyderwell,HSE,,"Tralee Health Centre, Moyderwell, Tralee, Co. Kerry",52.26727,-9.69964,,,,,,,
Schull,HSE,,"Hospital Grounds, Schull, Co. Cork.",51.52186,-9.54599,,,,,,,
Union Hall,HSE,,"Main Street, Union Hall, Co. Cork.",51.55829,-9.14126,,,,,,,
Ballynoe,HSE,,"Ballynoe, Co. Cork.",52.0587,-8.09687,,,,,,,
Buttevant,HSE,,"Mercy Day Care Centre, Buttevant, Co. Cork.",52.22921,-8.66984,,,,,,,
Castletownroche,HSE,,"Community Hall, Castletownroche, Co. Cork.",52.17167,-8.46548,,,,,,,
Newtownbarry,HSE,,"Newtownbarry, Charleville, Co. Cork.",52.3573,-8.67902,,,,,,,
FRC Broad Street,HSE,,"Family Resource Centre, Broad Street, Charleville, Co. Cork.",52.35479,-8.68178,,,,,,,
Dromina,HSE,,"Community Centre, Dromina, Co. Cork.",52.31403,-8.80177,,,,,,,
Chapel Hill,HSE,,"Chapel Hill, Fermoy, Co. Cork.",52.1368,-8.28032,,,,,,,
Blackwater,HSE,,"Blackwater Day Centre, Fermoy, Co. Cork.",52.13831,-8.27799,,,,,,,
Freemount,HSE,,"Community Centre, Freemount, Co. Cork.",52.27756,-8.88421,,,,,,,
Glantane,HSE,,"Community Hall, Glantane, Co. Cork.",52.10506,-8.74837,,,,,,,
Glanworth,HSE,,"Main Street, Glanworth, Co. Cork.",52.18647,-8.35691,,,,,,,
Kanturk,HSE,,"Community Hospital, Hospital Hill, Kanturk, Co. Cork.",52.17609,-8.91461,,,,,,,
Kildorrery,HSE,,"Limerick Road, Kildorrery, Co. Cork.",52.24703,-8.42815,,,,,,,
Killavullen,HSE,,"Dispensary, Killavullen, Co. Cork.",52.14514,-8.51757,,,,,,,
Kilworth,HSE,,"Main Street, Kilworth, Co. Cork.",52.17564,-8.24477,,,,,,,
Kiskeam,HSE,,"Community Centre, Kiskeam, Co. Cork.",52.17659,-9.1549,,,,,,,
Bank Place,HSE,,"134 Bank Place, Mallow, Co. Cork.",52.1367,-8.644,,,,,,,
Gouldshill,HSE,,"Gouldshill House, Mallow, Co. Cork.",52.11931,-8.66111,,,,,,,
Newberry,HSE,,"Newberry Hospital, Kilvealaton East, Mallow, Co. Cork.",52.12543,-8.68486,,,,,,,
Norwood,HSE,,"Norwood Day Centre, Mallow, Co. Cork.",52.13789,-8.6505,,,,,,,
St. Joseph's,HSE,,"St. Joseph's Road, Mallow, Co. Cork.",52.1357,-8.64003,,,,,,,
Comm Hosp,HSE,,"Community Hospital, Millstreet, Co. Cork.",52.05778,-9.07794,,,,,,,
Claragh Road,HSE,,"Claragh Road, Millstreet, Co.Cork.",52.05879,-9.06745,,,,,,,
Drishane,HSE,,"Drishane Castle, Millstreet, Co. Cork.",52.07763,-9.04782,,,,,,,
Wellmount,HSE,,"Wellmount Park, Finglas, Dublin 11.",53.38533,-6.31161,,,,,,,
Tearmon Ui Chaoimh,HSE,,"Tearmon Ui Chaoimh Day Centre, Mitchelstown, Co. Cork.",52.26487,-8.27251,,,,,,,
Newmarket,HSE,,"Charleville Road, Newmarket, Co. Cork.",52.21631,-8.99973,,,,,,,
Newtown,HSE,,"Newtown, Co. Cork.",51.68602,-9.44669,,,,,,,
Church Road,HSE,,"Church Road, Ardfert, Co. Kerry.",52.32683,-9.78226,,,,,,,
Ballybunion,HSE,,"C/o Dr. Jim O' Sullivan, Ballybunion, Co. Kerry",52.51202,-9.6737,,,,,,,
Brosna,HSE,,"The Health Centre, Brosna, Co. Kerry",52.31284,-9.27136,,,,,,,
Caherciveen,HSE,,"East End, Caherciveen, Co. Kerry.",51.94878,-10.22006,,,,,,,
Camp,HSE,,"Camp Cross, Tralee, Co. Kerry",52.22092,-9.91145,,,,,,,
Tonachy House,HSE,,"Killarney Rd., Castleisland, Co. Kerry",52.23009,-9.46604,,,,,,,
Castlemaine,HSE,,"Community Centre, Castlemaine, Co. Kerry",52.17255,-9.70048,,,,,,,
Causeway,HSE,,"Marian Trc., Causeway, Co. Kerry",52.41139,-9.7332,,,,,,,
Farranfore,HSE,,"Farranfore, Co. Kerry",52.17187,-9.55021,,,,,,,
Glenbeigh,HSE,,"Kilnabrack Lower, Glenbeigh Co. Kerry",52.05506,-9.94468,,,,,,,
Gneeveguilla,HSE,,"Gneeveguilla, Co. Kerry",52.11586,-9.27193,,,,,,,
Kielduff,HSE,,"Community Centre, Rathanny, Co. Kerry",52.29542,-9.60574,,,,,,,
Kilgarven,HSE,,"Kilgarven, Co. Kerry",51.90362,-9.44222,,,,,,,
Park Road,HSE,,"Park Rd., Killarney, Co. Kerry",52.0607,-9.48577,,,,,,,
Knocknagoshel,HSE,,"Community Centre, Knocknagoshel, Co. Kerry",52.33061,-9.38487,,,,,,,
Listowel,HSE,,"Grounds of Listowel Hospital, Co. Kerry",52.44824,-9.49762,,,,,,,
Listowel OPD,HSE,,"Hospital Grounds, Listowel, Co. Kerry",52.44824,-9.49762,,,,,,,
Lixnaw,HSE,,"C/o Dr. Fahys Surgery, Lixnaw, Co. Kerry",52.40895,-9.61746,,,,,,,
Moyvane,HSE,,"Community Centre, Moyvane, Co. Kerry",52.50149,-9.36919,,,,,,,
Portmagee,HSE,,"Portmagee Village, Co. Kerry",51.8858,-10.36526,,,,,,,
Rathmore,HSE,,"Bleak House, Rathmore, Co. Kerry",52.07655,-9.25018,,,,,,,
Scariff,HSE,,"Emlagh, Waterville, Co. Kerry",51.85277,-10.1717,,,,,,,
Sneem,HSE,,"South Square, Sneem, Co. Kerry",51.83792,-9.89952,,,,,,,
Tarbert,HSE,,"Tarbert, Co. Kerry",52.57403,-9.38117,,,,,,,
Waterville,HSE,,"Main Street, Waterville, Co. Kerry",51.82496,-10.17166,,,,,,,
Churchtown,HSE,,"Main Street, Mallow, Co. Cork",52.27158,-8.73162,,,,,,,
St. Frances,HSE,,"Rathealy Road, Fermoy, Co. Cork",52.14183,-8.27015,,,,,,,
Liscarroll,HSE,,"Main Street, Co. Cork",52.26,-8.80633,,,,,,,
Meelin,HSE,,"Knockduff Upper, Newmarket, Co. Cork",52.24923,-9.03369,,,,,,,
Milford,HSE,,Co. Cork,52.34106,-8.85666,,,,,,,
Rathcormac,HSE,,"Main Street, Co. Cork",52.07764,-8.28356,,,,,,,
Caherdaniel,HSE,,"An Post, Post Office, Co. Kerry",51.76964,-10.10083,,,,,,,
Bantry,HSE,,"The Quays, Bantry, Co. Cork.",51.6801,-9.45108,,,,,,,
Innishannon,HSE,,"Innishannon Medical Centre, Main Street, Innishannon, Co. Cork",51.76468,-8.65631,,,,,,,
Tallow,HSE,,"Conna, Co. Cork.",52.09334,-8.10742,,,,,,,
Castletownbere,HSE,,"Bank Place, Castletownbere, Co. Cork.",51.65026,-9.91315,,,,,,,
Heatherside,HSE,,"Heatherside Hospital, Doneraile, Co. Cork.",52.27008,-8.59807,,,,,,,
St. Anne's Road,HSE,,"St. Anne's Road, Killarney, Co. Kerry",52.06275,-9.50806,,,,,,,
Milford,HSE,,"Kyle House, Kyle, Co. Cork",52.3251,-8.86116,,,,,,,
Castlelyons,HSE,,"1 Main Street, Co. Cork",52.0894,-8.23539,,,,,,,
Boherbue,HSE,,"The Corner House, 18 Main Street, Co. Cork",52.159,-9.06967,,,,,,,
College Road,HSE,,"Castleisland, Co. Kerry",52.23431,-9.4575,,,,,,,
Mizen Primary Care Centre,HSE,,"Ardmanagh Road, Schull, Co. Cork",51.528,-9.54879,,,,,,,
Ionad SlÃ¡inte Daingean UÃ­ ChÃºis,HSE,,"Hospital Grounds, Dingle, Co. Kerry",52.14472,-10.27499,,,,,,,
Grosvenor Court,HSE,,"Killarney, Co. Kerry",52.06142,-9.50962,,,,,,,
Bandon,HSE,,"GULLY, CO. CORK",51.73687,-8.75066,,,,,,,
Churchfield,HSE,,"103/105 Knockfree Avenue, Fair Hill, Churchfield, Cork.",51.90727,-8.49072,,,,,,,
Kinsale,HSE,,"HSE, HEALTH CENTRE, MARKET LANE, CO. CORK",51.7062,-8.52529,,,,,,,
Mallow,HSE,,"12/14 Fair Street Lower, Mallow, Co. Cork.",52.13736,-8.64394,,,,,,,
Mallow,HSE,,"20 West End, Mallow, Co. Cork.",52.13783,-8.64838,,,,,,,
Mallow,HSE,,"31/32 Fair Street Upper, Mallow, Co. Cork.",52.13838,-8.64361,,,,,,,
Mallow,HSE,,"9 West End, Mallow, Co. Cork.",52.13787,-8.64878,,,,,,,
Doneraile,HSE,,"Main Street, Doneraile, Co. Cork.",52.21683,-8.58477,,,,,,,
Mount Alvernia,HSE,,"Mount Alvernia Hospital, Mallow, Co. Cork.",52.12435,-8.68462,,,,,,,
Mallow,HSE,,"O'Brien Street, Mallow, Co. Cork.",52.13661,-8.6425,,,,,,,
Douglas ,HSE,,"Community Centre, Douglas, Cork",51.8734,-8.43686,,,,,,,
Mallow,HSE,,"Solas Nua Residential Home, Mallow, Co. Cork.",52.14505,-8.6413,,,,,,,
Castlegregory,HSE,,"Dr. Sills Surgery, Castlegregory, Co. Kerry",52.25659,-10.02156,,,,,,,
Youghal Health Centre,HSE,,"Unit 4a, Millennium Court, Foxhole, Youghal, Co. Cork",51.97141,-7.86388,,,,,,,
Killorglin,HSE,,"HSE, Health Centre, 2 Mill Road, Co. Kerry",52.10826,-9.78782,,,,,,,
Owenacurra Mental Health,HSE,,"HSE, Owenacurra Centre, The Green, Midleton, Co. Cork",51.91742,-8.17458,,,,,,,
Midleton ,HSE,,"Health Centre, HSE, Midleton Community Hospital, Midleton, Co. Cork",51.91776,-8.1728,,,,,,,
Anglesea street,24hr-Garda,,,51.895775,-8.465015,,(021) 4522000,,,,https://www.garda.ie/garda/en/contact-us/station-directory/anglesea-street.html,
Ballincollig,Garda,,,51.888237,-8.590321,,(021) 4214680,,,,https://www.garda.ie/garda/en/contact-us/station-directory/ballincollig.html,
Bishopstown,Garda,,,51.880667,-8.514534,,(021) 4624500,,,,https://www.garda.ie/garda/en/contact-us/station-directory/bishopstown.html,
Blackrock,Garda,,,51.894335,-8.40431,,(021) 4536690,,,,https://www.garda.ie/garda/en/contact-us/station-directory/blackrock-cork.html,
Blanrney,Garda,,,51.931964,-8.567658,,(021) 4516290,,,,https://www.garda.ie/garda/en/contact-us/station-directory/blarney.html,
Bridewell,24hr-Garda,,,51.900553,-8.477045,,(021) 4943330,,,,https://www.garda.ie/garda/en/contact-us/station-directory/bridewell-cork.html,
Carrigaline,Garda,,,51.814833,-8.391535,,(021) 4919370,,,,https://www.garda.ie/garda/en/contact-us/station-directory/carrigaline.html,
Carrignavar,Garda,,,51.988915,-8.478209,,(021) 4884222,,,,https://www.garda.ie/garda/en/contact-us/station-directory/carrignavar.html,
Crosshaven,Garda,,,51.803976,-8.304453,,(021) 4831222,,,,https://www.garda.ie/garda/en/contact-us/station-directory/crosshaven.html,
Douglas,Garda,,,51.875091,-8.430959,,(021) 4857670,,,,https://www.garda.ie/garda/en/contact-us/station-directory/douglas.html,
Glanmire,Garda,,,51.918419,-8.396809,,(021) 4556370,,,,https://www.garda.ie/garda/en/contact-us/station-directory/glanmire.html,
Gurranabraher,24hr-Garda,,,51.903493,-8.496622,,(021) 4946200,,,,https://www.garda.ie/garda/en/contact-us/station-directory/gurranabraher.html,
Mayfield,24hr-Garda,,,51.909732,-8.429043,,(021) 4558510,,,,https://www.garda.ie/garda/en/contact-us/station-directory/mayfield.html,
Passage West,Garda,,,51.865188,-8.331746,,(021) 4841001,,,,https://www.garda.ie/garda/en/contact-us/station-directory/passage-west.html,
Togher,24hr-Garda,,,51.876497,-8.486227,,(021) 4947120,,,,https://www.garda.ie/garda/en/contact-us/station-directory/togher.html,
Watercourse Road,Garda,,,51.907175,-8.474483,,(021) 4558260,,,,https://www.garda.ie/garda/en/contact-us/station-directory/watercourse-road.html,
Ballycotton,Garda,,,51.830332,-8.013091,,(021) 4646712,,,,https://www.garda.ie/garda/en/contact-us/station-directory/ballycotton.html,
Ballynoe,Garda,,,52.060207,-8.099306,,(058) 59100,,,,https://www.garda.ie/garda/en/contact-us/station-directory/ballynoe.html,
Buttervant,Garda,,,52.229313,-8.671275,,(022) 41740,,,,https://www.garda.ie/garda/en/contact-us/station-directory/buttevant.html,
Carrigtwohill,Garda,,,51.909467,-8.261819,,(021) 4883222,,,,https://www.garda.ie/garda/en/contact-us/station-directory/carrigtwohill.html,
Charleville,Garda,,,52.356054,-8.682567,,(063) 21770,,,,https://www.garda.ie/garda/en/contact-us/station-directory/charleville.html,
Cloyne,Garda,,,51.86276,-8.123499,,(021) 4652515,,,,https://www.garda.ie/garda/en/contact-us/station-directory/cloyne.html,
Cobh,24hr-Garda,,,51.84824,-8.303642,,(021) 4908530,,,,https://www.garda.ie/garda/en/contact-us/station-directory/cobh.html,
Doneraile,Garda,,,52.215706,-8.585414,,(022) 24182,,,,https://www.garda.ie/garda/en/contact-us/station-directory/doneraile.html,
Fermoy,24hr-Garda,,,52.138516,-8.274164,,(025) 82100,,,,https://www.garda.ie/garda/en/contact-us/station-directory/fermoy.html,
Glantane,Garda,,,52.104692,-8.748764,,(022) 47154,,,,https://www.garda.ie/garda/en/contact-us/station-directory/glantane.html,
Kanturk,24hr-Garda,,,52.17587,-8.912577,,(029) 20680,,,,https://www.garda.ie/garda/en/contact-us/station-directory/kanturk.html,
Kildorrery,Garda,,,52.245439,-8.429624,,(022) 25162,,,,https://www.garda.ie/garda/en/contact-us/station-directory/kildorrery.html,
Killeagh,Garda,,,51.939762,-7.994963,,(024) 95112,,,,https://www.garda.ie/garda/en/contact-us/station-directory/killeagh.html,
Kilworth,Garda,,,52.176253,-8.249569,,(025) 27101,,,,https://www.garda.ie/garda/en/contact-us/station-directory/kilworth.html,
Liscarroll,Garda,,,52.259567,-8.806261,,(022) 48163,,,,https://www.garda.ie/garda/en/contact-us/station-directory/liscarroll.html,
Mallow,24hr-Garda,,,52.13877,-8.64594,,(022) 31450,,,,https://www.garda.ie/garda/en/contact-us/station-directory/mallow.html,
Midleton,24hr-Garda,,,51.916681,-8.173526,,(021) 4621550,,,,https://www.garda.ie/garda/en/contact-us/station-directory/midleton.html,
Milford ,Co Cork,,,52.342465,-8.8564,,(063) 80002,,,,https://www.garda.ie/garda/en/contact-us/station-directory/milford-co-cork.html,
Millstreet,Garda,,,52.060069,-9.061531,,"	(029) 70002",,,,https://www.garda.ie/garda/en/contact-us/station-directory/millstreet.html,
Mitchelstown,Garda,,,52.263585,-8.270568,,(025) 84833,,,,https://www.garda.ie/garda/en/contact-us/station-directory/mitchelstown.html,
Newmarket,Garda,,,52.214576,-8.99698,,(029) 60002,,,,https://www.garda.ie/garda/en/contact-us/station-directory/newmarket.html,
Rathcormac,Garda,,,52.076086,-8.284331,,(025) 36102,,,,https://www.garda.ie/garda/en/contact-us/station-directory/rathcormac.html,
Watergrasshill,Garda,,,52.013443,-8.342022,,(021) 4889102,,,,https://www.garda.ie/garda/en/contact-us/station-directory/watergrasshill.html,
Whitegate,Garda,,,51.82707,-8.22781,,(021) 4661212,,,,https://www.garda.ie/garda/en/contact-us/station-directory/whitegate.html,
Youghal,Garda,,,51.948069,-7.842754,,(024) 92200,,,,https://www.garda.ie/garda/en/contact-us/station-directory/youghal.html,
Ballyvourney,Garda,,,51.945772,-9.169196,,(026) 45002,,,,https://www.garda.ie/garda/en/contact-us/station-directory/baile-bhuirne-ballyvourney-.html,
Ballineen,Garda,,,51.73592,-8.948867,,(023) 8847111,,,,https://www.garda.ie/garda/en/contact-us/station-directory/ballineen.html,
Ballinhassig,Garda,,,51.804093,-8.570545,,(021) 4885102,,,,https://www.garda.ie/garda/en/contact-us/station-directory/ballinhassig.html,
Ballydehob,Garda,,,51.559116,-9.460782,,(028) 37111,,,,https://www.garda.ie/garda/en/contact-us/station-directory/ballydehob.html,
Ballydesmond,Garda,,,52.178235,-9.230971,,(064) 51102,,,,https://www.garda.ie/garda/en/contact-us/station-directory/ballydesmond.html,
Baltimore,Garda,,,51.483488,-9.372258,,(028) 20102,,,,https://www.garda.ie/garda/en/contact-us/station-directory/baltimore.html,
Bandon,24hr-Garda,,,51.745084,-8.739863,,(023) 8852200,,,,https://www.garda.ie/garda/en/contact-us/station-directory/bandon.html,
Bantry,24hr-Garda,,,51.68027,-9.455239,,(027) 20860,,,,https://www.garda.ie/garda/en/contact-us/station-directory/bantry.html,
Ballingeary,Garda,,,51.851864,-9.228983,,(026) 47002,,,,https://www.garda.ie/garda/en/contact-us/station-directory/beal-atha-an-ghaorthaidh-ballingeary-.html,
Boherbue,Garda,,,52.158972,-9.069752,,(029) 76002,,,,https://www.garda.ie/garda/en/contact-us/station-directory/boherbue.html,
Castletownbere,Garda,,,51.649482,-9.914682,,(027) 70002,,,,https://www.garda.ie/garda/en/contact-us/station-directory/castletownbere.html,
Castletownroche,Garda,,,52.170729,-8.467951,,(022) 26161,,,,https://www.garda.ie/garda/en/contact-us/station-directory/castletownroche.html,
Clonakilty,24hr-Garda,,,51.624951,-8.888908,,(023) 8821570,,,,https://www.garda.ie/garda/en/contact-us/station-directory/clonakilty.html,
Coachford,Garda,,,51.909134,-8.791136,,(021) 7334002,,,,https://www.garda.ie/garda/en/contact-us/station-directory/coachford.html,
Crookstown,Garda,,,51.858654,-8.801264,,(021) 7336002,,,,https://www.garda.ie/garda/en/contact-us/station-directory/crookstown.html,
Drimoleague,Garda,,,51.659024,-9.263986,,(028) 31111,,,,https://www.garda.ie/garda/en/contact-us/station-directory/drimoleague.html,
Drinish,Garda,,,51.64771,-9.154526,,(028) 30113,,,,https://www.garda.ie/garda/en/contact-us/station-directory/drinagh.html,
Dunmanway,Garda,,,51.722827,-9.11014,,(023) 8845202,,,,https://www.garda.ie/garda/en/contact-us/station-directory/dunmanway.html,
Durrus,Garda,,,51.620542,-9.523956,,(027) 61002,,,,https://www.garda.ie/garda/en/contact-us/station-directory/durrus.html,
Glengarriff,Garda,,,51.750564,-9.55071,,(027) 63002,,,,https://www.garda.ie/garda/en/contact-us/station-directory/glengarriff.html,
Innishannon,Garda,,,51.764428,-8.655438,,(021) 4775302,,,,https://www.garda.ie/garda/en/contact-us/station-directory/innishannon.html,
Kealkill,Garda,,,51.755046,-9.375317,,(027) 20867,,,,https://www.garda.ie/garda/en/contact-us/station-directory/kealkill.html,
Kilbrittain,Garda,,,51.673531,-8.690112,,(023) 8849666,,,,https://www.garda.ie/garda/en/contact-us/station-directory/kilbrittain.html,
Kinsale,Garda,,,51.706322,-8.52548,,(021) 4772302,,,,https://www.garda.ie/garda/en/contact-us/station-directory/kinsale.html,
Macroom,24hr-Garda,,,51.906268,-8.963996,,(026) 20590,,,,https://www.garda.ie/garda/en/contact-us/station-directory/macroom.html,
Rathmore,Garda,,,52.084275,-9.214231,,(074) 9158113,,,,https://www.garda.ie/garda/en/contact-us/station-directory/rathmore.html,
Rosscarberry,Garda,,,51.577571,-9.031503,,(023) 8848162,,,,https://www.garda.ie/garda/en/contact-us/station-directory/rosscarberry.html,
Schull,Garda,,,51.528718,-9.54136,,(028) 28111,,,,https://www.garda.ie/garda/en/contact-us/station-directory/schull.html,
Skibbereen,Garda,,,51.548587,-9.264135,,(028) 23088,,,,https://www.garda.ie/garda/en/contact-us/station-directory/skibbereen.html,
Stuake,Garda,,,51.990501,-8.760124,,(021) 7337032,,,,https://www.garda.ie/garda/en/contact-us/station-directory/stuake.html,
Tarelton,Garda,,,51.838531,-8.992849,,(026) 46002,,,,https://www.garda.ie/garda/en/contact-us/station-directory/tarleton.html,
Timoleague,Garda,,,51.642666,-8.766241,,(023) 8846122,,,,https://www.garda.ie/garda/en/contact-us/station-directory/timoleague.html,
Bailieboro,24hr-Garda,,,53.915212,-6.96963,,(042) 9694570,,,,https://www.garda.ie/garda/en/contact-us/station-directory/bailieboro.html,
Ballyconnell,24hr-Garda,,,54.118998,-7.580204,,(049) 9525580,,,,https://www.garda.ie/garda/en/contact-us/station-directory/ballyconnell.html,
Carrickmacross,24hr-Garda,,,53.976059,-6.718776,,(042) 9690190,,,,https://www.garda.ie/garda/en/contact-us/station-directory/carrickmacross.html,
Castleblayney,24hr-Garda,,,54.117858,-6.735032,,(042) 9740668,,,,https://www.garda.ie/garda/en/contact-us/station-directory/castleblayney.html,
Cavan,24hr-Garda,,,53.993329,-7.360879,,(049) 4368800,,,,https://www.garda.ie/garda/en/contact-us/station-directory/cavan.html,
Monaghan,24hr-Garda,,,54.25137,-6.967516,,(047) 77200,,,,https://www.garda.ie/garda/en/contact-us/station-directory/monaghan.html,
Ennis,24hr-Garda,,,52.84681,-8.98112,,(065) 6848100,,,,https://www.garda.ie/garda/en/contact-us/station-directory/ennis.html,
Ennistymon,24hr-Garda,,,52.937394,-9.288537,,(065) 7072180,,,,https://www.garda.ie/garda/en/contact-us/station-directory/ennistymon.html,
Kilrush,24hr-Garda,,,52.641064,-9.481077,,(065) 9080550,,,,https://www.garda.ie/garda/en/contact-us/station-directory/kilrush.html,
Shannon,24hr-Garda,,,52.707895,-8.877221,,(061) 365900,,,,https://www.garda.ie/garda/en/contact-us/station-directory/shannon.html,
Ballyshannon,24hr-Garda,,,54.498743,-8.204817,,(071) 9858530,,,,https://www.garda.ie/garda/en/contact-us/station-directory/ballyshannon.html,
Buncrana,24hr-Garda,,,55.1315,-7.450711,,(074) 9320540,,,,https://www.garda.ie/garda/en/contact-us/station-directory/buncrana.html,
Donegal town,24hr-Garda,,,54.652423,-8.111061,,(074) 9740190,,,,https://www.garda.ie/garda/en/contact-us/station-directory/donegal-town.html,
Letterkenny,24hr-Garda,,,54.954697,-7.736422,,(074) 9167100,,,,https://www.garda.ie/garda/en/contact-us/station-directory/letterkenny.html,
Milford,24hr-Garda,,,55.08699,-7.698108,,(074) 9153060,,,,https://www.garda.ie/garda/en/contact-us/station-directory/milford-co-donegal.html,
Balbriggan,24hr-Garda,,,53.61433,-6.191172,,(01) 8020510,,,,https://www.garda.ie/garda/en/contact-us/station-directory/balbriggan.html,
Ballyfermot,24hr-Garda,,,53.34476,-6.357991,,(01) 6667200,,,,https://www.garda.ie/garda/en/contact-us/station-directory/ballyfermot.html,
Ballymun,24hr-Garda,,,53.394531,-6.26371,,(01) 6664400,,,,https://www.garda.ie/garda/en/contact-us/station-directory/ballymun.html,
Blackrock,24hr-Garda,,,53.299805,-6.177504,,(01) 6665200,,,,https://www.garda.ie/garda/en/contact-us/station-directory/blackrock-dublin.html,
Blanchardstown,24hr-Garda,,,53.38992,-6.380975,,(01) 6667000,,,,https://www.garda.ie/garda/en/contact-us/station-directory/blanchardstown.html,
Bridewell,24hr-Garda,,,53.34708,-6.27413,,(01) 6668200,,,,https://www.garda.ie/garda/en/contact-us/station-directory/bridewell-dublin.html,
Cabinteely,24hr-Garda,,,53.260789,-6.150651,,(01) 6665400,,,,https://www.garda.ie/garda/en/contact-us/station-directory/cabinteely.html,
Clondalkin,24hr-Garda,,,53.323146,-6.394958,,(01) 6667600,,,,https://www.garda.ie/garda/en/contact-us/station-directory/clondalkin.html,
Clontarf,24hr-Garda,,,53.363544,-6.220152,,(01) 6664800,,,,https://www.garda.ie/garda/en/contact-us/station-directory/clontarf.html,
Coolock,24hr-Garda,,,53.390335,-6.201099,,(01) 6664200,,,,https://www.garda.ie/garda/en/contact-us/station-directory/coolock.html,
Crumlin,24hr-Garda,,,53.319567,-6.315017,,(01) 6666200,,,,https://www.garda.ie/garda/en/contact-us/station-directory/crumlin.html,
Dublin Airport,24hr-Garda,,,53.429782,-6.24501,,(01) 6664950,,,,https://www.garda.ie/garda/en/contact-us/station-directory/dublin-airport.html,
Dun Laoghaire,24hr-Garda,,,53.289915,-6.133347,,(01) 6665000,,,,https://www.garda.ie/garda/en/contact-us/station-directory/dun-laoghaire.html,
Dundrum,24hr-Garda,,,53.289544,-6.242572,,(01) 6665600,,,,https://www.garda.ie/garda/en/contact-us/station-directory/dundrum-dublin.html,
Finglas,24hr-Garda,,,53.389651,-6.306919,,(01) 6667500,,,,https://www.garda.ie/garda/en/contact-us/station-directory/finglas.html,
Fitzgibbon Street,24hr-Garda,,,53.357735,-6.255359,,(01) 6668400,,,,https://www.garda.ie/garda/en/contact-us/station-directory/fitzgibbon-street.html,
Irishtown,24hr-Garda,,,53.338063,-6.22304,,(01) 6669600,,,,https://www.garda.ie/garda/en/contact-us/station-directory/irishtown.html,
Kevin Street,24hr-Garda,,,53.338982,-6.270248,,(01) 6669400,,,,https://www.garda.ie/garda/en/contact-us/station-directory/kevin-street.html,
Kilmainham,24hr-Garda,,,53.341869,-6.304273,,(01) 6669700,,,,https://www.garda.ie/garda/en/contact-us/station-directory/kilmainham.html,
Lucan,24hr-Garda,,,53.356052,-6.45068,,(01) 6667300,,,,https://www.garda.ie/garda/en/contact-us/station-directory/lucan.html,
Mountjoy,24hr-Garda,,,53.360484,-6.266825,,(01) 6668600,,,,https://www.garda.ie/garda/en/contact-us/station-directory/mountjoy.html,
Pearse Street,24hr-Garda,,,53.345702,-6.256269,,(01) 6669000,,,,https://www.garda.ie/garda/en/contact-us/station-directory/pearse-street.html,
Raheny,24hr-Garda,,,53.378983,-6.177986,,(01) 6664300,,,,https://www.garda.ie/garda/en/contact-us/station-directory/raheny.html,
Rathfarnham,24hr-Garda,,,53.297388,-6.28815,,(01) 6666500,,,,https://www.garda.ie/garda/en/contact-us/station-directory/rathfarnham.html,
Rathmines,24hr-Garda,,,53.321317,-6.267004,,(01) 6666700,,,,https://www.garda.ie/garda/en/contact-us/station-directory/rathmines.html,
Ronanstown,24hr-Garda,,,53.337899,-6.406023,,(01) 6667700,,,,https://www.garda.ie/garda/en/contact-us/station-directory/ronanstown.html,
Shankill,24hr-Garda,,,53.233524,-6.121017,,(01) 6665900,,,,https://www.garda.ie/garda/en/contact-us/station-directory/shankill.html,
Store Street,24hr-Garda,,,53.350455,-6.252246,,(01) 6668000,,,,https://www.garda.ie/garda/en/contact-us/station-directory/store-street.html,
Swords,24hr-Garda,,,53.456023,-6.221116,,(01) 6664700,,,,https://www.garda.ie/garda/en/contact-us/station-directory/swords.html,
Tallaght,24hr-Garda,,,53.286801,-6.367838,,(01) 6666000,,,,https://www.garda.ie/garda/en/contact-us/station-directory/tallaght.html,
Ballinasloe,24hr-Garda,,,53.328431,-8.223624,,(090) 9631890,,,,https://www.garda.ie/garda/en/contact-us/station-directory/ballinasloe.html,
Clifden,24hr-Garda,,,53.488185,-10.009242,,(095) 22500,,,,https://www.garda.ie/garda/en/contact-us/station-directory/clifden.html,
Galway,24hr-Garda,,,53.271404,-9.057489,,(091) 538000,,,,https://www.garda.ie/garda/en/contact-us/station-directory/gaillimh-galway-.html,
Gort,24hr-Garda,,,53.067434,-8.818184,,(091) 636400,,,,https://www.garda.ie/garda/en/contact-us/station-directory/gort.html,
Loughrea,24hr-Garda,,,53.197374,-8.569948,,(091) 842870,,,,https://www.garda.ie/garda/en/contact-us/station-directory/loughrea.html,
Salthill,24hr-Garda,,,53.258788,-9.079714,,(091) 514720,,,,https://www.garda.ie/garda/en/contact-us/station-directory/salthill.html,
Tuam,24hr-Garda,,,53.515662,-8.855884,,(093) 70840,,,,https://www.garda.ie/garda/en/contact-us/station-directory/tuam.html,
Caherciveen,24hr-Garda,,,51.946966,-10.219832,,(066) 9473600,,,,https://www.garda.ie/garda/en/contact-us/station-directory/caherciveen.html,
Killarney,24hr-Garda,,,52.062403,-9.512388,,(064) 6671160,,,,https://www.garda.ie/garda/en/contact-us/station-directory/killarney.html,
Listowel,24hr-Garda,,,52.447132,-9.483916,,(068) 50820,,,,https://www.garda.ie/garda/en/contact-us/station-directory/listowel.html,
Tralee,24hr-Garda,,,52.269488,-9.708839,,(066) 7102300,,,,https://www.garda.ie/garda/en/contact-us/station-directory/tralee.html,
Kildare,24hr-Garda,,,53.156035,-6.907264,,(045) 527730,,,,https://www.garda.ie/garda/en/contact-us/station-directory/kildare.html,
Leixlip,24hr-Garda,,,53.367378,-6.49825,,(01) 6667800,,,,https://www.garda.ie/garda/en/contact-us/station-directory/leixlip.html,
Naas,24hr-Garda,,,53.210722,-6.666007,,(045) 884300,,,,https://www.garda.ie/garda/en/contact-us/station-directory/naas.html,
Newbridge,24hr-Garda,,,53.181435,-6.795531,,(045) 440180,,,,https://www.garda.ie/garda/en/contact-us/station-directory/newbridge.html,
Carlow,24hr-Garda,,,52.840527,-6.929317,,(059) 9136620,,,,https://www.garda.ie/garda/en/contact-us/station-directory/carlow.html,
Kilkenny,24hr-Garda,,,52.65244,-7.259723,,(056) 7775000,,,,https://www.garda.ie/garda/en/contact-us/station-directory/kilkenny.html,
Thomastown,24hr-Garda,,,52.528949,-7.140031,,(056) 7754150,,,,https://www.garda.ie/garda/en/contact-us/station-directory/thomastown.html,
Abbeyleix,24hr-Garda,,,52.912735,-7.343784,,(057) 8730580,,,,https://www.garda.ie/garda/en/contact-us/station-directory/abbeyleix.html,
Birr,24hr-Garda,,,53.096052,-7.911523,,(057) 9169710,,,,https://www.garda.ie/garda/en/contact-us/station-directory/birr.html,
Portlaoise,24hr-Garda,,,53.03165,-7.303082,,(057) 8674100,,,,https://www.garda.ie/garda/en/contact-us/station-directory/portlaoise.html,
Tullamore,24hr-Garda,,,53.276055,-7.494906,,(057) 9327600,,,,https://www.garda.ie/garda/en/contact-us/station-directory/tullamore.html,
Askeaton,24hr-Garda,,,52.600208,-8.978285,,(061) 601630,,,,https://www.garda.ie/garda/en/contact-us/station-directory/askeaton.html,
Bruff,24hr-Garda,,,52.47733,-8.546975,,(061) 382940,,,,https://www.garda.ie/garda/en/contact-us/station-directory/bruff.html,
Limerick,24hr-Garda,,,52.66164,-8.631345,,(061) 212400,,,,https://www.garda.ie/garda/en/contact-us/station-directory/henry-street.html,
Newcastle West,24hr-Garda,,,52.453746,-9.062395,,(069) 20650,,,,https://www.garda.ie/garda/en/contact-us/station-directory/newcastlewest.html,
Limerick,24hr-Garda,,,52.650763,-8.61491,,(061) 214340,,,,https://www.garda.ie/garda/en/contact-us/station-directory/roxboro-road.html,
Drogheda,24hr-Garda,,,53.715056,-6.356643,,(041) 9874200,,,,https://www.garda.ie/garda/en/contact-us/station-directory/drogheda.html,
Drumad,24hr-Garda,,,54.095768,-6.360793,,(042) 9358680,,,,https://www.garda.ie/garda/en/contact-us/station-directory/drumad.html,
Dundalk,24hr-Garda,,,53.999499,-6.409665,,(042) 9388400,,,,https://www.garda.ie/garda/en/contact-us/station-directory/dundalk.html,
Ballina,24hr-Garda,,,54.112854,-9.160445,,(096) 20560,,,,https://www.garda.ie/garda/en/contact-us/station-directory/ballina.html,
Belmullet,24hr-Garda,,,54.221746,-9.985584,,(097) 81910,,,,https://www.garda.ie/garda/en/contact-us/station-directory/beal-an-mhuirthead-belmullet-.html,
Castlebar,24hr-Garda,,,53.853436,-9.297628,,(094) 9038200,,,,https://www.garda.ie/garda/en/contact-us/station-directory/castlebar.html,
Claremorris,24hr-Garda,,,53.722297,-9.000249,,(094) 9372080,,,,https://www.garda.ie/garda/en/contact-us/station-directory/claremorris.html,
Swinford,24hr-Garda,,,53.940637,-8.952211,,(094) 9252990,,,,https://www.garda.ie/garda/en/contact-us/station-directory/swinford.html,
Westport,24hr-Garda,,,53.79907,-9.519437,,(098) 50230,,,,https://www.garda.ie/garda/en/contact-us/station-directory/westport.html,
Ashbourne,24hr-Garda,,,53.511375,-6.396999,,(01) 8010600,,,,https://www.garda.ie/garda/en/contact-us/station-directory/ashbourne.html,
Kells,24hr-Garda,,,53.728408,-6.881215,,(046) 9280820,,,,https://www.garda.ie/garda/en/contact-us/station-directory/kells.html,
Navan,24hr-Garda,,,53.654517,-6.690418,,(046) 9079930,,,,https://www.garda.ie/garda/en/contact-us/station-directory/navan.html,
Trim,24hr-Garda,,,53.553114,-6.789303,,(046) 9481540,,,,https://www.garda.ie/garda/en/contact-us/station-directory/trim.html,
Boyle,24hr-Garda,,,53.97337,-8.300395,,(071) 9664620,,,,https://www.garda.ie/garda/en/contact-us/station-directory/boyle.html,
Castlerea,24hr-Garda,,,53.766632,-8.484061,,(094) 9621630,,,,https://www.garda.ie/garda/en/contact-us/station-directory/castlerea.html,
Granard,24hr-Garda,,,53.778552,-7.494222,,(043) 6687660,,,,https://www.garda.ie/garda/en/contact-us/station-directory/granard.html,
Longford,24hr-Garda,,,53.73251,-7.80138,,(043) 3350570,,,,https://www.garda.ie/garda/en/contact-us/station-directory/longford.html,
Mayo/Roscommon/Longford,24hr-Garda,,,53.629842,-8.193576,,(090) 6638300,,,,https://www.garda.ie/garda/en/contact-us/station-directory/roscommon.html,
Ballymote,24hr-Garda,,,54.087429,-8.515224,,(071) 9189500,,,,https://www.garda.ie/garda/en/contact-us/station-directory/ballymote.html,
Carrick-on-Shannon,24hr-Garda,,,53.944337,-8.09015,,(071) 9650510,,,,https://www.garda.ie/garda/en/contact-us/station-directory/carrick-on-shannon.html,
Manorhamilton,24hr-Garda,,,54.304359,-8.178512,,(071) 9820620,,,,https://www.garda.ie/garda/en/contact-us/station-directory/manorhamilton.html,
Sligo,24hr-Garda,,,54.269256,-8.471265,,(071) 9157000,,,,https://www.garda.ie/garda/en/contact-us/station-directory/sligo.html,
Cahir,24hr-Garda,,,52.375972,-7.920298,,(052) 7445630,,,,https://www.garda.ie/garda/en/contact-us/station-directory/cahir.html,
Clonmel,24hr-Garda,,,52.354092,-7.699937,,(052) 6177640,,,,https://www.garda.ie/garda/en/contact-us/station-directory/clonmel.html,
Nenagh,24hr-Garda,,,52.864279,-8.199582,,(067) 50450,,,,https://www.garda.ie/garda/en/contact-us/station-directory/nenagh.html,
Roscrea,24hr-Garda,,,52.956163,-7.798782,,(0505) 21700,,,,https://www.garda.ie/garda/en/contact-us/station-directory/roscrea.html,
Templemore,24hr-Garda,,,52.796632,-7.835087,,(0504) 32630,,,,https://www.garda.ie/garda/en/contact-us/station-directory/templemore.html,
Thurles,24hr-Garda,,,52.675712,-7.8119,,(0504) 25100,,,,https://www.garda.ie/garda/en/contact-us/station-directory/thurles.html,
Tipperary Town,24hr-Garda,,,52.476051,-8.162901,,(062) 80670,,,,https://www.garda.ie/garda/en/contact-us/station-directory/tipperary-town.html,
Dungarvan,24hr-Garda,,,52.087691,-7.624475,,(058) 48600,,,,https://www.garda.ie/garda/en/contact-us/station-directory/dungarvan.html,
Tramore,24hr-Garda,,,52.161475,-7.153412,,(051) 391620,,,,https://www.garda.ie/garda/en/contact-us/station-directory/tramore.html,
Waterford,24hr-Garda,,,52.260269,-7.115254,,(051) 305300,,,,https://www.garda.ie/garda/en/contact-us/station-directory/waterford.html,
Athlone,24hr-Garda,,,53.423248,-7.944738,,(090) 6492600,,,,https://www.garda.ie/garda/en/contact-us/station-directory/athlone.html,
Mullingar,24hr-Garda,,,53.525701,-7.345952,,(044) 9384000,,,,https://www.garda.ie/garda/en/contact-us/station-directory/mullingar.html,
Enniscorthy,24hr-Garda,,,52.500739,-6.570682,,(053) 9233534,,,,https://www.garda.ie/garda/en/contact-us/station-directory/enniscorthy.html,
Gorey,24hr-Garda,,,52.675046,-6.29727,,(053) 9421222,,,,https://www.garda.ie/garda/en/contact-us/station-directory/gorey.html,
New Ross,24hr-Garda,,,52.387564,-6.9508,,(051) 426030,,,,https://www.garda.ie/garda/en/contact-us/station-directory/new-ross.html,
Wexford,24hr-Garda,,,52.335547,-6.461997,,(053) 9165200,,,,https://www.garda.ie/garda/en/contact-us/station-directory/wexford.html,
Arklow,24hr-Garda,,,52.796281,-6.154628,,(0402) 32304,,,,https://www.garda.ie/garda/en/contact-us/station-directory/arklow.html,
Baltinglass,24hr-Garda,,,52.938986,-6.709772,,(059) 6482610,,,,https://www.garda.ie/garda/en/contact-us/station-directory/baltinglass.html,
Bray,24hr-Garda,,,53.198679,-6.100595,,(01) 6665300,,,,https://www.garda.ie/garda/en/contact-us/station-directory/bray.html,
Greystones,24hr-Garda,,,53.147964,-6.063164,,(01) 6665800,,,,https://www.garda.ie/garda/en/contact-us/station-directory/greystones.html,
Wicklow,24hr-Garda,,,52.981435,-6.042638,,(0404) 60140,,,,https://www.garda.ie/garda/en/contact-us/station-directory/wicklow.html,
Carlow County Council,coco,,County Buildings Athy Road Carlow.,52.84334947,-6.930269792,,0599170300,,,,https://www.carlow.ie/,
Tullow Civic Offices,coco,,"Civic Offices Link Road, Tullow.",52.84334947,-6.9302698,,0599172415,,,,https://www.carlow.ie/,
Muinebheag Area Office,coco,,"McGrath Hall Station Road, Muinebheag",52.84334947,-6.9302699,,0599136296,,,,https://www.carlow.ie/,
Cavan County Council,coco,,Second Floor Johnston Centre Farnham Street Cavan H12 C9K1,53.99340371,-7.362202177,info@cavancoco.ie,049-4378300,,,,https://www.cavancoco.ie/your-council/customer-care/contact-us/,
Clare County Council,coco,,New Rd Lifford Ennis Co. Clare V95 DXP2,52.86779875,-8.976517544,customerservices@clarecoco.ie,0656821616,,,,https://www.clarecoco.ie/your-council/contact-the-council/default.html,
Cork County Council,coco,,County Hall Carrigrohane Rd Cork,51.92589431,-8.512757503,,0214276891,,,,https://www.corkcoco.ie/en/cork-county-council-contact-details,
Donegal County Council,coco,,St Orans Rd Ardaravan Buncrana Co. Donegal,55.16719875,-7.457168731,,0749153900,,,,https://www.donegalcoco.ie/services/contactus/,
Dun Laoghaire / Rathdown,coco,,2 Marine Rd Dunleary Dublin A96 K6C9,53.29446109,-6.134334348,info@dlrcoco.ie,012054700,,,,https://www.dlrcoco.ie/contact-us,
Fingal County Council,coco,,Grove Rd Blanchardstown Dublin 15,53.39553426,-6.392819348,,(01) 890 5000,,,,https://www.fingal.ie/contact-us,
Galway County Council,coco,,Áras an Chontae Prospect Hill Galway H91 H6KX,53.27662547,-9.048728647,customerservices@galwaycoco.ie,(0)91 509000,,,,http://www.galway.ie/en/contactus/,
Kerry County Council,coco,,Kerry County Council County Buildings Rathass Tralee Co. Kerry V92 H7VT,52.26628546,-9.678999603,,066 7183500,,,,https://www.kerrycoco.ie/contact-us/,
Kildare County Council,coco,,Devoy Park Naas Co. Kildare W91 X77F,53.21464964,-6.671698561,,045980200,,,,http://kildarecountycouncil.ie/,
Kilkenny County Council,coco,,Council Hall John Street Kilkenny,52.65293161,-7.248072678,,056 779 4000,,,,https://www.kilkennycoco.ie/eng/contact_us/,
Laois County Council,coco,,JFL Ave. Portlaoise Co Laois R32 EHP9,53.0320146,-7.301102232,,(057) 86 64000,,,,https://laois.ie/contact-us/,
Leitrim County Council,coco,,Aras an Chontae St George's Terrace Townparks Carrick-On-Shannon Co. Leitrim,53.9479357,-8.098554655,customerservices@leitrimcoco.ie,071 9620005,,,,http://www.leitrimcoco.ie/eng/contact_us/contact_us/,
Limerick City and County Council,coco,,City Hall Merchants Quay Englishtown Limerick V94 EH90,52.66615426,-8.624877058,,061556000,,,,https://www.limerick.ie/council/how-can-we-help/contact-us,
Limerick City and County Council,coco,,Limerick City and County Council Dooradoyle Road Dooradoyle Limerick V94 WV78,52.63907467,-8.64555819,,+353 61 556000,,,,https://www.limerick.ie/council/how-can-we-help/contact-us,
Longford County Council,coco,,Longford County Council Great Water Street Longford N39 NH56,53.73009647,-7.799412803,,0433343300,,,,https://www.longfordcoco.ie/your-council/contact-us/,
Louth County Council,coco,,Millennium Centre Dundalk Louth A91 KFW6,54.00371667,-6.386381403,,,,,,https://www.louthcoco.ie/en/contact/louth-county-council/,
Mayo County Council,coco,,The Mall Castlebar Co. Mayo F23 WF90,53.85407495,-9.299448148,,0949064000,,,,https://www.mayo.ie/contact,
Meath County Council,coco,,Buvinda House Dublin Road Navan Co. Meath C15 Y291,53.64742406,-6.668346441,,0469097000,,,,https://www.meath.ie/council/contact-customer-service,
Monaghan County Council,coco,,Monaghan County Council County Offices The Glen Monaghan H18 YT50,54.24271044,-6.971517207,,00353 47 30500,,,,https://monaghan.ie/contact/,
Offaly County Council,coco,,Áras an Chontae Charleville Rd Spollanstown Tullamore Co. Offaly R35 F893,53.28478842,-7.502209362,,0579346800,,,,https://www.offaly.ie/engaging-with-architecture-programmes/,
Roscommon County Council,coco,,County Hall Ardnanagh Roscommon F42 VR98,53.63087674,-8.194515679,,0906637100,,,,http://www.roscommoncoco.ie/en/,
Sligo County Council,coco,,County Hall Riverside Sligo F91 Y763,54.27120483,-8.462911326,,0719111111,,,,https://www.sligococo.ie/ContactUs/,
South Dublin County Council,coco,,County Hall Belgard Square North Tallaght Co. Dublin,53.28947532,-6.372718236,,014149000,,,,https://www.sdcc.ie/en/services/our-council/about-us/customer-care/,
Tipperary county council,coco,,Tipperary County Council North Tipperary Civic Offices Limerick Rd Nenagh North Nenagh Co. Tipperary,52.86305451,-8.210692436,,0818065000,,,,https://www.tipperarycoco.ie/,
Waterford City & County Council,coco,,The Mall Waterford,52.26800756,-7.106338048,,0818 10 20 20,,,,https://www.waterfordcouncil.ie/departments/corporate/customer-care.htm,
Westmeath County Council,coco,,"Áras An Chontae Mount St, Mullingar Co. Westmeath",53.52389936,-7.340270688,,0449332000,,,,http://www.westmeathcoco.ie/en/contactus/,
Wexford County Council,coco,,Newtown Rd Carricklawn Wexford Y35 WY93,52.35009573,-6.489895308,,0539196000,,,,https://www.wexfordcoco.ie/,
Wicklow County Council,coco,,Wicklow County Council County Buildings Whitegates Wicklow Town A67 FW96,52.98602777,-6.050685294,,(0404) 20100,,,,https://www.wicklow.ie/Living/Your-Council/Customer-Care/Contact-Us,
Cork City Council,cyco,,Cork City Council City Hall Anglesea Street Cork T12 T997,51.89748325,-8.465538118,,+353 21 4924000,,,,https://www.corkcity.ie/en/,
Dublin City Council,cyco,,Dublin City Council Customer Services Block 3 Floor 0 Civic Offices Wood Quay Dublin 8 D08 RF3F,53.3453952,-6.271382808,,01 222 2222,,,,https://www.dublincity.ie/council/council-explained/contact-us,
Galway City Council,cyco,,10A College Rd Galway H91 F798,53.27624486,-9.043438218,,091536400,,,,https://www.galwaycity.ie/contact-us-information/,
The Eastern & Midland Regional Assembly,regco,,3rd Floor North Ballymun Civic Centre Main Street Ballymun Dublin 9 Ireland D09C8P5,53.3957875,-6.263586108,,00 353 (0) 1 8074482,,,,http://emra.ie/contact-us/,
Northern & Western Regional Assembly,regco,,Northern & Western Regional Assembly The Square Ballaghaderreen Co Roscommon Ireland F45 W674,53.90243931,-8.579280523,info@nwra.ie,00 353 (0) 94 986 2970,,,,https://www.nwra.ie/contact-us/,
Southern Regional Assembly,regco,,Southern Regional Assembly Assembly House O' Connell Street Waterford Ireland X91 F8PC,52.26249071,-7.11407011,,+353 (0) 51 860700,,,,https://www.southernassembly.ie/contact,
